{"type":"FeatureCollection","features":[{"type":"Feature","id":"CTAMAP-2021-COUNTY-2838","properties":{"map_level":"county","source_name":"中朝共有","source_code":"0","county_type":"不统计","prefecture_name":"不统计","prefecture_code":"0","prefecture_type":"不统计","parent_entity_id":"","parent_year_end_name":"","province_name":"不统计","province_code":"0","snapshot_year":2021,"panel_year":2020,"link_status":"province_direct_or_out_of_scope","former_name":"","note":""},"geometry":{"type":"MultiPolygon","coordinates":[[[[124.34517,39.98784],[124.34597,39.97382],[124.36584,40.01981],[124.33073,40.0592],[124.40095,40.13421],[124.45151,40.17563],[124.48191,40.17379],[124.48597,40.18753],[124.51788,40.22656],[124.61165,40.28757],[124.71888,40.32164],[124.73326,40.37138],[124.85503,40.43791],[124.89142,40.48124],[124.91097,40.48122],[124.92083,40.45668],[124.98165,40.47711],[125.02373,40.45961],[125.03042,40.48205],[124.99302,40.4905],[125.01031,40.53678],[125.1138,40.57228],[125.17435,40.61226],[125.25556,40.619],[125.26362,40.6526],[125.27903,40.65869],[125.32759,40.63992],[125.3712,40.65516],[125.41057,40.62951],[125.40707,40.67097],[125.44466,40.66973],[125.45095,40.70563],[125.47476,40.72237],[125.53612,40.72671],[125.53921,40.75983],[125.56521,40.78284],[125.58507,40.78648],[125.60885,40.76075],[125.67775,40.76631],[125.66689,40.78544],[125.62669,40.79653],[125.62812,40.813],[125.76305,40.89218],[125.78045,40.89233],[125.79579,40.88428],[125.80745,40.86421],[125.85514,40.88445],[125.86826,40.9068],[125.89618,40.89733],[125.90574,40.91039],[125.91175,40.91124],[125.91472,40.9053],[125.90934,40.88785],[125.93812,40.87783],[125.97132,40.90413],[126.02194,40.89892],[125.99403,40.88811],[125.96898,40.90116],[125.96037,40.88221],[125.93283,40.8761],[125.905,40.88955],[125.91105,40.90941],[125.89698,40.89577],[125.86926,40.90457],[125.85852,40.88311],[125.80858,40.86116],[125.76539,40.88915],[125.75538,40.86719],[125.70942,40.86018],[125.64292,40.81267],[125.64732,40.79609],[125.68489,40.7852],[125.68525,40.76356],[125.59975,40.75275],[125.55862,40.76745],[125.53891,40.71674],[125.47737,40.71536],[125.45157,40.66562],[125.41537,40.66781],[125.41313,40.62243],[125.36747,40.64763],[125.32279,40.6333],[125.28245,40.6514],[125.26289,40.61129],[125.16222,40.5897],[125.01177,40.52037],[125.01241,40.5035],[125.06274,40.48837],[125.04136,40.45529],[124.98575,40.46732],[124.93049,40.45176],[124.90589,40.46004],[124.89679,40.47905],[124.85375,40.42127],[124.74537,40.36751],[124.72472,40.31703],[124.61602,40.28502],[124.5762,40.22901],[124.5148,40.20724],[124.51988,40.19773],[124.5184,40.18682],[124.52111,40.18278],[124.5243,40.1713],[124.52305,40.16669],[124.5164,40.16409],[124.50059,40.16559],[124.49173,40.15936],[124.49945,40.16614],[124.52334,40.16981],[124.5173,40.18577],[124.5165,40.20209],[124.51293,40.20663],[124.48466,40.17283],[124.46112,40.17308],[124.39989,40.12168],[124.4581,40.13069],[124.47025,40.15126],[124.46847,40.15877],[124.47056,40.1627],[124.47038,40.14932],[124.46001,40.1282],[124.42501,40.11802],[124.43503,40.11262],[124.40177,40.11643],[124.36967,40.09178],[124.37901,40.02734],[124.36644,39.95022],[124.36291,39.9602],[124.33358,39.93433],[124.35276,39.93671],[124.32563,39.93109],[124.31134,39.90603],[124.3729,39.83747],[124.35955,39.8556],[124.36054,39.87885],[124.34783,39.88516],[124.3449,39.88821],[124.33987,39.89839],[124.36133,39.87847],[124.36089,39.85549],[124.37836,39.84228],[124.38675,39.87686],[124.38342,39.85087],[124.41775,39.82622],[124.40949,39.80659],[124.2686,39.8194],[124.2833,39.92699],[124.26705,39.93261],[124.22504,39.9166],[124.21429,39.84477],[124.15945,39.8292],[124.20866,39.8616],[124.2114,39.89226],[124.22247,39.91486],[124.22901,39.92243],[124.26251,39.93339],[124.27267,39.93182],[124.27676,39.92927],[124.27986,39.92954],[124.29303,39.94403],[124.28327,39.96149],[124.34517,39.98784]],[[124.85193,40.43273],[124.85936,40.43243],[124.86085,40.43823],[124.85193,40.43273]]],[[[130.24026,42.80339],[130.25256,42.78952],[130.23762,42.78007],[130.24542,42.76214],[130.23938,42.73208],[130.24912,42.72649],[130.25128,42.70684],[130.28917,42.70118],[130.31969,42.65256],[130.37583,42.61806],[130.37898,42.61161],[130.37711,42.60045],[130.41615,42.61525],[130.42221,42.61495],[130.43803,42.60305],[130.43313,42.59015],[130.41527,42.57203],[130.43722,42.55176],[130.47754,42.56226],[130.45789,42.59465],[130.47233,42.61662],[130.48252,42.62097],[130.49685,42.62312],[130.50464,42.62187],[130.51274,42.61849],[130.52038,42.61293],[130.52337,42.60976],[130.52389,42.60011],[130.51145,42.58072],[130.52618,42.56695],[130.52759,42.54254],[130.55113,42.52374],[130.55623,42.49071],[130.58453,42.48258],[130.5698,42.43712],[130.60895,42.4332],[130.6358,42.42268],[130.63637,42.41701],[130.57664,42.42935],[130.56338,42.44064],[130.55898,42.45559],[130.56605,42.48446],[130.54883,42.49274],[130.50841,42.5826],[130.51702,42.61153],[130.47626,42.61254],[130.46457,42.59366],[130.48006,42.56211],[130.43652,42.54654],[130.41299,42.5729],[130.43058,42.60633],[130.37619,42.60009],[130.30615,42.65966],[130.28454,42.701],[130.25875,42.70242],[130.24982,42.70766],[130.232,42.73646],[130.24196,42.76677],[130.22431,42.79055],[130.24168,42.85237],[130.26694,42.89007],[130.26783,42.87405],[130.26511,42.86907],[130.26141,42.86534],[130.24888,42.85522],[130.25613,42.8409],[130.24026,42.80339]],[[130.56385,42.45858],[130.57034,42.4606],[130.57066,42.46695],[130.56385,42.45858]],[[130.23787,42.82145],[130.24032,42.81331],[130.24395,42.82513],[130.23787,42.82145]],[[130.5044,42.62146],[130.49718,42.61943],[130.5054,42.62047],[130.5044,42.62146]],[[130.26257,42.86763],[130.26459,42.87023],[130.26237,42.86768],[130.26257,42.86763]]],[[[126.75288,41.72508],[126.69722,41.74691],[126.69057,41.73452],[126.73522,41.71552],[126.68662,41.67837],[126.69619,41.66376],[126.65397,41.65024],[126.61435,41.6655],[126.61729,41.64269],[126.59506,41.61461],[126.56822,41.6115],[126.59223,41.56013],[126.55359,41.50286],[126.55806,41.48345],[126.50627,41.43406],[126.51737,41.38428],[126.50525,41.38145],[126.49612,41.43284],[126.54585,41.48757],[126.53471,41.49692],[126.54315,41.52836],[126.57711,41.55296],[126.56167,41.61929],[126.60324,41.63952],[126.60929,41.67282],[126.64781,41.65696],[126.71921,41.70682],[126.6812,41.72936],[126.69118,41.75058],[126.72018,41.75069],[126.75288,41.72508]]],[[[124.4874,40.1555],[124.48062,40.13295],[124.4782,40.13297],[124.47811,40.13773],[124.4874,40.1555]]]]}}]}