{"type":"FeatureCollection","features":[{"type":"Feature","id":"CTAMAP-2012-COUNTY-0082","properties":{"map_level":"county","source_name":"宝坻区","source_code":"120115","county_type":"市辖区","prefecture_name":"不统计","prefecture_code":"0","prefecture_type":"不统计","parent_entity_id":"CNUR-000002","parent_year_end_name":"天津市","province_name":"天津市","province_code":"120000","snapshot_year":2012,"panel_year":2011,"link_status":"parent_linked","former_name":"宝坻县","note":"2001年撤销宝坻县，设立宝坻区"},"geometry":{"type":"Polygon","coordinates":[[[117.25093,39.82883],[117.3171,39.79207],[117.38274,39.78562],[117.42304,39.75495],[117.48226,39.77836],[117.58977,39.74505],[117.57221,39.72193],[117.63817,39.70104],[117.66283,39.66553],[117.6579,39.63649],[117.61339,39.60511],[117.61499,39.59121],[117.63117,39.6026],[117.64978,39.57376],[117.67961,39.58765],[117.70242,39.57215],[117.6791,39.56468],[117.69856,39.55586],[117.6996,39.54686],[117.6539,39.5265],[117.62811,39.53613],[117.63024,39.52059],[117.60397,39.51078],[117.59502,39.48579],[117.54968,39.4935],[117.55943,39.47877],[117.54778,39.46757],[117.47669,39.44781],[117.50125,39.38234],[117.46673,39.36089],[117.42624,39.35856],[117.42723,39.34563],[117.37787,39.36137],[117.31444,39.34951],[117.29307,39.37826],[117.30664,39.4049],[117.31255,39.39308],[117.33414,39.40081],[117.28878,39.49038],[117.25925,39.49932],[117.25248,39.52536],[117.26878,39.53136],[117.14098,39.61381],[117.16965,39.64469],[117.15246,39.65989],[117.16484,39.69994],[117.14721,39.73495],[117.19957,39.76262],[117.17187,39.79407],[117.15104,39.79537],[117.14993,39.81606],[117.18612,39.83191],[117.25093,39.82883]]]}},{"type":"Feature","id":"CTAMAP-2012-COUNTY-0095","properties":{"map_level":"county","source_name":"北辰区","source_code":"120113","county_type":"市辖区","prefecture_name":"不统计","prefecture_code":"0","prefecture_type":"不统计","parent_entity_id":"CNUR-000002","parent_year_end_name":"天津市","province_name":"天津市","province_code":"120000","snapshot_year":2012,"panel_year":2011,"link_status":"parent_linked","former_name":"","note":""},"geometry":{"type":"Polygon","coordinates":[[[117.31697,39.32817],[117.37737,39.27844],[117.39453,39.28677],[117.3966,39.23906],[117.37966,39.22904],[117.28442,39.24737],[117.29157,39.22223],[117.21762,39.18393],[117.13759,39.19071],[117.12369,39.17088],[117.07741,39.17257],[117.06677,39.15849],[117.02546,39.15622],[117.01951,39.16998],[117.00727,39.15002],[116.99764,39.16963],[116.93409,39.17097],[116.93925,39.19126],[116.96091,39.19075],[116.96209,39.22849],[117.01625,39.25606],[117.01034,39.28703],[117.0586,39.2802],[117.08816,39.31097],[117.13868,39.3045],[117.15801,39.33017],[117.17315,39.3254],[117.21652,39.35501],[117.26949,39.3514],[117.29737,39.32536],[117.31697,39.32817]]]}},{"type":"Feature","id":"CTAMAP-2012-COUNTY-0117","properties":{"map_level":"county","source_name":"滨海新区","source_code":"120116","county_type":"市辖区","prefecture_name":"不统计","prefecture_code":"0","prefecture_type":"不统计","parent_entity_id":"CNUR-000002","parent_year_end_name":"天津市","province_name":"天津市","province_code":"120000","snapshot_year":2012,"panel_year":2011,"link_status":"parent_linked","former_name":"塘沽区、汉沽区、大港区","note":"2009年塘沽区、汉沽区、大港区合并为 滨海新区"},"geometry":{"type":"Polygon","coordinates":[[[118.05845,39.23004],[117.94341,39.21218],[117.95496,39.1811],[117.93477,39.17685],[117.92217,39.20945],[117.86813,39.19152],[117.87964,39.17222],[117.87648,39.16376],[117.87107,39.18247],[117.87434,39.16446],[117.85287,39.1805],[117.86467,39.16101],[117.8469,39.18106],[117.82645,39.17139],[117.83451,39.16421],[117.78588,39.13484],[117.84169,39.10264],[117.81834,39.07313],[117.72433,39.08981],[117.80484,39.05847],[117.82904,38.97373],[117.79365,38.98453],[117.76278,39.05032],[117.78663,38.97363],[117.71413,38.98844],[117.8785,38.94564],[117.87382,38.92911],[117.73671,38.96385],[117.70649,38.98552],[117.72386,38.96193],[117.77006,38.94439],[117.764,38.92892],[117.77855,38.9249],[117.7847,38.93943],[117.82069,38.92914],[117.81443,38.91475],[117.85685,38.91878],[117.82996,38.87962],[117.84528,38.87319],[117.83762,38.86194],[117.73516,38.89609],[117.68368,38.89777],[117.75091,38.8736],[117.74659,38.8565],[117.69048,38.87072],[117.68467,38.8571],[117.73885,38.84349],[117.72947,38.82764],[117.63848,38.85611],[117.61863,38.84135],[117.58326,38.77936],[117.59735,38.76985],[117.58382,38.76093],[117.60902,38.75784],[117.60884,38.71454],[117.6248,38.7144],[117.62511,38.74488],[117.64218,38.75814],[117.6877,38.75797],[117.68759,38.7237],[117.70665,38.72347],[117.70724,38.75258],[117.71993,38.75231],[117.71957,38.70136],[117.64999,38.70149],[117.64973,38.66478],[117.57869,38.67392],[117.60215,38.61701],[117.53858,38.61775],[117.52054,38.59991],[117.51591,38.61353],[117.47255,38.61651],[117.40361,38.59301],[117.38483,38.57097],[117.36269,38.56389],[117.36243,38.58157],[117.34841,38.57989],[117.34415,38.5609],[117.30202,38.55482],[117.28905,38.57135],[117.2469,38.5556],[117.23324,38.578],[117.25504,38.58602],[117.23163,38.58454],[117.25218,38.60555],[117.22653,38.62009],[117.2235,38.64207],[117.194,38.62112],[117.14479,38.61685],[117.15685,38.65493],[117.14191,38.68663],[117.15386,38.72864],[117.17079,38.73038],[117.1539,38.73049],[117.14786,38.72565],[117.12989,38.74069],[117.20805,38.78194],[117.18811,38.79426],[117.20153,38.81882],[117.21718,38.81061],[117.2526,38.84643],[117.32269,38.82267],[117.3269,38.83925],[117.40117,38.88609],[117.43108,38.85786],[117.49719,38.90698],[117.49056,38.9419],[117.52249,38.95249],[117.54483,38.94226],[117.55403,38.98874],[117.51095,39.0263],[117.52386,39.05741],[117.55271,39.05408],[117.55667,39.07681],[117.54664,39.09901],[117.49696,39.10701],[117.50626,39.15002],[117.54693,39.14667],[117.56265,39.1766],[117.60902,39.16488],[117.61098,39.20412],[117.63747,39.21417],[117.67389,39.18841],[117.67404,39.17063],[117.71267,39.17212],[117.7107,39.19613],[117.73753,39.23678],[117.70956,39.2558],[117.70325,39.28232],[117.77705,39.30583],[117.82119,39.26063],[117.84715,39.29605],[117.83403,39.31654],[117.85493,39.333],[117.96258,39.31505],[117.98885,39.28771],[118.02071,39.29024],[118.02782,39.26694],[118.0584,39.25469],[118.05845,39.23004]]]}},{"type":"Feature","id":"CTAMAP-2012-COUNTY-0344","properties":{"map_level":"county","source_name":"东丽区","source_code":"120110","county_type":"市辖区","prefecture_name":"不统计","prefecture_code":"0","prefecture_type":"不统计","parent_entity_id":"CNUR-000002","parent_year_end_name":"天津市","province_name":"天津市","province_code":"120000","snapshot_year":2012,"panel_year":2011,"link_status":"parent_linked","former_name":"","note":""},"geometry":{"type":"Polygon","coordinates":[[[117.3966,39.23906],[117.41014,39.22239],[117.44477,39.23523],[117.47263,39.22704],[117.47633,39.20509],[117.49685,39.20773],[117.48495,39.19746],[117.50357,39.20646],[117.50709,39.19154],[117.56265,39.1766],[117.54693,39.14667],[117.50626,39.15002],[117.49696,39.10701],[117.54664,39.09901],[117.55667,39.07681],[117.55271,39.05408],[117.52386,39.05741],[117.51095,39.0263],[117.52086,39.00518],[117.50561,38.99486],[117.48906,39.01503],[117.46376,39.01585],[117.46199,39.03211],[117.40922,39.0209],[117.37498,39.05228],[117.25981,39.07882],[117.26652,39.0899],[117.29466,39.08101],[117.30305,39.09907],[117.26948,39.10709],[117.27378,39.1459],[117.22731,39.19213],[117.29157,39.22223],[117.28442,39.24737],[117.37966,39.22904],[117.3966,39.23906]]]}},{"type":"Feature","id":"CTAMAP-2012-COUNTY-0658","properties":{"map_level":"county","source_name":"河北区","source_code":"120105","county_type":"市辖区","prefecture_name":"不统计","prefecture_code":"0","prefecture_type":"不统计","parent_entity_id":"CNUR-000002","parent_year_end_name":"天津市","province_name":"天津市","province_code":"120000","snapshot_year":2012,"panel_year":2011,"link_status":"parent_linked","former_name":"","note":""},"geometry":{"type":"Polygon","coordinates":[[[117.2544,39.15801],[117.20906,39.14892],[117.19232,39.12966],[117.16138,39.18256],[117.22731,39.19213],[117.2544,39.15801]]]}},{"type":"Feature","id":"CTAMAP-2012-COUNTY-0665","properties":{"map_level":"county","source_name":"河西区","source_code":"120103","county_type":"市辖区","prefecture_name":"不统计","prefecture_code":"0","prefecture_type":"不统计","parent_entity_id":"CNUR-000002","parent_year_end_name":"天津市","province_name":"天津市","province_code":"120000","snapshot_year":2012,"panel_year":2011,"link_status":"parent_linked","former_name":"","note":""},"geometry":{"type":"Polygon","coordinates":[[[117.25981,39.07882],[117.28499,39.07634],[117.28207,39.0592],[117.21377,39.05263],[117.17862,39.06968],[117.17294,39.10097],[117.21616,39.11644],[117.25981,39.07882]]]}},{"type":"Feature","id":"CTAMAP-2012-COUNTY-0690","properties":{"map_level":"county","source_name":"红桥区","source_code":"120106","county_type":"市辖区","prefecture_name":"不统计","prefecture_code":"0","prefecture_type":"不统计","parent_entity_id":"CNUR-000002","parent_year_end_name":"天津市","province_name":"天津市","province_code":"120000","snapshot_year":2012,"panel_year":2011,"link_status":"parent_linked","former_name":"","note":""},"geometry":{"type":"Polygon","coordinates":[[[117.16138,39.18256],[117.18814,39.14595],[117.12193,39.15114],[117.12953,39.18584],[117.16138,39.18256]]]}},{"type":"Feature","id":"CTAMAP-2012-COUNTY-0823","properties":{"map_level":"county","source_name":"蓟县","source_code":"120225","county_type":"县","prefecture_name":"不统计","prefecture_code":"0","prefecture_type":"不统计","parent_entity_id":"CNUR-000002","parent_year_end_name":"天津市","province_name":"天津市","province_code":"120000","snapshot_year":2012,"panel_year":2011,"link_status":"parent_linked","former_name":"","note":""},"geometry":{"type":"Polygon","coordinates":[[[117.55804,40.2279],[117.57812,40.1704],[117.64393,40.12703],[117.64319,40.09005],[117.66196,40.09873],[117.66858,40.08098],[117.69041,40.09372],[117.74828,40.07859],[117.76965,40.05793],[117.7417,40.04643],[117.73676,40.0165],[117.77604,40.02226],[117.79012,39.99539],[117.7755,39.96507],[117.74978,39.96385],[117.70004,39.98484],[117.66969,39.96731],[117.6256,39.96768],[117.58554,39.99565],[117.52922,39.9951],[117.5412,39.97591],[117.5044,39.93906],[117.51916,39.92841],[117.4975,39.90362],[117.5553,39.80153],[117.54412,39.76185],[117.48221,39.77836],[117.43,39.75411],[117.40777,39.75928],[117.38274,39.78562],[117.3171,39.79207],[117.24642,39.83101],[117.24183,39.8596],[117.22184,39.85169],[117.14721,39.87927],[117.13979,39.93181],[117.1917,39.99145],[117.17666,40.06028],[117.21637,40.06416],[117.20492,40.09478],[117.23323,40.1115],[117.34798,40.13772],[117.34494,40.17171],[117.40027,40.18469],[117.37718,40.18653],[117.37317,40.20051],[117.38659,40.20243],[117.37086,40.21713],[117.40921,40.24741],[117.55804,40.2279]]]}},{"type":"Feature","id":"CTAMAP-2012-COUNTY-0927","properties":{"map_level":"county","source_name":"津南区","source_code":"120112","county_type":"市辖区","prefecture_name":"不统计","prefecture_code":"0","prefecture_type":"不统计","parent_entity_id":"CNUR-000002","parent_year_end_name":"天津市","province_name":"天津市","province_code":"120000","snapshot_year":2012,"panel_year":2011,"link_status":"parent_linked","former_name":"","note":""},"geometry":{"type":"Polygon","coordinates":[[[117.52086,39.00518],[117.55403,38.98874],[117.54483,38.94226],[117.52249,38.95249],[117.49056,38.9419],[117.49719,38.90698],[117.43108,38.85786],[117.40117,38.88609],[117.3328,38.84266],[117.32208,38.88294],[117.30109,38.88505],[117.23745,38.95237],[117.2541,38.95115],[117.26748,38.97763],[117.27841,38.96787],[117.28878,38.9972],[117.25064,39.01985],[117.26028,39.04024],[117.21377,39.05263],[117.25561,39.04968],[117.30155,39.07547],[117.37612,39.05176],[117.40472,39.02204],[117.46087,39.03233],[117.46376,39.01585],[117.48906,39.01503],[117.50386,38.99489],[117.52086,39.00518]]]}},{"type":"Feature","id":"CTAMAP-2012-COUNTY-0967","properties":{"map_level":"county","source_name":"静海县","source_code":"120223","county_type":"县","prefecture_name":"不统计","prefecture_code":"0","prefecture_type":"不统计","parent_entity_id":"CNUR-000002","parent_year_end_name":"天津市","province_name":"天津市","province_code":"120000","snapshot_year":2012,"panel_year":2011,"link_status":"parent_linked","former_name":"","note":""},"geometry":{"type":"Polygon","coordinates":[[[116.87565,39.07092],[116.89236,39.06593],[116.88276,39.0539],[116.94585,39.05861],[116.96476,39.03805],[117.03213,39.02043],[117.02909,38.9964],[117.05619,39.00352],[117.11093,38.97666],[117.2526,38.84643],[117.21718,38.81061],[117.19083,38.80874],[117.18811,38.79426],[117.20805,38.78194],[117.12989,38.74069],[117.14786,38.72565],[117.1539,38.73049],[117.17079,38.73038],[117.15386,38.72864],[117.14191,38.68663],[117.15685,38.65493],[117.15078,38.62158],[117.1035,38.58397],[117.06453,38.60755],[117.04678,38.64067],[117.06219,38.6794],[117.03276,38.68779],[117.03928,38.70492],[117.00839,38.68918],[116.87158,38.68009],[116.86194,38.74558],[116.77814,38.73735],[116.73873,38.75177],[116.74628,38.77922],[116.73155,38.7837],[116.73255,38.80626],[116.74527,38.83046],[116.73888,38.85061],[116.71715,38.85151],[116.70243,38.92981],[116.74857,39.00253],[116.75042,39.04936],[116.78453,39.06101],[116.77897,39.04729],[116.85463,39.04984],[116.87565,39.07092]]]}},{"type":"Feature","id":"CTAMAP-2012-COUNTY-1421","properties":{"map_level":"county","source_name":"南开区","source_code":"120104","county_type":"市辖区","prefecture_name":"不统计","prefecture_code":"0","prefecture_type":"不统计","parent_entity_id":"CNUR-000002","parent_year_end_name":"天津市","province_name":"天津市","province_code":"120000","snapshot_year":2012,"panel_year":2011,"link_status":"parent_linked","former_name":"","note":""},"geometry":{"type":"Polygon","coordinates":[[[117.18814,39.14595],[117.17348,39.12043],[117.18277,39.06568],[117.16019,39.06059],[117.1031,39.13347],[117.12193,39.15114],[117.18814,39.14595]]]}},{"type":"Feature","id":"CTAMAP-2012-COUNTY-1457","properties":{"map_level":"county","source_name":"宁河县","source_code":"120221","county_type":"县","prefecture_name":"不统计","prefecture_code":"0","prefecture_type":"不统计","parent_entity_id":"CNUR-000002","parent_year_end_name":"天津市","province_name":"天津市","province_code":"120000","snapshot_year":2012,"panel_year":2011,"link_status":"parent_linked","former_name":"","note":""},"geometry":{"type":"Polygon","coordinates":[[[117.9278,39.5728],[117.89883,39.53342],[117.89275,39.47114],[117.86454,39.45393],[117.86571,39.41047],[117.84102,39.40717],[117.85971,39.37737],[117.79814,39.37011],[117.8055,39.35235],[117.85676,39.36137],[117.83072,39.3051],[117.84715,39.29605],[117.82278,39.262],[117.78214,39.28644],[117.77705,39.30583],[117.7023,39.28068],[117.73753,39.23678],[117.7107,39.19613],[117.71267,39.17212],[117.67404,39.17063],[117.67389,39.18841],[117.63747,39.21417],[117.61098,39.20412],[117.60902,39.16488],[117.53332,39.18095],[117.50357,39.20646],[117.49643,39.19434],[117.48495,39.19746],[117.49678,39.20782],[117.47815,39.20403],[117.48119,39.22082],[117.44477,39.23523],[117.40149,39.22483],[117.3874,39.24668],[117.39453,39.28677],[117.37737,39.27844],[117.31697,39.32817],[117.33179,39.35814],[117.37787,39.36137],[117.40867,39.34518],[117.46673,39.36089],[117.50125,39.38234],[117.47669,39.44781],[117.54778,39.46757],[117.55943,39.47877],[117.54968,39.4935],[117.59502,39.48579],[117.60397,39.51078],[117.63024,39.52059],[117.62811,39.53613],[117.6539,39.5265],[117.69306,39.55088],[117.70982,39.52885],[117.72658,39.53514],[117.73895,39.54692],[117.73165,39.5728],[117.74902,39.57996],[117.74035,39.59118],[117.86029,39.59899],[117.9278,39.5728]]]}},{"type":"Feature","id":"CTAMAP-2012-COUNTY-2104","properties":{"map_level":"county","source_name":"武清区","source_code":"120114","county_type":"市辖区","prefecture_name":"不统计","prefecture_code":"0","prefecture_type":"不统计","parent_entity_id":"CNUR-000002","parent_year_end_name":"天津市","province_name":"天津市","province_code":"120000","snapshot_year":2012,"panel_year":2011,"link_status":"parent_linked","former_name":"武清县","note":"2000年撤销武清县，设立武清区"},"geometry":{"type":"Polygon","coordinates":[[[117.14142,39.62125],[117.26878,39.53136],[117.25248,39.52536],[117.25925,39.49932],[117.28878,39.49038],[117.33414,39.40081],[117.31255,39.39308],[117.30664,39.4049],[117.29307,39.37826],[117.32207,39.34887],[117.3198,39.33052],[117.29737,39.32536],[117.2857,39.34571],[117.21625,39.35497],[117.17315,39.3254],[117.15801,39.33017],[117.13868,39.3045],[117.08816,39.31097],[117.0586,39.2802],[117.01034,39.28703],[117.01625,39.25606],[116.96209,39.22849],[116.96091,39.19075],[116.93654,39.18902],[116.94188,39.15992],[116.92231,39.15937],[116.93276,39.1498],[116.91528,39.14877],[116.92249,39.13449],[116.92027,39.1188],[116.91412,39.11918],[116.90586,39.14897],[116.85764,39.1534],[116.84995,39.21477],[116.86982,39.21567],[116.87,39.22976],[116.8868,39.22307],[116.86569,39.26836],[116.87962,39.33819],[116.86488,39.35653],[116.82314,39.33831],[116.81719,39.35685],[116.83078,39.36356],[116.81219,39.37245],[116.83168,39.37308],[116.83224,39.4094],[116.86994,39.43351],[116.78999,39.44572],[116.77952,39.46607],[116.8146,39.47949],[116.808,39.50915],[116.81905,39.51625],[116.81608,39.53334],[116.79984,39.52804],[116.7815,39.54755],[116.80566,39.57581],[116.79385,39.60281],[116.83256,39.62111],[116.81793,39.63401],[116.84538,39.65138],[116.84397,39.6665],[116.90065,39.67661],[116.9141,39.70574],[116.945,39.70576],[116.93807,39.68584],[116.9703,39.6353],[117.0095,39.65284],[117.11545,39.61582],[117.14142,39.62125]]]}},{"type":"Feature","id":"CTAMAP-2012-COUNTY-2135","properties":{"map_level":"county","source_name":"西青区","source_code":"120111","county_type":"市辖区","prefecture_name":"不统计","prefecture_code":"0","prefecture_type":"不统计","parent_entity_id":"CNUR-000002","parent_year_end_name":"天津市","province_name":"天津市","province_code":"120000","snapshot_year":2012,"panel_year":2011,"link_status":"parent_linked","former_name":"","note":""},"geometry":{"type":"Polygon","coordinates":[[[117.12369,39.17088],[117.1031,39.13347],[117.14318,39.0751],[117.16409,39.05984],[117.19779,39.07049],[117.22762,39.03998],[117.26028,39.04024],[117.25064,39.01985],[117.28878,38.9972],[117.27841,38.96787],[117.26748,38.97763],[117.2541,38.95115],[117.23745,38.95237],[117.32755,38.87563],[117.33823,38.85115],[117.32483,38.82359],[117.23969,38.85277],[117.12002,38.97056],[117.05619,39.00352],[117.02909,38.9964],[117.03213,39.02043],[116.96476,39.03805],[116.94403,39.05914],[116.88014,39.05827],[116.89236,39.06593],[116.87712,39.07712],[116.92027,39.1188],[116.91528,39.14877],[116.95338,39.17606],[116.99764,39.16963],[117.00727,39.15002],[117.01951,39.16998],[117.02546,39.15622],[117.12369,39.17088]]]}},{"type":"Feature","id":"CTAMAP-2012-COUNTY-2710","properties":{"map_level":"county","source_name":"河东区","source_code":"120102","county_type":"市辖区","prefecture_name":"不统计","prefecture_code":"0","prefecture_type":"不统计","parent_entity_id":"CNUR-000002","parent_year_end_name":"天津市","province_name":"天津市","province_code":"120000","snapshot_year":2012,"panel_year":2011,"link_status":"parent_linked","former_name":"","note":""},"geometry":{"type":"Polygon","coordinates":[[[117.25981,39.07882],[117.2392,39.08756],[117.19954,39.14384],[117.26612,39.16052],[117.26227,39.14484],[117.2802,39.13086],[117.26436,39.12649],[117.26948,39.10709],[117.30305,39.09907],[117.29466,39.08101],[117.26652,39.0899],[117.25981,39.07882]]]}},{"type":"Feature","id":"CTAMAP-2012-COUNTY-2712","properties":{"map_level":"county","source_name":"和平区","source_code":"120101","county_type":"市辖区","prefecture_name":"不统计","prefecture_code":"0","prefecture_type":"不统计","parent_entity_id":"CNUR-000002","parent_year_end_name":"天津市","province_name":"天津市","province_code":"120000","snapshot_year":2012,"panel_year":2011,"link_status":"parent_linked","former_name":"","note":""},"geometry":{"type":"Polygon","coordinates":[[[117.17484,39.13604],[117.21616,39.11644],[117.17294,39.10097],[117.17484,39.13604]]]}}]}