{"type":"FeatureCollection","features":[{"type":"Feature","id":"CTAMAP-2012-COUNTY-0205","properties":{"map_level":"county","source_name":"崇明县","source_code":"310230","county_type":"县","prefecture_name":"不统计","prefecture_code":"0","prefecture_type":"不统计","parent_entity_id":"CNUR-000073","parent_year_end_name":"上海市","province_name":"上海市","province_code":"310000","snapshot_year":2012,"panel_year":2011,"link_status":"parent_linked","former_name":"","note":""},"geometry":{"type":"Polygon","coordinates":[[[121.42718,31.7716],[121.59977,31.70307],[121.87476,31.63516],[121.87543,31.61321],[121.90901,31.57851],[121.97169,31.53831],[121.98787,31.4973],[121.98322,31.47623],[121.95325,31.50649],[121.92583,31.46265],[121.88721,31.45134],[121.87343,31.363],[121.94189,31.33641],[122.10501,31.32042],[122.11241,31.30743],[122.08938,31.26357],[121.96275,31.2955],[121.8545,31.2988],[121.85137,31.27677],[121.70453,31.32537],[121.53814,31.40697],[121.44431,31.46738],[121.38216,31.54725],[121.32162,31.58272],[121.25753,31.65124],[121.09698,31.7651],[121.21867,31.84723],[121.29084,31.87255],[121.37037,31.84913],[121.42718,31.7716]]]}},{"type":"Feature","id":"CTAMAP-2012-COUNTY-0445","properties":{"map_level":"county","source_name":"奉贤区","source_code":"310120","county_type":"市辖区","prefecture_name":"不统计","prefecture_code":"0","prefecture_type":"不统计","parent_entity_id":"CNUR-000073","parent_year_end_name":"上海市","province_name":"上海市","province_code":"310000","snapshot_year":2012,"panel_year":2011,"link_status":"parent_linked","former_name":"奉贤县","note":"2001年撤销奉贤县，设立奉贤区"},"geometry":{"type":"Polygon","coordinates":[[[121.56613,31.00054],[121.68866,30.99161],[121.7565,30.94973],[121.77681,30.91807],[121.76474,30.85071],[121.52507,30.81908],[121.4585,30.78165],[121.43235,30.82039],[121.37885,30.83601],[121.37763,30.88059],[121.34731,30.91526],[121.35547,30.98024],[121.48421,31.01721],[121.4909,31.00023],[121.5118,31.00995],[121.54682,30.99018],[121.56613,31.00054]]]}},{"type":"Feature","id":"CTAMAP-2012-COUNTY-0696","properties":{"map_level":"county","source_name":"虹口区","source_code":"310109","county_type":"市辖区","prefecture_name":"不统计","prefecture_code":"0","prefecture_type":"不统计","parent_entity_id":"CNUR-000073","parent_year_end_name":"上海市","province_name":"上海市","province_code":"310000","snapshot_year":2012,"panel_year":2011,"link_status":"parent_linked","former_name":"","note":""},"geometry":{"type":"Polygon","coordinates":[[[121.46377,31.31795],[121.4968,31.29658],[121.49206,31.27837],[121.512,31.24917],[121.4785,31.24393],[121.45772,31.27822],[121.46377,31.31795]]]}},{"type":"Feature","id":"CTAMAP-2012-COUNTY-0762","properties":{"map_level":"county","source_name":"黄浦区","source_code":"310101","county_type":"市辖区","prefecture_name":"不统计","prefecture_code":"0","prefecture_type":"不统计","parent_entity_id":"CNUR-000073","parent_year_end_name":"上海市","province_name":"上海市","province_code":"310000","snapshot_year":2012,"panel_year":2011,"link_status":"parent_linked","former_name":"卢湾区(黄浦区)","note":"2011年撤销卢湾区，合并到黄浦区"},"geometry":{"type":"Polygon","coordinates":[[[121.49044,31.24434],[121.50405,31.21263],[121.47087,31.18995],[121.45211,31.22581],[121.4629,31.22577],[121.45842,31.24326],[121.49044,31.24434]]]}},{"type":"Feature","id":"CTAMAP-2012-COUNTY-0829","properties":{"map_level":"county","source_name":"嘉定区","source_code":"310114","county_type":"市辖区","prefecture_name":"不统计","prefecture_code":"0","prefecture_type":"不统计","parent_entity_id":"CNUR-000073","parent_year_end_name":"上海市","province_name":"上海市","province_code":"310000","snapshot_year":2012,"panel_year":2011,"link_status":"parent_linked","former_name":"","note":""},"geometry":{"type":"Polygon","coordinates":[[[121.34449,31.32312],[121.32195,31.28785],[121.36275,31.27155],[121.37109,31.24624],[121.30919,31.22915],[121.24994,31.26162],[121.16402,31.258],[121.14731,31.26977],[121.15664,31.28606],[121.13888,31.3118],[121.12477,31.30542],[121.12566,31.34609],[121.10195,31.36857],[121.14342,31.3874],[121.15394,31.41209],[121.14333,31.42341],[121.15981,31.43328],[121.14292,31.4453],[121.23632,31.49561],[121.24281,31.47901],[121.2985,31.4989],[121.33184,31.43518],[121.32861,31.4125],[121.3096,31.40898],[121.34449,31.32312]]]}},{"type":"Feature","id":"CTAMAP-2012-COUNTY-0915","properties":{"map_level":"county","source_name":"金山区","source_code":"310116","county_type":"市辖区","prefecture_name":"不统计","prefecture_code":"0","prefecture_type":"不统计","parent_entity_id":"CNUR-000073","parent_year_end_name":"上海市","province_name":"上海市","province_code":"310000","snapshot_year":2012,"panel_year":2011,"link_status":"parent_linked","former_name":"","note":""},"geometry":{"type":"Polygon","coordinates":[[[121.02381,30.94575],[121.02043,30.91134],[121.03675,30.90333],[121.09256,30.90522],[121.09593,30.92867],[121.11686,30.92203],[121.10883,30.89963],[121.13651,30.90328],[121.13448,30.92185],[121.13845,30.91695],[121.14522,30.91346],[121.14801,30.91253],[121.1514,30.91258],[121.21873,30.93338],[121.28131,30.89796],[121.28421,30.91967],[121.34731,30.91526],[121.37763,30.88059],[121.37884,30.83601],[121.43235,30.82039],[121.4585,30.78165],[121.34634,30.70456],[121.26789,30.6917],[121.26415,30.73691],[121.22761,30.75821],[121.2144,30.78825],[121.19245,30.77567],[121.12248,30.7809],[121.13341,30.82872],[121.11585,30.85166],[121.06239,30.85085],[121.03361,30.81643],[121.01016,30.83825],[120.98574,30.82575],[121.01748,30.87721],[120.98618,30.89798],[121.00067,30.91086],[120.99339,30.95329],[121.02381,30.94575]]]}},{"type":"Feature","id":"CTAMAP-2012-COUNTY-0966","properties":{"map_level":"county","source_name":"闸北区","source_code":"310108","county_type":"市辖区","prefecture_name":"不统计","prefecture_code":"0","prefecture_type":"不统计","parent_entity_id":"CNUR-000073","parent_year_end_name":"上海市","province_name":"上海市","province_code":"310000","snapshot_year":2012,"panel_year":2011,"link_status":"parent_linked","former_name":"","note":""},"geometry":{"type":"Polygon","coordinates":[[[121.4785,31.24393],[121.42008,31.27305],[121.42908,31.32274],[121.4636,31.32211],[121.45697,31.28067],[121.4785,31.24393]]]}},{"type":"Feature","id":"CTAMAP-2012-COUNTY-1373","properties":{"map_level":"county","source_name":"闵行区","source_code":"310112","county_type":"市辖区","prefecture_name":"不统计","prefecture_code":"0","prefecture_type":"不统计","parent_entity_id":"CNUR-000073","parent_year_end_name":"上海市","province_name":"上海市","province_code":"310000","snapshot_year":2012,"panel_year":2011,"link_status":"parent_linked","former_name":"","note":""},"geometry":{"type":"Polygon","coordinates":[[[121.33356,31.23979],[121.33384,31.18205],[121.40794,31.19296],[121.38994,31.16148],[121.44794,31.10312],[121.48474,31.12686],[121.55586,31.11351],[121.56321,31.09519],[121.54594,31.08474],[121.57116,31.08212],[121.54213,31.0496],[121.55716,31.04546],[121.54911,31.02074],[121.56996,31.02504],[121.56613,31.00054],[121.54682,30.99018],[121.5118,31.00995],[121.4909,31.00023],[121.48421,31.01721],[121.32265,30.98255],[121.33904,31.01631],[121.32852,31.01614],[121.33049,31.06264],[121.36773,31.08193],[121.29694,31.19905],[121.27275,31.19574],[121.23567,31.24318],[121.24994,31.26162],[121.29341,31.23273],[121.33356,31.23979]]]}},{"type":"Feature","id":"CTAMAP-2012-COUNTY-1542","properties":{"map_level":"county","source_name":"浦东新区","source_code":"310115","county_type":"市辖区","prefecture_name":"不统计","prefecture_code":"0","prefecture_type":"不统计","parent_entity_id":"CNUR-000073","parent_year_end_name":"上海市","province_name":"上海市","province_code":"310000","snapshot_year":2012,"panel_year":2011,"link_status":"parent_linked","former_name":"南汇区(浦东新区)","note":"2009年南汇区并入浦东新区"},"geometry":{"type":"MultiPolygon","coordinates":[[[[121.85137,31.27677],[121.83632,31.2223],[121.7958,31.23149],[121.77298,31.21649],[121.87689,31.13249],[121.86236,31.1124],[121.88041,31.12891],[121.91987,31.09561],[121.89074,31.07533],[121.97408,30.92047],[121.97249,30.88499],[121.88757,30.84822],[121.76475,30.84816],[121.77681,30.91807],[121.7565,30.94973],[121.68866,30.99161],[121.56613,31.00054],[121.56996,31.02504],[121.54911,31.02074],[121.55716,31.04546],[121.54213,31.0496],[121.57116,31.08212],[121.54594,31.08474],[121.56321,31.09519],[121.55586,31.11351],[121.48474,31.12686],[121.46062,31.11421],[121.46047,31.18018],[121.50547,31.21784],[121.48835,31.24192],[121.53462,31.25315],[121.56463,31.27942],[121.55434,31.33331],[121.50528,31.35777],[121.50022,31.37974],[121.53814,31.40697],[121.70453,31.32537],[121.85137,31.27677]]],[[[121.94026,31.22958],[122.03546,31.21574],[122.02517,31.16683],[121.99041,31.15432],[121.9458,31.17748],[121.94026,31.22958]]],[[[121.88528,31.24464],[121.92277,31.22878],[121.9146,31.20095],[121.87493,31.23225],[121.88528,31.24464]]]]}},{"type":"Feature","id":"CTAMAP-2012-COUNTY-1604","properties":{"map_level":"county","source_name":"青浦区","source_code":"310118","county_type":"市辖区","prefecture_name":"不统计","prefecture_code":"0","prefecture_type":"不统计","parent_entity_id":"CNUR-000073","parent_year_end_name":"上海市","province_name":"上海市","province_code":"310000","snapshot_year":2012,"panel_year":2011,"link_status":"parent_linked","former_name":"","note":""},"geometry":{"type":"Polygon","coordinates":[[[121.11149,31.28767],[121.17951,31.2539],[121.24994,31.26162],[121.23567,31.24318],[121.25907,31.20837],[121.27301,31.19557],[121.29145,31.20531],[121.31809,31.16583],[121.21909,31.11711],[121.22372,31.14111],[121.17756,31.14536],[121.17959,31.12064],[121.15066,31.09234],[121.10813,31.11343],[121.09484,31.08508],[121.12424,31.06176],[121.07652,31.05843],[121.09556,31.03571],[121.08118,31.0274],[121.10003,31.01],[121.09339,30.96773],[121.06032,30.95688],[121.03904,30.97054],[121.01235,30.94234],[120.98862,30.95725],[120.9983,30.97976],[120.98507,31.01487],[120.95023,31.03231],[120.93545,31.01147],[120.89725,31.01966],[120.89824,31.08789],[120.85234,31.10718],[120.8756,31.13626],[121.01352,31.13641],[121.03618,31.13966],[121.04009,31.15629],[121.06401,31.15168],[121.05766,31.27003],[121.07781,31.27355],[121.08268,31.29409],[121.09859,31.27594],[121.11149,31.28767]]]}},{"type":"Feature","id":"CTAMAP-2012-COUNTY-1846","properties":{"map_level":"county","source_name":"松江区","source_code":"310117","county_type":"市辖区","prefecture_name":"不统计","prefecture_code":"0","prefecture_type":"不统计","parent_entity_id":"CNUR-000073","parent_year_end_name":"上海市","province_name":"上海市","province_code":"310000","snapshot_year":2012,"panel_year":2011,"link_status":"parent_linked","former_name":"","note":""},"geometry":{"type":"Polygon","coordinates":[[[121.31512,31.15936],[121.36773,31.08193],[121.33049,31.06264],[121.32852,31.01614],[121.33904,31.01631],[121.32235,30.99656],[121.32265,30.98255],[121.35547,30.98024],[121.34731,30.91526],[121.28421,30.91967],[121.28131,30.89796],[121.21873,30.93338],[121.1514,30.91258],[121.13448,30.92185],[121.13651,30.90328],[121.10883,30.89963],[121.11686,30.92203],[121.09593,30.92867],[121.09079,30.90464],[121.02043,30.91134],[121.03891,30.97048],[121.06032,30.95688],[121.09339,30.96773],[121.10003,31.01],[121.08118,31.0274],[121.09556,31.03571],[121.07652,31.05843],[121.08624,31.06665],[121.09671,31.05541],[121.12424,31.06176],[121.09484,31.08508],[121.108,31.11333],[121.15066,31.09234],[121.17959,31.12064],[121.17756,31.14536],[121.22372,31.14111],[121.21909,31.11711],[121.24253,31.13619],[121.2772,31.13519],[121.27479,31.15359],[121.31512,31.15936]]]}},{"type":"Feature","id":"CTAMAP-2012-COUNTY-2293","properties":{"map_level":"county","source_name":"徐汇区","source_code":"310104","county_type":"市辖区","prefecture_name":"不统计","prefecture_code":"0","prefecture_type":"不统计","parent_entity_id":"CNUR-000073","parent_year_end_name":"上海市","province_name":"上海市","province_code":"310000","snapshot_year":2012,"panel_year":2011,"link_status":"parent_linked","former_name":"","note":""},"geometry":{"type":"Polygon","coordinates":[[[121.47087,31.18995],[121.45264,31.14684],[121.46559,31.12379],[121.44794,31.10312],[121.38688,31.17056],[121.45311,31.22207],[121.47087,31.18995]]]}},{"type":"Feature","id":"CTAMAP-2012-COUNTY-2360","properties":{"map_level":"county","source_name":"杨浦区","source_code":"310110","county_type":"市辖区","prefecture_name":"不统计","prefecture_code":"0","prefecture_type":"不统计","parent_entity_id":"CNUR-000073","parent_year_end_name":"上海市","province_name":"上海市","province_code":"310000","snapshot_year":2012,"panel_year":2011,"link_status":"parent_linked","former_name":"","note":""},"geometry":{"type":"Polygon","coordinates":[[[121.512,31.24917],[121.48084,31.31345],[121.50122,31.3479],[121.52102,31.34883],[121.55434,31.33331],[121.56463,31.27942],[121.512,31.24917]]]}},{"type":"Feature","id":"CTAMAP-2012-COUNTY-2585","properties":{"map_level":"county","source_name":"长宁区","source_code":"310105","county_type":"市辖区","prefecture_name":"不统计","prefecture_code":"0","prefecture_type":"不统计","parent_entity_id":"CNUR-000073","parent_year_end_name":"上海市","province_name":"上海市","province_code":"310000","snapshot_year":2012,"panel_year":2011,"link_status":"parent_linked","former_name":"","note":""},"geometry":{"type":"Polygon","coordinates":[[[121.33356,31.23979],[121.38182,31.22081],[121.42291,31.23113],[121.43336,31.20588],[121.33384,31.18205],[121.33356,31.23979]]]}},{"type":"Feature","id":"CTAMAP-2012-COUNTY-2709","properties":{"map_level":"county","source_name":"普陀区","source_code":"310107","county_type":"市辖区","prefecture_name":"不统计","prefecture_code":"0","prefecture_type":"不统计","parent_entity_id":"CNUR-000073","parent_year_end_name":"上海市","province_name":"上海市","province_code":"310000","snapshot_year":2012,"panel_year":2011,"link_status":"parent_linked","former_name":"","note":""},"geometry":{"type":"Polygon","coordinates":[[[121.40077,31.27483],[121.43854,31.2689],[121.4454,31.24513],[121.37072,31.22228],[121.34955,31.23917],[121.37636,31.2596],[121.32139,31.28922],[121.33759,31.29971],[121.35876,31.30456],[121.35401,31.29518],[121.38997,31.29645],[121.40077,31.27483]]]}},{"type":"Feature","id":"CTAMAP-2012-COUNTY-2731","properties":{"map_level":"county","source_name":"宝山区","source_code":"310113","county_type":"市辖区","prefecture_name":"不统计","prefecture_code":"0","prefecture_type":"不统计","parent_entity_id":"CNUR-000073","parent_year_end_name":"上海市","province_name":"上海市","province_code":"310000","snapshot_year":2012,"panel_year":2011,"link_status":"parent_linked","former_name":"","note":""},"geometry":{"type":"Polygon","coordinates":[[[121.53814,31.40697],[121.50022,31.37974],[121.52102,31.34883],[121.50101,31.34769],[121.49218,31.3136],[121.42908,31.32274],[121.41486,31.26716],[121.38997,31.29645],[121.33228,31.29552],[121.34449,31.32312],[121.3096,31.40898],[121.32861,31.4125],[121.33184,31.43518],[121.29551,31.50181],[121.31998,31.5019],[121.38223,31.54715],[121.44431,31.46738],[121.53814,31.40697]]]}},{"type":"Feature","id":"CTAMAP-2012-COUNTY-2829","properties":{"map_level":"county","source_name":"静安区","source_code":"310106","county_type":"市辖区","prefecture_name":"不统计","prefecture_code":"0","prefecture_type":"不统计","parent_entity_id":"CNUR-000073","parent_year_end_name":"上海市","province_name":"上海市","province_code":"310000","snapshot_year":2012,"panel_year":2011,"link_status":"parent_linked","former_name":"","note":""},"geometry":{"type":"Polygon","coordinates":[[[121.45842,31.24326],[121.4629,31.22577],[121.42298,31.22611],[121.42625,31.23702],[121.45842,31.24326]]]}}]}