{"type":"FeatureCollection","features":[{"type":"Feature","id":"CTAMAP-2001-COUNTY-0046","properties":{"map_level":"county","source_name":"澳门特别行政区","source_code":"820000","county_type":"不统计","prefecture_name":"不统计","prefecture_code":"0","prefecture_type":"不统计","parent_entity_id":"","parent_year_end_name":"","province_name":"澳门特别行政区","province_code":"820000","snapshot_year":2001,"panel_year":2000,"link_status":"province_direct_or_out_of_scope","former_name":"","note":""},"geometry":{"type":"MultiPolygon","coordinates":[[[[113.53948,22.16248],[113.5874,22.16513],[113.5982,22.13527],[113.58856,22.14705],[113.58051,22.13539],[113.5925,22.12923],[113.57408,22.12476],[113.57403,22.11366],[113.55466,22.10984],[113.55173,22.14459],[113.53948,22.16248]]],[[[113.53308,22.21231],[113.56098,22.21012],[113.55865,22.18717],[113.5317,22.17935],[113.54192,22.20761],[113.53308,22.21231]]],[[[113.56864,22.20732],[113.56513,22.19083],[113.56255,22.21063],[113.56864,22.20732]]],[[[113.57161,22.20403],[113.58096,22.20405],[113.58097,22.19857],[113.57199,22.19705],[113.57161,22.20403]]]]}}]}