{"type":"FeatureCollection","features":[{"type":"Feature","id":"CTAMAP-2000-COUNTY-0079","properties":{"map_level":"county","source_name":"宝坻县","source_code":"120224","county_type":"县","prefecture_name":"不统计","prefecture_code":"0","prefecture_type":"不统计","parent_entity_id":"CNUR-000002","parent_year_end_name":"天津市","province_name":"天津市","province_code":"120000","snapshot_year":2000,"panel_year":1999,"link_status":"parent_linked","former_name":"","note":""},"geometry":{"type":"Polygon","coordinates":[[[117.25093,39.82883],[117.31229,39.80391],[117.3171,39.79207],[117.3384,39.79666],[117.38274,39.78562],[117.39193,39.76994],[117.42304,39.75495],[117.45563,39.77511],[117.45592,39.76702],[117.46323,39.77654],[117.48226,39.77836],[117.48624,39.76979],[117.49588,39.77269],[117.50393,39.76426],[117.52699,39.76567],[117.52589,39.75941],[117.54323,39.75565],[117.54919,39.76152],[117.58977,39.74505],[117.58457,39.74147],[117.5906,39.73469],[117.58226,39.73689],[117.57221,39.72193],[117.59664,39.70425],[117.63053,39.69561],[117.63817,39.70104],[117.63995,39.68626],[117.65401,39.67375],[117.65066,39.66769],[117.66283,39.66553],[117.6579,39.63649],[117.64603,39.63801],[117.6352,39.6116],[117.61339,39.60511],[117.61499,39.59121],[117.63117,39.6026],[117.63335,39.59208],[117.64833,39.58984],[117.64978,39.57376],[117.66873,39.58899],[117.67961,39.58765],[117.70242,39.57215],[117.69812,39.56454],[117.6791,39.56468],[117.69856,39.55586],[117.6996,39.54686],[117.68832,39.54996],[117.68175,39.53382],[117.6539,39.5265],[117.62811,39.53613],[117.63024,39.52059],[117.60397,39.51078],[117.59502,39.48579],[117.57365,39.48473],[117.56101,39.49667],[117.54968,39.4935],[117.55943,39.47877],[117.54778,39.46757],[117.51785,39.46504],[117.50393,39.45465],[117.49619,39.46087],[117.47669,39.44781],[117.49228,39.38854],[117.50125,39.38234],[117.4825,39.37892],[117.46673,39.36089],[117.42624,39.35856],[117.42723,39.34563],[117.38591,39.35154],[117.37787,39.36137],[117.33179,39.35814],[117.31444,39.34951],[117.29307,39.37826],[117.30569,39.38565],[117.30664,39.4049],[117.31255,39.39308],[117.33414,39.40081],[117.31982,39.42889],[117.32086,39.44249],[117.28858,39.47107],[117.28878,39.49038],[117.25925,39.49932],[117.26487,39.51371],[117.25248,39.52536],[117.26668,39.52518],[117.26878,39.53136],[117.14098,39.61381],[117.14326,39.62755],[117.16634,39.63516],[117.16965,39.64469],[117.15246,39.65989],[117.16368,39.67204],[117.16484,39.69994],[117.15715,39.71431],[117.16278,39.71626],[117.16173,39.72021],[117.14673,39.72137],[117.14721,39.73495],[117.15948,39.73649],[117.1565,39.74854],[117.19957,39.76262],[117.17346,39.78161],[117.17187,39.79407],[117.15104,39.79537],[117.14993,39.81606],[117.18862,39.82442],[117.18612,39.83191],[117.25093,39.82883]]]}},{"type":"Feature","id":"CTAMAP-2000-COUNTY-0092","properties":{"map_level":"county","source_name":"北辰区","source_code":"120113","county_type":"市辖区","prefecture_name":"不统计","prefecture_code":"0","prefecture_type":"不统计","parent_entity_id":"CNUR-000002","parent_year_end_name":"天津市","province_name":"天津市","province_code":"120000","snapshot_year":2000,"panel_year":1999,"link_status":"parent_linked","former_name":"","note":""},"geometry":{"type":"Polygon","coordinates":[[[117.31697,39.32817],[117.37737,39.27844],[117.39453,39.28677],[117.40033,39.2728],[117.3874,39.24668],[117.3966,39.23906],[117.37966,39.22904],[117.28442,39.24737],[117.27818,39.24341],[117.2872,39.24281],[117.29157,39.22223],[117.2411,39.20379],[117.21762,39.18393],[117.20434,39.19195],[117.16138,39.18256],[117.13759,39.19071],[117.12369,39.17088],[117.07741,39.17257],[117.06727,39.16828],[117.06677,39.15849],[117.05806,39.16427],[117.02546,39.15622],[117.01951,39.16998],[117.02035,39.15425],[117.00727,39.15002],[116.99764,39.16963],[116.96675,39.16671],[116.95576,39.17627],[116.94316,39.16526],[116.93409,39.17097],[116.93925,39.19126],[116.96091,39.19075],[116.96209,39.22849],[116.97471,39.23014],[116.98367,39.2444],[116.99968,39.24194],[117.00532,39.25594],[117.01625,39.25606],[117.01034,39.28703],[117.04204,39.29002],[117.04751,39.27991],[117.0586,39.2802],[117.0696,39.28188],[117.0687,39.29267],[117.08239,39.29832],[117.07353,39.30537],[117.08816,39.31097],[117.11377,39.31354],[117.13868,39.3045],[117.14972,39.31316],[117.14913,39.32207],[117.15889,39.32054],[117.15305,39.32672],[117.15801,39.33017],[117.17315,39.3254],[117.1862,39.33193],[117.18688,39.34379],[117.21652,39.35501],[117.23214,39.35638],[117.25795,39.34483],[117.26949,39.3514],[117.29878,39.33572],[117.29737,39.32536],[117.31697,39.32817]]]}},{"type":"Feature","id":"CTAMAP-2000-COUNTY-0113","properties":{"map_level":"county","source_name":"塘沽区","source_code":"120107","county_type":"市辖区","prefecture_name":"不统计","prefecture_code":"0","prefecture_type":"不统计","parent_entity_id":"CNUR-000002","parent_year_end_name":"天津市","province_name":"天津市","province_code":"120000","snapshot_year":2000,"panel_year":1999,"link_status":"parent_linked","former_name":"","note":""},"geometry":{"type":"Polygon","coordinates":[[[117.70973,39.19351],[117.72198,39.19082],[117.71482,39.17208],[117.73488,39.17086],[117.75881,39.18902],[117.78805,39.19017],[117.82692,39.20527],[117.83682,39.19085],[117.84071,39.17814],[117.82489,39.17014],[117.83451,39.16421],[117.81868,39.1637],[117.817,39.15138],[117.79752,39.14927],[117.78588,39.13484],[117.84169,39.10264],[117.81834,39.07313],[117.74457,39.09634],[117.72433,39.08981],[117.80484,39.05847],[117.82904,38.97373],[117.79365,38.98453],[117.77513,39.04639],[117.76278,39.05032],[117.78663,38.97363],[117.71367,38.99157],[117.75726,38.97165],[117.8785,38.94564],[117.87382,38.92911],[117.73671,38.96385],[117.70649,38.98552],[117.72386,38.96193],[117.77006,38.94439],[117.764,38.92892],[117.77855,38.9249],[117.7847,38.93943],[117.82069,38.92914],[117.81443,38.91475],[117.82509,38.91179],[117.83127,38.92619],[117.85685,38.91878],[117.82996,38.87962],[117.84528,38.87319],[117.83762,38.86194],[117.73516,38.89609],[117.7321,38.88856],[117.68368,38.89777],[117.68027,38.89111],[117.75091,38.8736],[117.74659,38.8565],[117.69048,38.87072],[117.68467,38.8571],[117.73885,38.84349],[117.72947,38.82764],[117.64658,38.8481],[117.63848,38.85611],[117.5959,38.81201],[117.58326,38.77936],[117.59515,38.7679],[117.57073,38.76654],[117.57482,38.77533],[117.50738,38.77444],[117.50288,38.90736],[117.53424,38.916],[117.55691,38.93236],[117.56185,38.94719],[117.54563,38.94693],[117.54319,38.96739],[117.5538,38.98912],[117.52086,39.00518],[117.51914,39.02548],[117.51095,39.0263],[117.52386,39.05741],[117.55271,39.05408],[117.55667,39.07681],[117.5476,39.07875],[117.54664,39.09901],[117.49696,39.10701],[117.50626,39.15002],[117.53501,39.14185],[117.54693,39.14667],[117.54949,39.15821],[117.56075,39.16122],[117.56265,39.1766],[117.60902,39.16488],[117.61754,39.18172],[117.61098,39.20412],[117.6317,39.21306],[117.65985,39.18813],[117.67389,39.18841],[117.67404,39.17063],[117.71267,39.17212],[117.70973,39.19351]]]}},{"type":"Feature","id":"CTAMAP-2000-COUNTY-0332","properties":{"map_level":"county","source_name":"东丽区","source_code":"120110","county_type":"市辖区","prefecture_name":"不统计","prefecture_code":"0","prefecture_type":"不统计","parent_entity_id":"CNUR-000002","parent_year_end_name":"天津市","province_name":"天津市","province_code":"120000","snapshot_year":2000,"panel_year":1999,"link_status":"parent_linked","former_name":"","note":""},"geometry":{"type":"Polygon","coordinates":[[[117.3966,39.23906],[117.40149,39.22483],[117.41014,39.22239],[117.44477,39.23523],[117.47263,39.22704],[117.48119,39.22082],[117.47633,39.20509],[117.49685,39.20773],[117.48495,39.19746],[117.49643,39.19434],[117.50357,39.20646],[117.50709,39.19154],[117.56265,39.1766],[117.56075,39.16122],[117.54949,39.15821],[117.54693,39.14667],[117.53501,39.14185],[117.50626,39.15002],[117.49696,39.10701],[117.54664,39.09901],[117.5476,39.07875],[117.55667,39.07681],[117.55271,39.05408],[117.52386,39.05741],[117.51095,39.0263],[117.51914,39.02548],[117.52086,39.00518],[117.50561,38.99486],[117.48906,39.01503],[117.46376,39.01585],[117.46199,39.03211],[117.4373,39.02032],[117.40922,39.0209],[117.38756,39.03125],[117.37498,39.05228],[117.34541,39.05179],[117.30615,39.07448],[117.25981,39.07882],[117.26652,39.0899],[117.29466,39.08101],[117.30305,39.09907],[117.26948,39.10709],[117.26436,39.12649],[117.2802,39.13086],[117.27378,39.1459],[117.26227,39.14484],[117.26612,39.16052],[117.2544,39.15801],[117.25147,39.1698],[117.23932,39.16961],[117.2438,39.17752],[117.22731,39.19213],[117.29157,39.22223],[117.2872,39.24281],[117.27818,39.24341],[117.28442,39.24737],[117.37966,39.22904],[117.3966,39.23906]]]}},{"type":"Feature","id":"CTAMAP-2000-COUNTY-0635","properties":{"map_level":"county","source_name":"河北区","source_code":"120105","county_type":"市辖区","prefecture_name":"不统计","prefecture_code":"0","prefecture_type":"不统计","parent_entity_id":"CNUR-000002","parent_year_end_name":"天津市","province_name":"天津市","province_code":"120000","snapshot_year":2000,"panel_year":1999,"link_status":"parent_linked","former_name":"","note":""},"geometry":{"type":"Polygon","coordinates":[[[117.2544,39.15801],[117.2428,39.15723],[117.24376,39.14866],[117.20906,39.14892],[117.19716,39.1398],[117.20394,39.13258],[117.19232,39.12966],[117.18814,39.14595],[117.16932,39.16308],[117.17191,39.1803],[117.16138,39.18256],[117.20434,39.19195],[117.21586,39.18347],[117.22731,39.19213],[117.2438,39.17752],[117.23932,39.16961],[117.25371,39.16768],[117.2544,39.15801]]]}},{"type":"Feature","id":"CTAMAP-2000-COUNTY-0642","properties":{"map_level":"county","source_name":"河西区","source_code":"120103","county_type":"市辖区","prefecture_name":"不统计","prefecture_code":"0","prefecture_type":"不统计","parent_entity_id":"CNUR-000002","parent_year_end_name":"天津市","province_name":"天津市","province_code":"120000","snapshot_year":2000,"panel_year":1999,"link_status":"parent_linked","former_name":"","note":""},"geometry":{"type":"Polygon","coordinates":[[[117.23958,39.08718],[117.28499,39.07634],[117.28207,39.0592],[117.26336,39.05996],[117.25561,39.04968],[117.21377,39.05263],[117.19779,39.07049],[117.17862,39.06968],[117.17294,39.10097],[117.1903,39.10057],[117.21616,39.11644],[117.23958,39.08718]]]}},{"type":"Feature","id":"CTAMAP-2000-COUNTY-0667","properties":{"map_level":"county","source_name":"红桥区","source_code":"120106","county_type":"市辖区","prefecture_name":"不统计","prefecture_code":"0","prefecture_type":"不统计","parent_entity_id":"CNUR-000002","parent_year_end_name":"天津市","province_name":"天津市","province_code":"120000","snapshot_year":2000,"panel_year":1999,"link_status":"parent_linked","former_name":"","note":""},"geometry":{"type":"Polygon","coordinates":[[[117.15314,39.18925],[117.17191,39.1803],[117.16948,39.16269],[117.18814,39.14595],[117.15273,39.14046],[117.12193,39.15114],[117.12953,39.18584],[117.15314,39.18925]]]}},{"type":"Feature","id":"CTAMAP-2000-COUNTY-0791","properties":{"map_level":"county","source_name":"蓟县","source_code":"120225","county_type":"县","prefecture_name":"不统计","prefecture_code":"0","prefecture_type":"不统计","parent_entity_id":"CNUR-000002","parent_year_end_name":"天津市","province_name":"天津市","province_code":"120000","snapshot_year":2000,"panel_year":1999,"link_status":"parent_linked","former_name":"","note":""},"geometry":{"type":"Polygon","coordinates":[[[117.55892,40.2041],[117.57812,40.1704],[117.59498,40.17015],[117.6243,40.14672],[117.62957,40.13112],[117.64393,40.12703],[117.64979,40.10807],[117.63915,40.09589],[117.64319,40.09005],[117.66196,40.09873],[117.66858,40.08098],[117.68188,40.08165],[117.69041,40.09372],[117.71586,40.07857],[117.74828,40.07859],[117.74796,40.06728],[117.76965,40.05793],[117.75246,40.04291],[117.7417,40.04643],[117.73676,40.0165],[117.74776,40.01029],[117.75511,40.01936],[117.77604,40.02226],[117.79012,39.99539],[117.7755,39.96507],[117.75703,39.97147],[117.74978,39.96385],[117.70004,39.98484],[117.68266,39.98284],[117.66969,39.96731],[117.6256,39.96768],[117.60863,39.97136],[117.58554,39.99565],[117.56,39.98978],[117.52922,39.9951],[117.5412,39.97591],[117.5267,39.95142],[117.5044,39.93906],[117.51916,39.92841],[117.51559,39.91943],[117.49902,39.91694],[117.50637,39.91741],[117.50738,39.90887],[117.4975,39.90362],[117.50364,39.89259],[117.51054,39.89395],[117.51468,39.8706],[117.5385,39.84341],[117.5553,39.80153],[117.54105,39.77681],[117.54863,39.77038],[117.54412,39.76185],[117.50393,39.76426],[117.48221,39.77836],[117.46323,39.77654],[117.45592,39.76702],[117.45521,39.77494],[117.43,39.75411],[117.40777,39.75928],[117.38274,39.78562],[117.3384,39.79666],[117.3171,39.79207],[117.31229,39.80391],[117.24642,39.83101],[117.24918,39.84897],[117.24183,39.8596],[117.22184,39.85169],[117.17408,39.8632],[117.17159,39.86942],[117.16178,39.86564],[117.16817,39.87343],[117.14721,39.87927],[117.15191,39.88812],[117.14188,39.89653],[117.15235,39.90776],[117.13783,39.91097],[117.13979,39.93181],[117.14998,39.93363],[117.14515,39.94449],[117.15873,39.95156],[117.1589,39.96213],[117.16944,39.95777],[117.17217,39.97594],[117.1917,39.99145],[117.17666,40.06028],[117.21637,40.06416],[117.20336,40.08096],[117.20492,40.09478],[117.21875,40.09489],[117.23323,40.1115],[117.29113,40.11768],[117.30708,40.13862],[117.32865,40.13264],[117.34798,40.13772],[117.35399,40.15564],[117.34494,40.17171],[117.40027,40.18469],[117.39115,40.19146],[117.37718,40.18653],[117.37317,40.20051],[117.38659,40.20243],[117.37185,40.20866],[117.37086,40.21713],[117.40863,40.23531],[117.40921,40.24741],[117.44351,40.25111],[117.49646,40.22747],[117.55804,40.2279],[117.56536,40.21818],[117.55892,40.2041]]]}},{"type":"Feature","id":"CTAMAP-2000-COUNTY-0892","properties":{"map_level":"county","source_name":"津南区","source_code":"120112","county_type":"市辖区","prefecture_name":"不统计","prefecture_code":"0","prefecture_type":"不统计","parent_entity_id":"CNUR-000002","parent_year_end_name":"天津市","province_name":"天津市","province_code":"120000","snapshot_year":2000,"panel_year":1999,"link_status":"parent_linked","former_name":"","note":""},"geometry":{"type":"Polygon","coordinates":[[[117.52086,39.00518],[117.55403,38.98874],[117.54319,38.96739],[117.54483,38.94226],[117.52249,38.95249],[117.49056,38.9419],[117.49719,38.90698],[117.48056,38.90456],[117.44108,38.87754],[117.43108,38.85786],[117.40117,38.88609],[117.3328,38.84266],[117.33669,38.85747],[117.32208,38.88294],[117.30109,38.88505],[117.25647,38.92802],[117.26051,38.94184],[117.23745,38.95237],[117.2541,38.95115],[117.26748,38.97763],[117.27841,38.96787],[117.28774,38.99316],[117.2823,38.99533],[117.28878,38.9972],[117.27145,39.00111],[117.2674,39.015],[117.25064,39.01985],[117.25949,39.02029],[117.26028,39.04024],[117.22762,39.03998],[117.21377,39.05263],[117.25561,39.04968],[117.26336,39.05996],[117.28207,39.0592],[117.28499,39.07634],[117.30155,39.07547],[117.34318,39.05239],[117.37612,39.05176],[117.38756,39.03125],[117.40472,39.02204],[117.43407,39.0197],[117.46087,39.03233],[117.46376,39.01585],[117.48906,39.01503],[117.50386,38.99489],[117.52086,39.00518]]]}},{"type":"Feature","id":"CTAMAP-2000-COUNTY-0932","properties":{"map_level":"county","source_name":"静海县","source_code":"120223","county_type":"县","prefecture_name":"不统计","prefecture_code":"0","prefecture_type":"不统计","parent_entity_id":"CNUR-000002","parent_year_end_name":"天津市","province_name":"天津市","province_code":"120000","snapshot_year":2000,"panel_year":1999,"link_status":"parent_linked","former_name":"","note":""},"geometry":{"type":"Polygon","coordinates":[[[116.86435,39.06917],[116.89236,39.06593],[116.88276,39.0539],[116.90287,39.06041],[116.93504,39.0494],[116.94585,39.05861],[116.94309,39.0535],[116.96476,39.03805],[117.03213,39.02043],[117.02909,38.9964],[117.05084,38.99483],[117.05619,39.00352],[117.11093,38.97666],[117.13462,38.95834],[117.18188,38.89945],[117.2526,38.84643],[117.21718,38.81061],[117.20171,38.81888],[117.19083,38.80874],[117.19867,38.80447],[117.18811,38.79426],[117.20805,38.78194],[117.15776,38.75542],[117.14905,38.7588],[117.14763,38.75038],[117.12989,38.74069],[117.1308,38.73279],[117.14786,38.72565],[117.1539,38.73049],[117.17079,38.73038],[117.15386,38.72864],[117.15241,38.69726],[117.14191,38.68663],[117.14163,38.67528],[117.1515,38.67066],[117.15685,38.65493],[117.15078,38.62158],[117.14137,38.6058],[117.11825,38.59905],[117.1035,38.58397],[117.09186,38.58601],[117.09055,38.59974],[117.06453,38.60755],[117.05798,38.63485],[117.04678,38.64067],[117.06219,38.6794],[117.03934,38.68544],[117.03916,38.69133],[117.03276,38.68779],[117.03928,38.70492],[117.00939,38.70049],[117.00839,38.68918],[116.98847,38.69573],[116.92471,38.68615],[116.92187,38.67951],[116.9124,38.67874],[116.91198,38.687],[116.87158,38.68009],[116.86942,38.71216],[116.86009,38.71961],[116.86194,38.74558],[116.78693,38.74561],[116.77814,38.73735],[116.76043,38.74117],[116.75301,38.7541],[116.73873,38.75177],[116.74628,38.77922],[116.73155,38.7837],[116.74017,38.79779],[116.73255,38.80626],[116.74527,38.83046],[116.73783,38.83075],[116.73888,38.85061],[116.71715,38.85151],[116.71665,38.89628],[116.70207,38.89619],[116.70243,38.92981],[116.7171,38.96337],[116.74857,39.00253],[116.75042,39.04936],[116.767,39.04593],[116.78453,39.06101],[116.79047,39.05652],[116.77902,39.05464],[116.77897,39.04729],[116.79142,39.05309],[116.81726,39.04643],[116.85463,39.04984],[116.86583,39.05384],[116.86435,39.06917]]]}},{"type":"Feature","id":"CTAMAP-2000-COUNTY-1373","properties":{"map_level":"county","source_name":"南开区","source_code":"120104","county_type":"市辖区","prefecture_name":"不统计","prefecture_code":"0","prefecture_type":"不统计","parent_entity_id":"CNUR-000002","parent_year_end_name":"天津市","province_name":"天津市","province_code":"120000","snapshot_year":2000,"panel_year":1999,"link_status":"parent_linked","former_name":"","note":""},"geometry":{"type":"Polygon","coordinates":[[[117.18814,39.14595],[117.18793,39.13375],[117.17484,39.13604],[117.17348,39.12043],[117.1737,39.0881],[117.18277,39.06568],[117.16019,39.06059],[117.13021,39.09068],[117.12483,39.1152],[117.1031,39.13347],[117.12193,39.15114],[117.15273,39.14046],[117.18814,39.14595]]]}},{"type":"Feature","id":"CTAMAP-2000-COUNTY-1407","properties":{"map_level":"county","source_name":"宁河县","source_code":"120221","county_type":"县","prefecture_name":"不统计","prefecture_code":"0","prefecture_type":"不统计","parent_entity_id":"CNUR-000002","parent_year_end_name":"天津市","province_name":"天津市","province_code":"120000","snapshot_year":2000,"panel_year":1999,"link_status":"parent_linked","former_name":"","note":""},"geometry":{"type":"Polygon","coordinates":[[[117.9278,39.5728],[117.89883,39.53342],[117.90662,39.51605],[117.89256,39.50868],[117.88619,39.48545],[117.89275,39.47114],[117.87256,39.46612],[117.86454,39.45393],[117.86571,39.41047],[117.84102,39.40717],[117.84217,39.4002],[117.8534,39.40182],[117.85971,39.37737],[117.79814,39.37011],[117.79658,39.35987],[117.8055,39.35235],[117.83402,39.35168],[117.84702,39.35971],[117.84582,39.36865],[117.85676,39.36137],[117.83581,39.33542],[117.84375,39.31454],[117.8373,39.32274],[117.83072,39.3051],[117.84715,39.29605],[117.82278,39.262],[117.80568,39.26497],[117.80566,39.27631],[117.78214,39.28644],[117.78607,39.3013],[117.77705,39.30583],[117.7023,39.28068],[117.70956,39.2558],[117.73753,39.23678],[117.7107,39.19613],[117.71267,39.17212],[117.67404,39.17063],[117.67389,39.18841],[117.65985,39.18813],[117.63747,39.21417],[117.61098,39.20412],[117.61754,39.18172],[117.60902,39.16488],[117.53332,39.18095],[117.50709,39.19154],[117.50741,39.20375],[117.50357,39.20646],[117.49643,39.19434],[117.48495,39.19746],[117.49678,39.20782],[117.47815,39.20403],[117.48119,39.22082],[117.44477,39.23523],[117.40149,39.22483],[117.4025,39.23616],[117.3874,39.24668],[117.40033,39.2728],[117.39453,39.28677],[117.37737,39.27844],[117.31697,39.32817],[117.31637,39.34763],[117.33179,39.35814],[117.37787,39.36137],[117.40867,39.34518],[117.42916,39.34652],[117.42624,39.35856],[117.46673,39.36089],[117.4825,39.37892],[117.50125,39.38234],[117.49228,39.38854],[117.47669,39.44781],[117.49619,39.46087],[117.50393,39.45465],[117.51785,39.46504],[117.54778,39.46757],[117.55943,39.47877],[117.54968,39.4935],[117.56101,39.49667],[117.57365,39.48473],[117.59502,39.48579],[117.60397,39.51078],[117.63024,39.52059],[117.62811,39.53613],[117.6539,39.5265],[117.68175,39.53382],[117.69306,39.55088],[117.70982,39.52885],[117.72658,39.53514],[117.73895,39.54692],[117.7292,39.55944],[117.73165,39.5728],[117.74902,39.57996],[117.74035,39.59118],[117.76136,39.59779],[117.78307,39.59322],[117.79581,39.60055],[117.84524,39.58827],[117.86029,39.59899],[117.91307,39.58438],[117.9278,39.5728]]]}},{"type":"Feature","id":"CTAMAP-2000-COUNTY-2032","properties":{"map_level":"county","source_name":"武清县","source_code":"120222","county_type":"县","prefecture_name":"不统计","prefecture_code":"0","prefecture_type":"不统计","parent_entity_id":"CNUR-000002","parent_year_end_name":"天津市","province_name":"天津市","province_code":"120000","snapshot_year":2000,"panel_year":1999,"link_status":"parent_linked","former_name":"","note":""},"geometry":{"type":"Polygon","coordinates":[[[117.14142,39.62125],[117.14315,39.61189],[117.26878,39.53136],[117.26668,39.52518],[117.25248,39.52536],[117.26487,39.51371],[117.25925,39.49932],[117.28878,39.49038],[117.28858,39.47107],[117.32086,39.44249],[117.31982,39.42889],[117.33414,39.40081],[117.31255,39.39308],[117.30664,39.4049],[117.30569,39.38565],[117.29307,39.37826],[117.3116,39.3523],[117.32207,39.34887],[117.31637,39.34763],[117.3198,39.33052],[117.29737,39.32536],[117.29878,39.33572],[117.2857,39.34571],[117.21625,39.35497],[117.18688,39.34379],[117.1862,39.33193],[117.17315,39.3254],[117.15801,39.33017],[117.15305,39.32672],[117.15889,39.32054],[117.14913,39.32207],[117.14972,39.31316],[117.13868,39.3045],[117.11377,39.31354],[117.08816,39.31097],[117.07353,39.30537],[117.08239,39.29832],[117.0687,39.29267],[117.0696,39.28188],[117.0586,39.2802],[117.04751,39.27991],[117.04204,39.29002],[117.01034,39.28703],[117.01625,39.25606],[117.00532,39.25594],[116.99968,39.24194],[116.98367,39.2444],[116.97471,39.23014],[116.96209,39.22849],[116.96091,39.19075],[116.93654,39.18902],[116.93403,39.17126],[116.94188,39.15992],[116.92231,39.15937],[116.93276,39.1498],[116.91528,39.14877],[116.92249,39.13449],[116.91627,39.1308],[116.92027,39.1188],[116.91412,39.11918],[116.90586,39.14897],[116.85764,39.1534],[116.84995,39.21477],[116.86982,39.21567],[116.87,39.22976],[116.8868,39.22307],[116.87904,39.23989],[116.87053,39.24054],[116.86569,39.26836],[116.8649,39.2976],[116.88094,39.30493],[116.87962,39.33819],[116.86655,39.34027],[116.86488,39.35653],[116.8537,39.3554],[116.84323,39.33867],[116.82314,39.33831],[116.81719,39.35685],[116.83078,39.36356],[116.82094,39.36257],[116.81219,39.37245],[116.83168,39.37308],[116.83224,39.4094],[116.86994,39.43351],[116.84957,39.44235],[116.82654,39.43449],[116.80986,39.45067],[116.78999,39.44572],[116.78619,39.45308],[116.79156,39.44984],[116.79206,39.45625],[116.77952,39.46607],[116.8146,39.47949],[116.808,39.50915],[116.81905,39.51625],[116.81608,39.53334],[116.79984,39.52804],[116.7815,39.54755],[116.80566,39.57581],[116.79279,39.58989],[116.79254,39.59619],[116.8023,39.59624],[116.79385,39.60281],[116.80388,39.60753],[116.80743,39.59917],[116.80731,39.61618],[116.81899,39.61272],[116.83256,39.62111],[116.81793,39.63401],[116.84538,39.65138],[116.84397,39.6665],[116.90065,39.67661],[116.9141,39.70574],[116.945,39.70576],[116.93807,39.68584],[116.95216,39.67013],[116.95431,39.64585],[116.96631,39.64748],[116.9703,39.6353],[117.0095,39.65284],[117.06998,39.63733],[117.11545,39.61582],[117.14142,39.62125]]]}},{"type":"Feature","id":"CTAMAP-2000-COUNTY-2063","properties":{"map_level":"county","source_name":"西青区","source_code":"120111","county_type":"市辖区","prefecture_name":"不统计","prefecture_code":"0","prefecture_type":"不统计","parent_entity_id":"CNUR-000002","parent_year_end_name":"天津市","province_name":"天津市","province_code":"120000","snapshot_year":2000,"panel_year":1999,"link_status":"parent_linked","former_name":"","note":""},"geometry":{"type":"Polygon","coordinates":[[[117.12369,39.17088],[117.12182,39.14971],[117.1031,39.13347],[117.12483,39.1152],[117.12674,39.09688],[117.14318,39.0751],[117.16409,39.05984],[117.19779,39.07049],[117.22762,39.03998],[117.26028,39.04024],[117.25949,39.02029],[117.25064,39.01985],[117.2674,39.015],[117.27145,39.00111],[117.28878,38.9972],[117.2823,38.99533],[117.28774,38.99316],[117.27841,38.96787],[117.26748,38.97763],[117.2541,38.95115],[117.23745,38.95237],[117.26051,38.94184],[117.25647,38.92802],[117.30109,38.88505],[117.31805,38.88616],[117.32755,38.87563],[117.33823,38.85115],[117.32273,38.83501],[117.32939,38.82766],[117.32483,38.82359],[117.23969,38.85277],[117.17929,38.902],[117.12002,38.97056],[117.05619,39.00352],[117.05084,38.99483],[117.02909,38.9964],[117.03213,39.02043],[116.96476,39.03805],[116.94403,39.05914],[116.93504,39.0494],[116.91287,39.05895],[116.88014,39.05827],[116.89236,39.06593],[116.87565,39.07092],[116.87712,39.07712],[116.92027,39.1188],[116.91528,39.14877],[116.93276,39.1498],[116.92231,39.15937],[116.94083,39.15856],[116.95338,39.17606],[116.96675,39.16671],[116.99764,39.16963],[117.00727,39.15002],[117.02035,39.15425],[117.01951,39.16998],[117.02546,39.15622],[117.05806,39.16427],[117.06832,39.15877],[117.06727,39.16828],[117.08671,39.17431],[117.12369,39.17088]]]}},{"type":"Feature","id":"CTAMAP-2000-COUNTY-2611","properties":{"map_level":"county","source_name":"河东区","source_code":"120102","county_type":"市辖区","prefecture_name":"不统计","prefecture_code":"0","prefecture_type":"不统计","parent_entity_id":"CNUR-000002","parent_year_end_name":"天津市","province_name":"天津市","province_code":"120000","snapshot_year":2000,"panel_year":1999,"link_status":"parent_linked","former_name":"","note":""},"geometry":{"type":"Polygon","coordinates":[[[117.25981,39.07882],[117.2392,39.08756],[117.19745,39.13782],[117.19954,39.14384],[117.24376,39.14866],[117.2428,39.15723],[117.26612,39.16052],[117.26227,39.14484],[117.27378,39.1459],[117.2802,39.13086],[117.26436,39.12649],[117.26948,39.10709],[117.30305,39.09907],[117.29466,39.08101],[117.26652,39.0899],[117.25981,39.07882]]]}},{"type":"Feature","id":"CTAMAP-2000-COUNTY-2613","properties":{"map_level":"county","source_name":"和平区","source_code":"120101","county_type":"市辖区","prefecture_name":"不统计","prefecture_code":"0","prefecture_type":"不统计","parent_entity_id":"CNUR-000002","parent_year_end_name":"天津市","province_name":"天津市","province_code":"120000","snapshot_year":2000,"panel_year":1999,"link_status":"parent_linked","former_name":"","note":""},"geometry":{"type":"Polygon","coordinates":[[[117.17484,39.13604],[117.20594,39.13221],[117.21616,39.11644],[117.1903,39.10057],[117.17294,39.10097],[117.17484,39.13604]]]}},{"type":"Feature","id":"CTAMAP-2000-COUNTY-2754","properties":{"map_level":"county","source_name":"大港区","source_code":"120109","county_type":"市辖区","prefecture_name":"不统计","prefecture_code":"0","prefecture_type":"不统计","parent_entity_id":"CNUR-000002","parent_year_end_name":"天津市","province_name":"天津市","province_code":"120000","snapshot_year":2000,"panel_year":1999,"link_status":"parent_linked","former_name":"","note":""},"geometry":{"type":"Polygon","coordinates":[[[117.58617,38.766],[117.58382,38.76093],[117.60902,38.75784],[117.60884,38.71454],[117.6248,38.7144],[117.62511,38.74488],[117.64218,38.75814],[117.6877,38.75797],[117.68759,38.7237],[117.70665,38.72347],[117.70724,38.75258],[117.71993,38.75231],[117.71957,38.70136],[117.64999,38.70149],[117.64973,38.66478],[117.60805,38.66484],[117.60807,38.67382],[117.57869,38.67392],[117.58825,38.63735],[117.60152,38.63489],[117.60215,38.61701],[117.56934,38.61021],[117.53858,38.61775],[117.53527,38.60299],[117.52054,38.59991],[117.51591,38.61353],[117.47255,38.61651],[117.47522,38.61054],[117.40361,38.59301],[117.39158,38.5741],[117.36269,38.56389],[117.36243,38.58157],[117.34841,38.57989],[117.35149,38.56972],[117.34415,38.5609],[117.3186,38.56384],[117.30202,38.55482],[117.28905,38.57135],[117.2862,38.56171],[117.24701,38.55549],[117.23324,38.578],[117.25504,38.58602],[117.23163,38.58454],[117.25218,38.60555],[117.24906,38.61387],[117.22653,38.62009],[117.23052,38.63054],[117.21886,38.63013],[117.2231,38.64221],[117.20679,38.63962],[117.194,38.62112],[117.14479,38.61685],[117.15685,38.65493],[117.1515,38.67066],[117.14163,38.67528],[117.14191,38.68663],[117.15241,38.69726],[117.15386,38.72864],[117.17079,38.73038],[117.1539,38.73049],[117.14786,38.72565],[117.1308,38.73279],[117.12989,38.74069],[117.14763,38.75038],[117.14905,38.7588],[117.15776,38.75542],[117.20805,38.78194],[117.18811,38.79426],[117.20111,38.81847],[117.21718,38.81061],[117.2526,38.84643],[117.32269,38.82267],[117.32939,38.82766],[117.3269,38.83925],[117.40117,38.88609],[117.43108,38.85786],[117.44108,38.87754],[117.48056,38.90456],[117.49719,38.90698],[117.49056,38.9419],[117.5154,38.95116],[117.54483,38.94226],[117.54411,38.95835],[117.54563,38.94693],[117.56185,38.94719],[117.55691,38.93236],[117.53424,38.916],[117.50288,38.90736],[117.50738,38.77444],[117.57482,38.77533],[117.57073,38.76654],[117.58617,38.766]]]}},{"type":"Feature","id":"CTAMAP-2000-COUNTY-2755","properties":{"map_level":"county","source_name":"汉沽区","source_code":"120108","county_type":"市辖区","prefecture_name":"不统计","prefecture_code":"0","prefecture_type":"不统计","parent_entity_id":"CNUR-000002","parent_year_end_name":"天津市","province_name":"天津市","province_code":"120000","snapshot_year":2000,"panel_year":1999,"link_status":"parent_linked","former_name":"","note":""},"geometry":{"type":"Polygon","coordinates":[[[117.84071,39.17814],[117.82692,39.20527],[117.78805,39.19017],[117.75881,39.18902],[117.73488,39.17086],[117.71482,39.17208],[117.72198,39.19082],[117.70973,39.19351],[117.73753,39.23678],[117.70956,39.2558],[117.70325,39.28232],[117.77705,39.30583],[117.78607,39.3013],[117.78214,39.28644],[117.82119,39.26063],[117.84715,39.29605],[117.83072,39.3051],[117.8373,39.32274],[117.84375,39.31454],[117.84087,39.32771],[117.88196,39.33135],[117.8995,39.31552],[117.96297,39.3149],[117.98885,39.28771],[118.0107,39.28305],[118.01849,39.29126],[118.02782,39.26694],[118.05836,39.25484],[118.05837,39.22997],[117.94341,39.21218],[117.95496,39.1811],[117.93477,39.17685],[117.92217,39.20945],[117.86813,39.19152],[117.87964,39.17222],[117.87648,39.16376],[117.87107,39.18247],[117.86343,39.17802],[117.87434,39.16446],[117.85287,39.1805],[117.86467,39.16101],[117.8469,39.18106],[117.84071,39.17814]]]}}]}