{"type":"FeatureCollection","features":[{"type":"Feature","id":"CTAMAP-2007-COUNTY-2173","properties":{"map_level":"county","source_name":"香港特别行政区","source_code":"810000","county_type":"不统计","prefecture_name":"不统计","prefecture_code":"0","prefecture_type":"不统计","parent_entity_id":"","parent_year_end_name":"","province_name":"香港特别行政区","province_code":"810000","snapshot_year":2007,"panel_year":2006,"link_status":"province_direct_or_out_of_scope","former_name":"","note":""},"geometry":{"type":"MultiPolygon","coordinates":[[[[114.16114,22.56193],[114.22641,22.54818],[114.20941,22.53504],[114.20947,22.52435],[114.23595,22.53345],[114.24276,22.54884],[114.25641,22.54947],[114.25677,22.53834],[114.26767,22.53537],[114.26217,22.52535],[114.27928,22.52852],[114.27442,22.50972],[114.30439,22.49929],[114.33663,22.50824],[114.25498,22.45302],[114.23158,22.47215],[114.21432,22.47357],[114.19754,22.45278],[114.17711,22.44945],[114.21329,22.42704],[114.21884,22.40698],[114.23804,22.43687],[114.26755,22.43346],[114.27378,22.41835],[114.28267,22.42224],[114.28105,22.44906],[114.29213,22.45841],[114.30322,22.45538],[114.30555,22.46769],[114.32149,22.48048],[114.32936,22.47088],[114.32699,22.46071],[114.33722,22.463],[114.34139,22.47885],[114.34716,22.46372],[114.33876,22.45967],[114.34157,22.44447],[114.33274,22.43938],[114.33321,22.42831],[114.34647,22.43919],[114.34695,22.42347],[114.3561,22.42228],[114.36106,22.46086],[114.37015,22.45421],[114.36954,22.43788],[114.39771,22.43609],[114.4056,22.41267],[114.38684,22.4209],[114.37479,22.40614],[114.39063,22.38746],[114.39147,22.36767],[114.37587,22.37366],[114.38071,22.36385],[114.35944,22.3506],[114.35899,22.33633],[114.35211,22.35393],[114.34246,22.34762],[114.33132,22.36314],[114.33348,22.37552],[114.3185,22.38161],[114.31997,22.39369],[114.30764,22.38547],[114.27867,22.39462],[114.2717,22.37014],[114.27533,22.3508],[114.26511,22.37114],[114.25074,22.35413],[114.26817,22.35116],[114.27224,22.32253],[114.31083,22.30189],[114.30223,22.28753],[114.28763,22.28785],[114.29299,22.27595],[114.30051,22.2793],[114.30529,22.26429],[114.28202,22.27152],[114.2739,22.26245],[114.26452,22.27547],[114.26313,22.30067],[114.23975,22.28619],[114.19661,22.32022],[114.19312,22.30277],[114.17707,22.29368],[114.15532,22.29861],[114.15991,22.31551],[114.15359,22.32279],[114.14466,22.32814],[114.14366,22.31816],[114.12161,22.32151],[114.1267,22.32837],[114.1057,22.36898],[114.06007,22.3662],[114.02607,22.35513],[114.00935,22.36516],[113.99837,22.36174],[113.97654,22.38162],[113.96839,22.37876],[113.97258,22.37074],[113.95637,22.37275],[113.94272,22.35851],[113.91498,22.37525],[113.92035,22.38837],[113.91282,22.40305],[113.90156,22.4066],[113.9758,22.4569],[113.99893,22.4893],[114.01294,22.48707],[114.01296,22.47267],[114.03056,22.47824],[114.03428,22.49849],[114.05656,22.5043],[114.06476,22.51694],[114.08176,22.51786],[114.08503,22.52394],[114.07776,22.52897],[114.08856,22.53639],[114.11171,22.52949],[114.13067,22.54195],[114.14759,22.54151],[114.16114,22.56193]]],[[[114.04783,22.34635],[114.05832,22.33562],[114.05523,22.31073],[114.0177,22.3104],[114.01517,22.29695],[114.02586,22.29718],[114.01903,22.29254],[114.02152,22.26688],[114.00263,22.27269],[113.99502,22.26599],[114.01222,22.25266],[113.99393,22.24068],[114.02041,22.23019],[114.00429,22.21505],[113.98087,22.21694],[113.9814,22.23518],[113.97317,22.2407],[113.91689,22.2189],[113.92925,22.21752],[113.93079,22.21034],[113.91209,22.2064],[113.89143,22.2229],[113.8677,22.20283],[113.84608,22.19742],[113.84158,22.2339],[113.85079,22.23062],[113.85141,22.24334],[113.86134,22.24704],[113.85166,22.25594],[113.88766,22.26876],[113.89717,22.2912],[113.92199,22.29131],[113.92984,22.28025],[113.94006,22.29378],[113.97287,22.30142],[114.04783,22.34635]]],[[[114.21443,22.29207],[114.25741,22.26175],[114.25437,22.24848],[114.24633,22.24602],[114.2544,22.21156],[114.26132,22.20787],[114.24266,22.20808],[114.23373,22.24134],[114.22349,22.24652],[114.22948,22.23009],[114.22315,22.23298],[114.21397,22.22131],[114.22245,22.21428],[114.22403,22.19784],[114.21402,22.19417],[114.21354,22.21636],[114.19727,22.2105],[114.19817,22.23512],[114.18764,22.24471],[114.17951,22.24485],[114.17107,22.23002],[114.16409,22.24547],[114.1361,22.24895],[114.11637,22.27472],[114.13876,22.29033],[114.18001,22.28069],[114.19482,22.29284],[114.21443,22.29207]]],[[[114.11812,22.24118],[114.1274,22.21967],[114.13684,22.21852],[114.12684,22.2095],[114.13,22.2019],[114.15024,22.2119],[114.16029,22.20861],[114.13937,22.1972],[114.14923,22.18121],[114.13605,22.19191],[114.13722,22.17771],[114.11415,22.1834],[114.12075,22.19096],[114.12013,22.21858],[114.10769,22.21131],[114.10314,22.21815],[114.11146,22.22589],[114.10579,22.23413],[114.11812,22.24118]]],[[[113.89319,22.31089],[113.94565,22.32333],[113.94348,22.31404],[113.9509,22.32245],[113.96162,22.31729],[113.95785,22.31014],[113.94077,22.31047],[113.93394,22.29056],[113.89422,22.29449],[113.89319,22.31089]]],[[[114.10747,22.3631],[114.11766,22.33098],[114.09192,22.32606],[114.09139,22.34187],[114.079,22.3586],[114.10747,22.3631]]],[[[114.3007,22.38029],[114.3178,22.37771],[114.32745,22.356],[114.32312,22.34222],[114.3039,22.3508],[114.3007,22.38029]]],[[[114.28869,22.55359],[114.3155,22.54994],[114.29366,22.54661],[114.30466,22.53221],[114.28671,22.53312],[114.29461,22.53925],[114.28869,22.55359]]],[[[114.03495,22.22309],[114.03009,22.21015],[114.04125,22.20569],[114.01824,22.19791],[114.02868,22.20773],[114.02684,22.22163],[114.03495,22.22309]]],[[[114.2739,22.16499],[114.25481,22.15513],[114.24982,22.16587],[114.26593,22.18077],[114.2739,22.16499]]],[[[114.3214,22.51672],[114.29909,22.50432],[114.29567,22.50715],[114.30747,22.51355],[114.30925,22.52623],[114.3214,22.51672]]],[[[114.0453,22.25621],[114.04362,22.24121],[114.02646,22.25658],[114.03271,22.25868],[114.0453,22.25621]]],[[[114.2958,22.25876],[114.29608,22.24203],[114.28715,22.24],[114.28042,22.24944],[114.2958,22.25876]]],[[[114.16252,22.22892],[114.15184,22.23872],[114.14394,22.24374],[114.15922,22.24527],[114.16252,22.22892]]],[[[114.35979,22.48641],[114.36675,22.47648],[114.36093,22.46514],[114.35332,22.48072],[114.35979,22.48641]]],[[[113.91455,22.16283],[113.90408,22.15638],[113.89881,22.15978],[113.91148,22.17013],[113.91455,22.16283]]],[[[114.42565,22.55144],[114.44092,22.5415],[114.43992,22.5384],[114.42712,22.54069],[114.42565,22.55144]]],[[[114.32614,22.34058],[114.33076,22.32865],[114.3208,22.32617],[114.31565,22.33851],[114.32614,22.34058]]],[[[114.28802,22.367],[114.29334,22.37335],[114.29631,22.35286],[114.28802,22.367]]],[[[114.31565,22.52856],[114.32161,22.53387],[114.319,22.523],[114.30784,22.53276],[114.31565,22.52856]]],[[[113.99085,22.18859],[113.9824,22.19387],[113.98742,22.20223],[113.9949,22.19426],[113.99085,22.18859]]],[[[114.06631,22.34566],[114.05454,22.34946],[114.06479,22.35588],[114.06631,22.34566]]],[[[114.25546,22.18959],[114.25612,22.18272],[114.24449,22.17856],[114.24367,22.18802],[114.25546,22.18959]]],[[[114.35653,22.32361],[114.35368,22.31726],[114.34752,22.31295],[114.34945,22.32414],[114.35653,22.32361]]],[[[114.04585,22.29097],[114.03965,22.28677],[114.04578,22.28106],[114.03782,22.28124],[114.03519,22.28929],[114.04585,22.29097]]],[[[113.90658,22.18797],[113.91573,22.18377],[113.92092,22.17966],[113.90538,22.17923],[113.90658,22.18797]]],[[[114.36644,22.32084],[114.3694,22.31497],[114.36745,22.3067],[114.36095,22.31655],[114.36644,22.32084]]],[[[114.32055,22.37274],[114.32938,22.37358],[114.3286,22.3658],[114.32055,22.37274]]],[[[113.87734,22.38137],[113.88524,22.37926],[113.88193,22.37024],[113.87734,22.38137]]],[[[114.30215,22.32531],[114.29506,22.32368],[114.29362,22.33169],[114.30215,22.32531]]],[[[114.36106,22.33872],[114.3667,22.33003],[114.36141,22.33073],[114.36106,22.33872]]],[[[114.05539,22.26422],[114.05371,22.25902],[114.04716,22.25836],[114.04757,22.26233],[114.05539,22.26422]]],[[[114.3558,22.50071],[114.36399,22.50375],[114.35796,22.49587],[114.3558,22.50071]]],[[[114.28906,22.18169],[114.28288,22.18559],[114.28707,22.18995],[114.28959,22.18816],[114.28906,22.18169]]]]}}]}