{"type":"FeatureCollection","features":[{"type":"Feature","id":"CTAMAP-2006-COUNTY-0522","properties":{"map_level":"county","source_name":"台湾省","source_code":"710000","county_type":"不统计","prefecture_name":"不统计","prefecture_code":"0","prefecture_type":"不统计","parent_entity_id":"","parent_year_end_name":"","province_name":"台湾省","province_code":"710000","snapshot_year":2006,"panel_year":2005,"link_status":"province_direct_or_out_of_scope","former_name":"","note":""},"geometry":{"type":"MultiPolygon","coordinates":[[[[121.55021,25.29085],[121.57704,25.29831],[121.61805,25.27712],[121.63347,25.25871],[121.63442,25.23862],[121.65151,25.23306],[121.65682,25.21213],[121.67222,25.20193],[121.69234,25.20791],[121.68609,25.18903],[121.70847,25.17512],[121.7072,25.16483],[121.74921,25.15678],[121.75355,25.14545],[121.74463,25.13963],[121.74215,25.13047],[121.77267,25.15538],[121.79145,25.14313],[121.80638,25.14821],[121.80275,25.13595],[121.82216,25.13338],[121.8215,25.12136],[121.83609,25.12794],[121.89819,25.11953],[121.92425,25.12923],[121.91243,25.11372],[121.92192,25.11306],[121.92325,25.10458],[121.91327,25.0852],[121.9316,25.06285],[121.9281,25.04103],[121.93547,25.02273],[121.97635,25.02538],[122.00489,25.00717],[121.92618,24.9692],[121.88904,24.93706],[121.88474,24.91753],[121.85114,24.89079],[121.83354,24.86535],[121.81989,24.80439],[121.81877,24.7593],[121.84975,24.6297],[121.8651,24.6089],[121.88571,24.59944],[121.86543,24.60485],[121.85703,24.59957],[121.8771,24.5793],[121.86936,24.57411],[121.87354,24.53455],[121.84143,24.52001],[121.83857,24.50082],[121.85009,24.49455],[121.85165,24.48376],[121.82033,24.46219],[121.79644,24.42634],[121.77074,24.33693],[121.77153,24.3058],[121.75918,24.30672],[121.74099,24.2587],[121.66495,24.19607],[121.65805,24.17433],[121.66338,24.13627],[121.61713,24.0832],[121.61921,24.05117],[121.64688,24.00771],[121.60629,23.95732],[121.61128,23.93369],[121.60196,23.87785],[121.57241,23.80163],[121.57177,23.75636],[121.54946,23.718],[121.55108,23.69379],[121.53101,23.63157],[121.52595,23.57777],[121.50277,23.51925],[121.50547,23.49412],[121.51445,23.48881],[121.47425,23.38647],[121.46577,23.32187],[121.42992,23.2861],[121.41403,23.23354],[121.42012,23.22596],[121.39605,23.20457],[121.40698,23.16581],[121.3988,23.13659],[121.41201,23.12322],[121.3963,23.11722],[121.38238,23.09688],[121.35929,23.08915],[121.3157,22.9809],[121.28368,22.94917],[121.23486,22.86691],[121.20989,22.86463],[121.1895,22.84841],[121.1855,22.83333],[121.19986,22.79686],[121.18296,22.78768],[121.17407,22.7579],[121.12622,22.71849],[121.03426,22.66716],[121.01756,22.63867],[121.00738,22.5898],[120.97886,22.5589],[120.89337,22.33169],[120.89411,22.1388],[120.8853,22.12912],[120.89134,22.10891],[120.89996,22.10427],[120.89013,22.07856],[120.89988,22.0344],[120.87412,21.99988],[120.8455,21.98756],[120.84005,21.95707],[120.8662,21.90048],[120.8529,21.89743],[120.84722,21.91335],[120.82212,21.93496],[120.79916,21.93779],[120.766,21.95927],[120.74627,21.94873],[120.73923,21.91996],[120.7285,21.91854],[120.71128,21.93473],[120.71486,21.97898],[120.68585,22.027],[120.69804,22.04166],[120.69745,22.0544],[120.70667,22.05626],[120.7009,22.08337],[120.71756,22.09442],[120.68566,22.20898],[120.67184,22.2343],[120.64972,22.25394],[120.64266,22.30313],[120.58498,22.37223],[120.45401,22.44715],[120.48385,22.43341],[120.4891,22.44248],[120.47964,22.45376],[120.46104,22.45624],[120.45222,22.44831],[120.43725,22.46501],[120.44546,22.47195],[120.43549,22.46873],[120.42552,22.47751],[120.39694,22.48191],[120.32958,22.52634],[120.3127,22.51508],[120.3035,22.52655],[120.30973,22.53324],[120.31738,22.52393],[120.32499,22.53028],[120.31264,22.54447],[120.31927,22.55098],[120.33116,22.53824],[120.3415,22.54359],[120.29763,22.58431],[120.28184,22.60997],[120.29125,22.61461],[120.2659,22.61716],[120.25169,22.6454],[120.2522,22.66342],[120.274,22.68356],[120.27487,22.70677],[120.26521,22.70863],[120.26162,22.70162],[120.21499,22.80464],[120.20371,22.80634],[120.20922,22.81785],[120.1898,22.8582],[120.19978,22.8607],[120.21246,22.84561],[120.21838,22.84877],[120.20495,22.86156],[120.21092,22.87943],[120.2021,22.86588],[120.19282,22.87084],[120.19302,22.86321],[120.17962,22.89866],[120.1729,22.94699],[120.16269,22.96725],[120.17523,22.97672],[120.15954,22.98401],[120.15592,22.99434],[120.14865,22.98747],[120.06728,23.04191],[120.06688,23.05396],[120.03865,23.06347],[120.03637,23.10215],[120.08583,23.12651],[120.069,23.18458],[120.08167,23.20964],[120.08792,23.20718],[120.08396,23.23283],[120.09523,23.21878],[120.09576,23.23643],[120.10942,23.25505],[120.10612,23.26282],[120.1178,23.27166],[120.09807,23.27142],[120.09726,23.29036],[120.11435,23.29348],[120.10529,23.3001],[120.12851,23.33739],[120.11913,23.34463],[120.13219,23.36875],[120.13783,23.36754],[120.12998,23.36033],[120.13469,23.35826],[120.14004,23.36601],[120.1484,23.35798],[120.15496,23.36282],[120.15494,23.37645],[120.13157,23.38446],[120.1582,23.38487],[120.1634,23.39289],[120.15941,23.40601],[120.15166,23.399],[120.14944,23.40616],[120.1557,23.42863],[120.14555,23.42864],[120.15427,23.44714],[120.13329,23.45153],[120.14488,23.45977],[120.15469,23.4929],[120.12519,23.48862],[120.11919,23.51599],[120.15332,23.51792],[120.15555,23.51853],[120.15713,23.52204],[120.13958,23.54969],[120.14181,23.64135],[120.16326,23.68327],[120.17635,23.69874],[120.1875,23.7003],[120.16972,23.70705],[120.18009,23.75497],[120.20167,23.75654],[120.19252,23.7648],[120.1697,23.75866],[120.1656,23.76735],[120.18414,23.79785],[120.17519,23.80438],[120.20565,23.82178],[120.22374,23.81879],[120.22246,23.83313],[120.24303,23.82244],[120.25019,23.83405],[120.26051,23.83521],[120.2649,23.8409],[120.2523,23.86056],[120.2621,23.85726],[120.2634,23.86457],[120.28749,23.87562],[120.31875,23.93606],[120.30459,23.94052],[120.3303,23.98879],[120.34589,23.9901],[120.3716,24.03973],[120.40388,24.05273],[120.418,24.08025],[120.43444,24.09003],[120.43781,24.12532],[120.41848,24.12494],[120.41304,24.10463],[120.39692,24.09275],[120.37978,24.09405],[120.40288,24.12417],[120.41505,24.12861],[120.42928,24.15801],[120.45959,24.15893],[120.4676,24.16565],[120.46231,24.16825],[120.48874,24.20529],[120.46116,24.21619],[120.4721,24.24082],[120.48222,24.23725],[120.49479,24.26971],[120.50015,24.26745],[120.50843,24.28375],[120.50062,24.25348],[120.49057,24.25221],[120.47863,24.22274],[120.48427,24.22069],[120.492,24.23938],[120.50608,24.23086],[120.5014,24.241],[120.51701,24.27738],[120.52017,24.25959],[120.52342,24.28355],[120.53383,24.28478],[120.51135,24.29464],[120.5276,24.31354],[120.54947,24.30709],[120.55138,24.3283],[120.58247,24.36832],[120.58992,24.39487],[120.64667,24.4597],[120.68743,24.52383],[120.7233,24.60558],[120.73619,24.61132],[120.74708,24.6059],[120.75403,24.61377],[120.77175,24.6086],[120.75525,24.62395],[120.77979,24.66082],[120.829,24.6731],[120.85941,24.70127],[120.86602,24.72481],[120.90347,24.74818],[120.91369,24.77157],[120.91657,24.80138],[120.91091,24.8069],[120.91912,24.80994],[120.90923,24.80983],[120.90722,24.81932],[120.91909,24.84713],[120.92817,24.85189],[120.94624,24.84386],[120.93715,24.85342],[120.95029,24.86007],[120.93472,24.85875],[120.97414,24.92754],[121.01422,24.97254],[121.01422,24.98845],[121.03796,25.0271],[121.0615,25.04723],[121.07419,25.04516],[121.10276,25.06597],[121.17465,25.08632],[121.21213,25.10859],[121.25985,25.12179],[121.28625,25.11705],[121.3049,25.12601],[121.33605,25.1255],[121.38961,25.14726],[121.39771,25.1619],[121.41575,25.16934],[121.44102,25.15414],[121.46153,25.12219],[121.44558,25.16635],[121.40701,25.18679],[121.44016,25.21937],[121.4527,25.24983],[121.4717,25.25304],[121.47934,25.2674],[121.51004,25.2826],[121.51027,25.29047],[121.52706,25.28514],[121.53731,25.29901],[121.55021,25.29085]]],[[[119.65588,23.60727],[119.66225,23.58954],[119.67187,23.59933],[119.69342,23.55519],[119.67653,23.55174],[119.6693,23.56221],[119.64301,23.55907],[119.60561,23.52871],[119.61163,23.52181],[119.60647,23.50797],[119.5982,23.51341],[119.5727,23.50811],[119.57246,23.52217],[119.55707,23.52344],[119.54955,23.53897],[119.54125,23.53901],[119.54809,23.55428],[119.55734,23.52677],[119.57179,23.532],[119.57406,23.52073],[119.5827,23.5327],[119.59607,23.52678],[119.59952,23.55047],[119.56248,23.55013],[119.56281,23.55681],[119.57582,23.55487],[119.57981,23.56344],[119.55883,23.56274],[119.56739,23.57503],[119.56179,23.58505],[119.58303,23.59093],[119.58591,23.57353],[119.59446,23.57334],[119.60691,23.58587],[119.60575,23.60568],[119.61671,23.60093],[119.63047,23.60685],[119.62528,23.57879],[119.63323,23.59592],[119.63972,23.59919],[119.63788,23.59152],[119.64342,23.58753],[119.64665,23.60702],[119.65588,23.60727]]],[[[121.49939,22.08079],[121.56773,22.08568],[121.57614,22.06042],[121.56405,22.05021],[121.60047,22.02068],[121.59381,22.00322],[121.57161,22.00363],[121.55788,22.02181],[121.53416,22.0263],[121.51134,22.04723],[121.50959,22.07034],[121.49939,22.08079]]],[[[120.09555,23.51535],[120.06774,23.5005],[120.06842,23.49011],[120.05664,23.49178],[120.06287,23.48052],[120.0538,23.47893],[120.05448,23.48802],[120.04553,23.47729],[120.03522,23.48276],[120.02305,23.47028],[120.02409,23.45942],[120.0147,23.45962],[120.02016,23.46853],[120.01283,23.4678],[120.00785,23.46105],[120.02163,23.44084],[120.01989,23.43585],[120.0,23.46804],[120.07686,23.52206],[120.09555,23.51535]]],[[[119.51237,23.64852],[119.54366,23.64069],[119.51754,23.62742],[119.52303,23.60163],[119.51224,23.59216],[119.51178,23.57939],[119.51792,23.56691],[119.46796,23.56083],[119.48151,23.57475],[119.4933,23.56969],[119.50299,23.57839],[119.50376,23.58896],[119.49243,23.59495],[119.504,23.59682],[119.50893,23.61202],[119.50026,23.61928],[119.50218,23.63113],[119.51237,23.64852]]],[[[120.26269,22.61381],[120.27847,22.60817],[120.31675,22.55416],[120.26269,22.61381]]],[[[119.58223,23.67748],[119.60362,23.66899],[119.6122,23.65283],[119.59742,23.64125],[119.60191,23.63377],[119.61036,23.63572],[119.60362,23.62429],[119.58846,23.62269],[119.59575,23.63544],[119.58093,23.66176],[119.56253,23.65235],[119.55107,23.66192],[119.58223,23.67748]]],[[[121.46413,22.67316],[121.50921,22.67624],[121.50766,22.65436],[121.49851,22.64593],[121.5038,22.63535],[121.4728,22.64729],[121.47525,22.65828],[121.46413,22.67316]]],[[[120.39862,24.05856],[120.36545,24.0595],[120.37744,24.08497],[120.41943,24.08602],[120.39862,24.05856]]],[[[119.49096,23.39651],[119.50439,23.39183],[119.50829,23.37135],[119.5154,23.36869],[119.50771,23.36439],[119.50959,23.35614],[119.49059,23.35321],[119.49591,23.38742],[119.49096,23.39651]]],[[[119.44345,23.20454],[119.42996,23.19679],[119.42979,23.18832],[119.4106,23.21444],[119.44488,23.22065],[119.44345,23.20454]]],[[[120.36043,22.32218],[120.35286,22.326],[120.36098,22.34647],[120.37839,22.35575],[120.38814,22.35037],[120.36043,22.32218]]],[[[119.62232,23.74344],[119.60201,23.73074],[119.59648,23.7377],[119.61006,23.75587],[119.62232,23.74344]]],[[[123.49235,25.74192],[123.46442,25.73534],[123.45859,25.73944],[123.47704,25.75176],[123.49235,25.74192]]],[[[120.13744,23.64542],[120.1378,23.66469],[120.15028,23.68467],[120.14063,23.6663],[120.13744,23.64542]]],[[[119.54367,23.49458],[119.51177,23.48314],[119.5089,23.4855],[119.51014,23.49133],[119.51538,23.48634],[119.52929,23.49577],[119.54367,23.49458]]],[[[121.96197,24.83553],[121.94231,24.83771],[121.93962,24.84378],[121.95557,24.84963],[121.96197,24.83553]]],[[[121.37512,25.17167],[121.39378,25.16588],[121.37183,25.15654],[121.37512,25.17167]]],[[[120.16549,23.71787],[120.15353,23.71758],[120.15638,23.73848],[120.16865,23.73701],[120.16549,23.71787]]],[[[119.54075,23.37222],[119.54062,23.36599],[119.51888,23.36375],[119.52956,23.37166],[119.54075,23.37222]]],[[[120.15556,22.9727],[120.15731,22.98638],[120.16527,22.97207],[120.15556,22.9727]]],[[[119.66559,23.25856],[119.6789,23.26083],[119.67194,23.24407],[119.66559,23.25856]]],[[[120.08955,23.24165],[120.08627,23.23994],[120.09668,23.25808],[120.08955,23.24165]]],[[[119.33081,23.40605],[119.31518,23.39919],[119.31933,23.41175],[119.33081,23.40605]]],[[[119.61229,23.62024],[119.60505,23.60912],[119.59696,23.61674],[119.60694,23.62227],[119.61229,23.62024]]],[[[121.37906,25.15228],[121.36622,25.13991],[121.36455,25.14305],[121.37906,25.15228]]],[[[121.76401,25.15317],[121.75745,25.16092],[121.776,25.1579],[121.76401,25.15317]]],[[[120.24895,23.83357],[120.24436,23.82554],[120.23088,23.83468],[120.23776,23.8352],[120.24895,23.83357]]],[[[120.05737,23.13156],[120.04957,23.12449],[120.05825,23.13659],[120.05737,23.13156]]],[[[122.07363,25.62506],[122.06492,25.62928],[122.06619,25.63426],[122.07673,25.63535],[122.07363,25.62506]]],[[[119.61309,23.253],[119.62013,23.24565],[119.60863,23.24905],[119.61309,23.253]]],[[[121.61387,21.9535],[121.61361,21.94607],[121.60749,21.94458],[121.60339,21.95211],[121.61387,21.9535]]],[[[123.70028,25.93532],[123.69055,25.93098],[123.69162,25.93728],[123.70028,25.93532]]],[[[119.51461,23.26241],[119.52206,23.26208],[119.51237,23.25583],[119.51461,23.26241]]],[[[119.51979,23.65526],[119.51976,23.64792],[119.51358,23.65411],[119.51979,23.65526]]],[[[120.15423,23.52275],[120.14672,23.51992],[120.14517,23.52563],[120.15423,23.52275]]],[[[119.50485,23.26836],[119.50969,23.27238],[119.51049,23.26724],[119.50485,23.26836]]],[[[121.51021,22.65599],[121.50934,22.65399],[121.50845,22.65485],[121.51021,22.65599]]]]}}]}