{"type":"FeatureCollection","features":[{"type":"Feature","id":"EXTERNAL-HKG","properties":{"map_level":"province","external_only":true,"region_code":"HK","display_name_zh":"香港特别行政区","source_name_original":"Hong Kong S.A.R.","prefecture_name":"","entity_id":"","source":"bmkor/hk_osm_map","source_url":"https://github.com/bmkor/hk_osm_map","license_status":"repository_license_review_required"},"geometry":{"type":"MultiPolygon","coordinates":[[[[113.9225676,22.1535248],[113.9221883,22.1535181],[113.9222384,22.1537037],[113.9225676,22.1535248]]],[[[114.2727282,22.1723387],[114.2734953,22.1728231],[114.272637,22.171837],[114.2727282,22.1723387]]],[[[113.8985705,22.1725078],[113.8986617,22.1725923],[113.8986295,22.172473],[113.8985705,22.1725078]]],[[[113.9011441,22.1715018],[113.9012353,22.1714869],[113.901187,22.1714571],[113.9011441,22.1715018]]],[[[113.9169731,22.1722296],[113.917236,22.1723339],[113.9172145,22.1722396],[113.9169731,22.1722296]]],[[[113.9171864,22.1724879],[113.9172159,22.1724855],[113.9171864,22.1723985],[113.9171864,22.1724879]]],[[[113.8978685,22.1718658],[113.9016744,22.1736589],[113.902847,22.1724687],[113.8978685,22.1718658]]],[[[113.9219776,22.1548464],[113.9241476,22.1551633],[113.9224745,22.1538098],[113.9219776,22.1548464]]],[[[114.268788,22.1606193],[114.2689168,22.1610168],[114.2692386,22.1608677],[114.268788,22.1606193]]],[[[113.9163101,22.1619307],[113.9170773,22.1631441],[113.9170898,22.1620454],[113.9163101,22.1619307]]],[[[113.9163979,22.1687151],[113.9154882,22.1596407],[113.8994009,22.1592465],[113.9099248,22.1698604],[113.9163979,22.1687151]]],[[[113.9167505,22.1633719],[113.9168578,22.1633917],[113.9168632,22.1633321],[113.9167505,22.1633719]]],[[[114.249578,22.1594816],[114.2497014,22.1597102],[114.2499482,22.1596555],[114.249578,22.1594816]]],[[[114.2513834,22.1602112],[114.2490971,22.1601141],[114.2512654,22.1612746],[114.2513834,22.1602112]]],[[[113.9066928,22.1735001],[113.9076511,22.1735709],[113.9075582,22.1730418],[113.9066928,22.1735001]]],[[[113.9075358,22.173633],[113.9075841,22.1736181],[113.9075385,22.1735982],[113.9075358,22.173633]]],[[[113.9039452,22.1736939],[113.9054099,22.1745519],[113.9055318,22.1727835],[113.9039452,22.1736939]]],[[[113.9055372,22.1744079],[113.9056177,22.174552],[113.905623,22.1744079],[113.9055372,22.1744079]]],[[[113.905328,22.1747855],[113.9055587,22.1747258],[113.9055104,22.1746464],[113.905328,22.1747855]]],[[[114.236837,22.1756703],[114.2370462,22.1749172],[114.2362842,22.1752821],[114.236837,22.1756703]]],[[[113.9247609,22.1764224],[113.9247963,22.177193],[113.9250678,22.176417],[113.9247609,22.1764224]]],[[[113.9253452,22.1760071],[113.9255901,22.1764634],[113.9258055,22.1760891],[113.9253452,22.1760071]]],[[[114.3012548,22.1821991],[114.3015301,22.1823454],[114.301331,22.1820251],[114.3012548,22.1821991]]],[[[114.3021112,22.1824117],[114.3045208,22.1825186],[114.302185,22.1812607],[114.3021112,22.1824117]]],[[[114.3066331,22.1874167],[114.3040161,22.1840253],[114.3063179,22.1889288],[114.3066331,22.1874167]]],[[[114.2801518,22.1908783],[114.2795959,22.1898563],[114.2799392,22.1909994],[114.2801518,22.1908783]]],[[[114.2877888,22.180651],[114.2826545,22.185341],[114.28728,22.1901101],[114.2897109,22.1878695],[114.2877888,22.180651]]],[[[114.2896138,22.188318],[114.2909133,22.189379],[114.2899635,22.1877662],[114.2896138,22.188318]]],[[[113.8384993,22.2172492],[113.8360799,22.2152528],[113.835093,22.2174358],[113.8384993,22.2172492]]],[[[114.2566467,22.1559142],[114.2499092,22.1661042],[114.2663378,22.1807948],[114.2745501,22.1628899],[114.2647006,22.1646258],[114.2566467,22.1559142]]],[[[113.9096174,22.1783598],[113.9096159,22.1782807],[113.9095634,22.1783293],[113.9096174,22.1783598]]],[[[114.2694961,22.1783247],[114.2696249,22.1785035],[114.2697214,22.1784141],[114.2694961,22.1783247]]],[[[113.9096923,22.1783335],[113.9097687,22.1783543],[113.9097492,22.1783057],[113.9096923,22.1783335]]],[[[113.9196246,22.1789879],[113.9196663,22.1790314],[113.9197112,22.1790246],[113.9196246,22.1789879]]],[[[113.9265379,22.1797605],[113.9266344,22.179691],[113.9267203,22.1795817],[113.9265379,22.1797605]]],[[[113.9199739,22.1784063],[113.9201456,22.1786001],[113.9202475,22.1785653],[113.9199739,22.1784063]]],[[[113.9250483,22.1775367],[113.9258214,22.1781488],[113.9260486,22.1781269],[113.9250483,22.1775367]]],[[[113.9107837,22.1776346],[113.9100773,22.1785277],[113.9110736,22.1780116],[113.9107837,22.1776346]]],[[[113.9233338,22.1796599],[113.9261744,22.1790005],[113.9249509,22.1775886],[113.9233338,22.1796599]]],[[[113.9265915,22.179994],[113.9265486,22.1798946],[113.9264789,22.1799195],[113.9265915,22.179994]]],[[[113.9093132,22.1802926],[113.909443,22.1800081],[113.9091643,22.1800638],[113.9093132,22.1802926]]],[[[113.9168238,22.1776586],[113.9118838,22.1819414],[113.90565,22.17894],[113.906449,22.187946],[113.9168238,22.1776586]]],[[[114.2445604,22.1785018],[114.2436799,22.1881001],[114.2554365,22.1897995],[114.2564021,22.1827668],[114.2445604,22.1785018]]],[[[113.8573055,22.2520139],[113.8577561,22.251994],[113.8580779,22.2487767],[113.8573055,22.2520139]]],[[[114.0355048,22.2495171],[114.0355531,22.2493781],[114.035478,22.2494079],[114.0355048,22.2495171]]],[[[113.851832,22.2546691],[113.8519501,22.2546939],[113.8518857,22.2546195],[113.851832,22.2546691]]],[[[114.3471934,22.2547644],[114.3454717,22.2540524],[114.3453695,22.2551125],[114.3471934,22.2547644]]],[[[114.0324149,22.2541444],[114.032549,22.2541146],[114.0324847,22.2540898],[114.0324149,22.2541444]]],[[[114.2809653,22.242426],[114.2807456,22.242887],[114.2811423,22.2425353],[114.2809653,22.242426]]],[[[114.2231648,22.2453141],[114.2235201,22.2458134],[114.223735,22.2457566],[114.2231648,22.2453141]]],[[[114.1394582,22.2429221],[114.1386601,22.2434587],[114.1412743,22.2438563],[114.1394582,22.2429221]]],[[[113.860163,22.2613161],[113.8630033,22.2544631],[113.8530176,22.2526672],[113.855563,22.2596573],[113.860163,22.2613161]],[[113.859897,22.2612095],[113.8596015,22.2609843],[113.8599426,22.2611009],[113.859897,22.2612095]]],[[[114.3528699,22.2574227],[114.3530255,22.2580482],[114.3532803,22.2574599],[114.3528699,22.2574227]]],[[[114.3528136,22.2596121],[114.3532561,22.2597313],[114.3531944,22.2594706],[114.3528136,22.2596121]]],[[[114.3520545,22.2590183],[114.3521725,22.2590581],[114.3522208,22.2588446],[114.3520545,22.2590183]]],[[[114.2604327,22.203778],[114.2605144,22.2038174],[114.2605392,22.2037766],[114.2604327,22.203778]]],[[[114.261006,22.2042745],[114.2582919,22.2051681],[114.2593731,22.2065853],[114.261006,22.2042745]]],[[[114.2227379,22.207437],[114.2229663,22.2064877],[114.2218183,22.2073767],[114.2227379,22.207437]]],[[[113.9464046,22.2143937],[113.9452271,22.2146271],[113.9467586,22.2152181],[113.9464046,22.2143937]]],[[[113.9864365,22.2121604],[113.9866994,22.2122002],[113.9867208,22.2121306],[113.9864365,22.2121604]]],[[[113.9903186,22.2125629],[113.9904177,22.2125141],[113.9903032,22.2124923],[113.9903186,22.2125629]]],[[[113.9900179,22.2123703],[113.990277,22.2124116],[113.9900399,22.2122635],[113.9900179,22.2123703]]],[[[113.9899654,22.2125163],[113.9899674,22.2124539],[113.9899264,22.2124983],[113.9899654,22.2125163]]],[[[113.9900726,22.2126359],[113.9900563,22.2125223],[113.9899763,22.2125779],[113.9900726,22.2126359]]],[[[114.1879862,22.214987],[114.1835818,22.2171629],[114.1876329,22.2166581],[114.1879862,22.214987]]],[[[113.9798785,22.2164761],[113.9801145,22.216337],[113.9797498,22.2164562],[113.9798785,22.2164761]]],[[[113.9930206,22.1952573],[113.9932018,22.1953638],[113.9931957,22.1952618],[113.9930206,22.1952573]]],[[[114.0250094,22.1967292],[114.0252883,22.1963517],[114.0249664,22.1963716],[114.0250094,22.1967292]]],[[[113.9799906,22.1986604],[113.9801837,22.1986207],[113.9801086,22.1984121],[113.9799906,22.1986604]]],[[[113.98735,22.2021499],[113.9901268,22.1883685],[113.98234,22.1941281],[113.98735,22.2021499]]],[[[113.9801516,22.199028],[113.9805914,22.1990578],[113.9805592,22.1988492],[113.9801516,22.199028]]],[[[113.9815785,22.1993459],[113.9814283,22.1990181],[113.9813103,22.1991969],[113.9815785,22.1993459]]],[[[114.0412767,22.2056479],[114.0216296,22.1958785],[114.0172756,22.201087],[114.0275229,22.2057462],[114.0220938,22.2131463],[114.0346759,22.2233905],[114.0294651,22.2115936],[114.0412767,22.2056479]]],[[[114.12707218,22.20954965],[114.1301711,22.2020263],[114.1596606,22.2096012],[114.1398112,22.1978588],[114.1494733,22.1813511],[114.1361431,22.1915534],[114.1372139,22.1776693],[114.1140147,22.1833105],[114.1212136,22.2143617],[114.1139688,22.2201508],[114.1036814,22.2112595],[114.1024238,22.2187385],[114.1113129,22.2253858],[114.1057388,22.2342331],[114.1178954,22.2411902],[114.1272817,22.2199036],[114.1369556,22.2187511],[114.12707218,22.20954965]]],[[[114.2905665,22.2408717],[114.290663,22.2412093],[114.2908669,22.2408717],[114.2905665,22.2408717]]],[[[114.2879916,22.2375052],[114.2803301,22.2499399],[114.2959649,22.2587795],[114.2983664,22.2478428],[114.2958773,22.2417257],[114.2903948,22.2428081],[114.2879916,22.2375052]]],[[[114.2586482,22.2264199],[114.2557085,22.2259233],[114.2554536,22.2263763],[114.2586482,22.2264199]]],[[[114.0206507,22.2304999],[114.0206507,22.2304428],[114.0206077,22.2304825],[114.0206507,22.2304999]]],[[[114.0204709,22.2305173],[114.0206453,22.2306092],[114.0207311,22.2305049],[114.0204709,22.2305173]]],[[[114.2662203,22.233957],[114.2661953,22.2341467],[114.2664003,22.2340995],[114.2662203,22.233957]]],[[[114.1878787,22.2331647],[114.1825068,22.2362148],[114.1896672,22.2354894],[114.1878787,22.2331647]]],[[[114.1631755,22.2362956],[114.151859,22.2386971],[114.1440484,22.2438144],[114.1594247,22.2451743],[114.1631755,22.2362956]]],[[[114.1615014,22.2325943],[114.1589851,22.231481],[114.1588954,22.2333415],[114.1615014,22.2325943]]],[[[114.1361338,22.2238335],[114.1362715,22.2239018],[114.1362691,22.2238472],[114.1361338,22.2238335]]],[[[114.1934311,22.2245366],[114.193629,22.2241613],[114.193355,22.2243578],[114.1934311,22.2245366]]],[[[114.1926326,22.2245716],[114.1927439,22.2243121],[114.1924633,22.224377],[114.1926326,22.2245716]]],[[[114.1920028,22.2249252],[114.1911851,22.2243477],[114.1908838,22.2242755],[114.1920028,22.2249252]]],[[[114.1360661,22.2236098],[114.13313,22.225189],[114.135742,22.2260759],[114.1360661,22.2236098]]],[[[114.0449748,22.2412733],[114.032536,22.2543181],[114.0277443,22.2540236],[114.0279884,22.2585892],[114.044846,22.2570918],[114.0449748,22.2412733]]],[[[114.1431433,22.2411624],[114.1436013,22.2407599],[114.142743,22.2410106],[114.1431433,22.2411624]]],[[[113.8744562,22.356426],[113.8749732,22.35641],[113.8747508,22.3559907],[113.8744562,22.356426]]],[[[113.874218,22.3567792],[113.8744272,22.3568585],[113.8743574,22.3566353],[113.874218,22.3567792]]],[[[114.4067594,22.4126617],[114.406931,22.4124733],[114.4067594,22.4124435],[114.4067594,22.4126617]]],[[[114.3867521,22.4027608],[114.3852023,22.4036654],[114.3860971,22.4040756],[114.3867521,22.4027608]]],[[[114.3875387,22.4055699],[114.3879249,22.4058575],[114.3876459,22.4055401],[114.3875387,22.4055699]]],[[[114.321847,22.3964764],[114.3217581,22.3965614],[114.3218102,22.3965585],[114.321847,22.3964764]]],[[[114.3867738,22.4021218],[114.3858365,22.4014326],[114.385652,22.4020348],[114.3867738,22.4021218]]],[[[114.4058489,22.4131062],[114.4064604,22.4130269],[114.4063048,22.4127343],[114.4058489,22.4131062]]],[[[114.2738801,22.42555],[114.2723117,22.4254492],[114.2730321,22.4266621],[114.2738801,22.42555]]],[[[114.2720775,22.4321384],[114.2718992,22.4329695],[114.272658,22.4332633],[114.2720775,22.4321384]]],[[[114.4015525,22.4333809],[114.4021587,22.4338024],[114.4020077,22.4334027],[114.4015525,22.4333809]]],[[[114.4023335,22.4360263],[114.4016393,22.4352935],[114.4017466,22.4361018],[114.4023335,22.4360263]]],[[[114.222717,22.4389833],[114.2219107,22.4406825],[114.2224717,22.4411639],[114.222717,22.4389833]]],[[[114.186728,22.4401183],[114.1871089,22.440029],[114.1871981,22.4399327],[114.186728,22.4401183]]],[[[114.1853932,22.4410922],[114.1853919,22.4411306],[114.1854147,22.441112],[114.1853932,22.4410922]]],[[[114.1810028,22.4432367],[114.1812241,22.4432081],[114.1812536,22.4431747],[114.1810028,22.4432367]]],[[[114.1798374,22.444055],[114.1800487,22.4440141],[114.18005,22.4439676],[114.1798374,22.444055]]],[[[114.2577183,22.446139],[114.258016,22.4465481],[114.258075,22.4456036],[114.2577183,22.446139]]],[[[114.3959281,22.4481581],[114.3955894,22.4483657],[114.39572,22.4484208],[114.3959281,22.4481581]]],[[[114.210928,22.4483221],[114.210932,22.4482899],[114.2109092,22.4482924],[114.210928,22.4483221]]],[[[114.3957921,22.4483732],[114.3960603,22.4486012],[114.3961438,22.448076],[114.3957921,22.4483732]]],[[[114.3950982,22.4490132],[114.3943115,22.4483137],[114.3946492,22.4494378],[114.3950982,22.4490132]]],[[[114.2110979,22.4480979],[114.2111181,22.4480942],[114.21111,22.4480843],[114.2110979,22.4480979]]],[[[114.2111908,22.4481362],[114.2111868,22.4481548],[114.2112136,22.4481697],[114.2112351,22.4481473],[114.2111908,22.4481362]]],[[[114.211172,22.4481325],[114.2111989,22.4481213],[114.2111506,22.4481226],[114.211172,22.4481325]]],[[[114.2112512,22.4481412],[114.211278,22.4481672],[114.2112646,22.4481374],[114.2112512,22.4481412]]],[[[114.2111506,22.4481814],[114.2112096,22.4481938],[114.2111854,22.4481666],[114.2111506,22.4481814]]],[[[114.210987,22.4483921],[114.2111218,22.4481367],[114.2109548,22.4481294],[114.2108716,22.4482558],[114.210944,22.4482806],[114.210987,22.4483227],[114.210987,22.4483921]]],[[[114.3907302,22.3831083],[114.3912259,22.3828792],[114.3906373,22.3829479],[114.3907302,22.3831083]]],[[[114.3141911,22.3844595],[114.3149289,22.3839717],[114.3146888,22.3836956],[114.3141911,22.3844595]]],[[[114.3157413,22.3888555],[114.3160941,22.3888343],[114.3159666,22.3886174],[114.3157413,22.3888555]]],[[[114.311061,22.3888517],[114.3111817,22.3889261],[114.3111468,22.3888195],[114.311061,22.3888517]]],[[[114.3135576,22.3901111],[114.3131706,22.3892397],[114.3130163,22.3901165],[114.3135576,22.3901111]]],[[[114.3156274,22.3873587],[114.3174244,22.3851894],[114.315435,22.3839697],[114.3156274,22.3873587]]],[[[114.282602,22.3860492],[114.2819816,22.386139],[114.2823098,22.3867681],[114.282602,22.3860492]]],[[[114.2816343,22.3922878],[114.2818274,22.3921489],[114.2815592,22.3918712],[114.2816343,22.3922878]]],[[[114.2821815,22.3913752],[114.2825248,22.3919605],[114.2823424,22.3913851],[114.2821815,22.3913752]]],[[[114.2854995,22.3936463],[114.2856412,22.3934449],[114.2854248,22.3934801],[114.2854995,22.3936463]]],[[[114.283689,22.3936187],[114.283916,22.3940329],[114.2839956,22.3937181],[114.283689,22.3936187]]],[[[114.2867791,22.3921054],[114.2872348,22.3923275],[114.287139,22.3920269],[114.2867791,22.3921054]]],[[[114.2822995,22.3923969],[114.2823532,22.3928334],[114.2825785,22.3924267],[114.2822995,22.3923969]]],[[[114.2858018,22.3924966],[114.286455,22.3932413],[114.2868163,22.3927144],[114.2858018,22.3924966]]],[[[114.2845344,22.3894312],[114.2840559,22.3903877],[114.2848716,22.3899867],[114.2845344,22.3894312]]],[[[114.2818355,22.3820035],[114.281617,22.3823834],[114.2820231,22.3821419],[114.2818355,22.3820035]]],[[[114.2855421,22.3937421],[114.2856869,22.3942238],[114.2859504,22.393928],[114.2855421,22.3937421]]],[[[114.2860601,22.3939604],[114.2860875,22.394159],[114.2862353,22.3940435],[114.2860601,22.3939604]]],[[[114.3919867,22.3646253],[114.3910954,22.3635259],[114.3907682,22.3647265],[114.3919867,22.3646253]]],[[[114.4278035,22.4654725],[114.4285438,22.4657006],[114.4287262,22.4647389],[114.4278035,22.4654725]]],[[[114.4351359,22.5377665],[114.4257337,22.5429376],[114.4260299,22.5516457],[114.4417999,22.5409901],[114.4351359,22.5377665]],[[114.4345027,22.5406616],[114.4342479,22.5403445],[114.4346236,22.5404776],[114.4345027,22.5406616]]],[[[114.2246798,22.4487377],[114.2275948,22.4560376],[114.2345,22.45755],[114.2303299,22.4512999],[114.2246798,22.4487377]]],[[[114.3610821,22.4542271],[114.3612069,22.4541711],[114.3611843,22.4541327],[114.3610821,22.4542271]]],[[[114.2169397,22.4554328],[114.2166319,22.4574626],[114.2200678,22.4562256],[114.2169397,22.4554328]]],[[[114.2877089,22.4590778],[114.2874095,22.4594084],[114.2878245,22.4592413],[114.2877089,22.4590778]]],[[[114.3031455,22.4595944],[114.303344,22.4597233],[114.3033011,22.4595151],[114.3031455,22.4595944]]],[[[114.2227632,22.4631195],[114.2201211,22.4608713],[114.2223125,22.4635964],[114.2227632,22.4631195]]],[[[114.3032957,22.4628862],[114.3033708,22.4628713],[114.3032743,22.462792],[114.3032957,22.4628862]]],[[[114.2910957,22.4636694],[114.2910286,22.4636967],[114.2910689,22.4637091],[114.2910957,22.4636694]]],[[[114.290865,22.4638454],[114.2908784,22.46389],[114.2909267,22.4638454],[114.290865,22.4638454]]],[[[114.3022859,22.4632133],[114.3023449,22.4632356],[114.3023422,22.4632109],[114.3022859,22.4632133]]],[[[114.3022389,22.463248],[114.3022658,22.4633472],[114.3022818,22.4632778],[114.3022389,22.463248]]],[[[114.2908323,22.4632033],[114.2908221,22.4636545],[114.2911059,22.4633818],[114.2908323,22.4632033]]],[[[114.3315683,22.4759777],[114.3316541,22.4759034],[114.33152,22.4759232],[114.3315683,22.4759777]]],[[[114.3321737,22.4746678],[114.331247,22.4754023],[114.3319706,22.475596],[114.3321737,22.4746678]]],[[[114.3314932,22.475829],[114.3316273,22.4757894],[114.3315898,22.4757447],[114.3314932,22.475829]]],[[[114.330254,22.477445],[114.3298743,22.4774217],[114.3300019,22.4775391],[114.330254,22.477445]]],[[[114.3318687,22.4781885],[114.33054,22.4794901],[114.331085,22.4808179],[114.3318687,22.4781885]]],[[[114.3343685,22.4798887],[114.3331718,22.4801136],[114.3339201,22.4807084],[114.3343685,22.4798887]]],[[[114.3717469,22.4827805],[114.371821,22.4832052],[114.3729811,22.4824831],[114.3717469,22.4827805]]],[[[113.9454004,22.4908336],[113.9454788,22.4908799],[113.9454715,22.4907966],[113.9454004,22.4908336]]],[[[114.3705278,22.484201],[114.3702638,22.4833872],[114.3700472,22.4839145],[114.3705278,22.484201]]],[[[114.3603194,22.4966592],[114.3604149,22.4965916],[114.3603194,22.4966369],[114.3603194,22.4966592]]],[[[114.3042681,22.5009393],[114.3046083,22.5015849],[114.3051583,22.5017249],[114.3042681,22.5009393]]],[[[114.362138,22.5013973],[114.3623113,22.5014114],[114.3622308,22.5012305],[114.362138,22.5013973]]],[[[114.3696197,22.4829541],[114.3696437,22.4826613],[114.3694948,22.4828876],[114.3696197,22.4829541]]],[[[114.355914,22.4829618],[114.3560374,22.4829618],[114.3559945,22.4829024],[114.355914,22.4829618]]],[[[114.3600339,22.465191],[114.3532318,22.4808503],[114.3563271,22.4826743],[114.3596208,22.4865545],[114.3669803,22.4758538],[114.3600339,22.465191]]],[[[114.2889299,22.5194399],[114.28584,22.5214499],[114.2890382,22.5199648],[114.2889299,22.5194399]]],[[[114.2115971,22.5275647],[114.2102619,22.5278856],[114.2109607,22.5282859],[114.2115971,22.5275647]]],[[[114.2090514,22.5276836],[114.2091265,22.5280106],[114.2092338,22.5280503],[114.2090514,22.5276836]]],[[[114.2093911,22.5286865],[114.2095457,22.5284366],[114.2094353,22.5284162],[114.2093911,22.5286865]]],[[[114.30095,22.51424],[114.30009,22.51473],[114.3009299,22.5145],[114.30095,22.51424]]],[[[114.3147719,22.5311386],[114.3150412,22.5312202],[114.315018,22.5309799],[114.3147719,22.5311386]]],[[[114.2200284,22.5414258],[114.2186256,22.5413887],[114.2202027,22.5421591],[114.2200284,22.5414258]]],[[[114.223003,22.5435266],[114.2217329,22.5433755],[114.2230539,22.5440319],[114.223003,22.5435266]]],[[[114.3312851,22.541931],[114.3291046,22.5417652],[114.3295263,22.5422182],[114.3312851,22.541931]]],[[[114.3119391,22.5417335],[114.3114277,22.5422515],[114.3119941,22.5420974],[114.3119391,22.5417335]]],[[[114.2658644,22.5425488],[114.2655862,22.5416831],[114.2650533,22.5424237],[114.2658644,22.5425488]]],[[[114.2272418,22.5322458],[114.2274987,22.5317749],[114.2268826,22.5314741],[114.2272418,22.5322458]]],[[[114.2676757,22.5383359],[114.2669768,22.538743],[114.2670622,22.5388543],[114.2676757,22.5383359]]],[[[114.2808575,22.5322887],[114.2802475,22.5330149],[114.2810022,22.5324785],[114.2808575,22.5322887]]],[[[114.2886639,22.5327576],[114.2882336,22.532952],[114.2888005,22.532942],[114.2886639,22.5327576]]],[[[114.2729623,22.5325423],[114.2725899,22.5333201],[114.27287,22.5333201],[114.2729623,22.5325423]]],[[[114.2773,22.5334],[114.27502,22.5339315],[114.2746651,22.5349141],[114.2773,22.5334]]],[[[114.3078395,22.5383444],[114.3055683,22.5408841],[114.3098374,22.5408999],[114.3078395,22.5383444]]],[[[114.2841109,22.5260037],[114.284524,22.5261226],[114.2844489,22.5258005],[114.2841109,22.5260037]]],[[[114.2877828,22.52597],[114.2876299,22.5265141],[114.2883259,22.5263875],[114.2877828,22.52597]]],[[[114.2734527,22.5271793],[114.2730773,22.5272022],[114.2730705,22.5273546],[114.2734527,22.5271793]]],[[[114.31876,22.52303],[114.3080518,22.5289343],[114.309424,22.5351002],[114.3156138,22.5286812],[114.3201401,22.53772],[114.31876,22.52303]]],[[[114.36026,22.4963199],[114.3569219,22.5037454],[114.3646453,22.5041908],[114.3627936,22.5027586],[114.3614373,22.5004545],[114.3608708,22.4973685],[114.3602347,22.4972008],[114.36026,22.4963199]]],[[[114.3630515,22.5027495],[114.3631991,22.5026653],[114.3630365,22.5027082],[114.3630515,22.5027495]]],[[[114.3635504,22.5030444],[114.3635719,22.5029626],[114.3635397,22.5029651],[114.3635504,22.5030444]]],[[[114.3644876,22.5043461],[114.3646979,22.5043335],[114.3649371,22.5042859],[114.3644876,22.5043461]]],[[[114.3649623,22.504745],[114.3651678,22.5046526],[114.3650981,22.5046353],[114.3649623,22.504745]]],[[[114.3647199,22.5046377],[114.3647789,22.5047493],[114.3647628,22.5046055],[114.3647199,22.5046377]]],[[[114.30962,22.52314],[114.3216366,22.5164059],[114.29808,22.50468],[114.2946826,22.5135882],[114.3057789,22.5109305],[114.30962,22.52314]]],[[[114.3038639,22.5319255],[114.2987737,22.5373755],[114.2861338,22.5325356],[114.2944638,22.5385955],[114.2864039,22.5469455],[114.2907355,22.5553501],[114.3171778,22.5500942],[114.3030839,22.5441354],[114.2985537,22.5488154],[114.2933538,22.5457756],[114.3038639,22.5319255]]],[[[114.2609789,22.5450022],[114.2590004,22.5458778],[114.2621916,22.5465401],[114.2609789,22.5450022]]],[[[114.2958901,22.54606],[114.2952602,22.5464738],[114.2956424,22.5465944],[114.2958901,22.54606]]],[[[114.2430647,22.5494102],[114.2425746,22.5499332],[114.242746,22.5502765],[114.2430647,22.5494102]]],[[[114.262496,22.5514867],[114.2605273,22.5517407],[114.2625467,22.5516464],[114.262496,22.5514867]]],[[[114.2650944,22.5523757],[114.2646988,22.552611],[114.2649879,22.5526805],[114.2650944,22.5523757]]],[[[114.2708964,22.5509949],[114.2702798,22.5509004],[114.2676354,22.5534561],[114.2708964,22.5509949]]],[[[114.3791574,22.3575227],[114.3773269,22.3593151],[114.379533,22.3576061],[114.3791574,22.3575227]]],[[[113.8890399,22.3519766],[113.8892866,22.3519469],[113.8892276,22.3518427],[113.8890399,22.3519766]]],[[[113.8856871,22.3527357],[113.8858266,22.3526266],[113.8856495,22.3526514],[113.8856871,22.3527357]]],[[[113.887747,22.3537528],[113.8879402,22.3537776],[113.8878651,22.3536685],[113.887747,22.3537528]]],[[[113.885722,22.3522795],[113.88853,22.352899],[113.8865021,22.3510179],[113.885722,22.3522795]]],[[[114.0029822,22.3622184],[114.003229,22.3621712],[114.0030734,22.3620422],[114.0029822,22.3622184]]],[[[114.2843826,22.3621884],[114.2848051,22.3622683],[114.2847499,22.3620951],[114.2843826,22.3621884]]],[[[114.2845945,22.3627261],[114.2849162,22.3624841],[114.2847265,22.3623842],[114.2845945,22.3627261]]],[[[114.1094335,22.3597201],[114.1094979,22.3600897],[114.1095596,22.3597201],[114.1094335,22.3597201]]],[[[114.1109623,22.359988],[114.1110542,22.3603439],[114.1110938,22.3599681],[114.1109623,22.359988]]],[[[114.374675,22.3556652],[114.3747968,22.3555525],[114.3746479,22.3556386],[114.374675,22.3556652]]],[[[114.1117146,22.3571347],[114.1119184,22.3569561],[114.1118299,22.3568519],[114.1117146,22.3571347]]],[[[114.1106363,22.3573902],[114.1107999,22.3573952],[114.1107329,22.3572488],[114.1106363,22.3573902]]],[[[114.2970848,22.3575716],[114.2972446,22.3574485],[114.2969967,22.357479],[114.2970848,22.3575716]]],[[[114.1095313,22.357926],[114.1097137,22.3577945],[114.1096305,22.3576507],[114.1095313,22.357926]]],[[[114.3661644,22.3478859],[114.365667,22.3478104],[114.3655176,22.3481893],[114.3661644,22.3478859]]],[[[114.0681106,22.3485725],[114.0669733,22.3499071],[114.0681052,22.3500361],[114.0681106,22.3485725]]],[[[114.3717895,22.3535483],[114.3718828,22.3534908],[114.3717365,22.353479],[114.3717895,22.3535483]]],[[[114.3286159,22.3509457],[114.3291309,22.350906],[114.3290665,22.3507075],[114.3286159,22.3509457]]],[[[114.3714312,22.3515448],[114.3716945,22.351593],[114.3715295,22.3514078],[114.3714312,22.3515448]]],[[[114.0643009,22.352053],[114.0645423,22.3522539],[114.064604,22.352105],[114.0643009,22.352053]]],[[[114.2966236,22.3532017],[114.2966657,22.3531305],[114.2965683,22.3531604],[114.2966236,22.3532017]]],[[[114.294967,22.3535841],[114.2952655,22.3532798],[114.2950257,22.3532353],[114.294967,22.3535841]]],[[[114.2973735,22.3536189],[114.2978186,22.3540667],[114.2978564,22.3536414],[114.2973735,22.3536189]]],[[[114.1128143,22.3565443],[114.1144531,22.3549022],[114.1146087,22.3538801],[114.1128143,22.3565443]]],[[[114.3195731,22.3777281],[114.3195269,22.3774732],[114.3194367,22.3780546],[114.3195731,22.3777281]]],[[[114.275099,22.3777654],[114.2760669,22.3788682],[114.2761861,22.3788608],[114.275099,22.3777654]]],[[[114.3140487,22.3795577],[114.313895,22.3794393],[114.3138365,22.3795306],[114.3140487,22.3795577]]],[[[114.308362,22.378726],[114.3074057,22.3792571],[114.3085216,22.3792179],[114.308362,22.378726]]],[[[114.2896453,22.3792422],[114.2873975,22.3796614],[114.2875392,22.3803819],[114.2896453,22.3792422]]],[[[114.2995093,22.380072],[114.2990434,22.3799738],[114.2991638,22.3801786],[114.2995093,22.380072]]],[[[114.2797215,22.3799242],[114.2829062,22.3802101],[114.2825647,22.3788573],[114.2797215,22.3799242]]],[[[113.9885756,22.3632996],[113.988232,22.3635155],[113.9885849,22.3638178],[113.9885756,22.3632996]]],[[[114.2859324,22.3631568],[114.2872508,22.3631141],[114.2868447,22.3622878],[114.2859324,22.3631568]]],[[[114.0710403,22.3637509],[114.071094,22.3637732],[114.0710886,22.3637509],[114.0710403,22.3637509]]],[[[114.0027918,22.3626624],[114.0028266,22.3626276],[114.0027864,22.3626276],[114.0027918,22.3626624]]],[[[114.2850936,22.3628903],[114.2857381,22.3630161],[114.2851778,22.3627675],[114.2850936,22.3628903]]],[[[114.2880869,22.3638231],[114.2883336,22.3640661],[114.2883304,22.3637728],[114.2880869,22.3638231]]],[[[114.0795206,22.3635207],[114.0801283,22.3644846],[114.0803543,22.3639783],[114.0795206,22.3635207]]],[[[114.2995834,22.364514],[114.2998398,22.3645891],[114.299703,22.3644043],[114.2995834,22.364514]]],[[[114.2984769,22.364654],[114.2984584,22.3644695],[114.2983315,22.3645525],[114.2984769,22.364654]]],[[[113.8817872,22.3752236],[113.8820125,22.3749459],[113.8816638,22.3750897],[113.8817872,22.3752236]]],[[[113.9839491,22.3751212],[113.9840148,22.375084],[113.9839598,22.3750952],[113.9839491,22.3751212]]],[[[114.3237009,22.3666725],[114.3251471,22.3673583],[114.3253966,22.366632],[114.3237009,22.3666725]]],[[[114.3246203,22.3679762],[114.3249975,22.368125],[114.3248422,22.3676736],[114.3246203,22.3679762]]],[[[113.9907906,22.3652415],[113.9879343,22.3652094],[113.9896735,22.3664158],[113.9907906,22.3652415]]],[[[114.2870546,22.3672442],[114.2937176,22.3701743],[114.2976963,22.3659643],[114.2962716,22.3529161],[114.2870546,22.3672442]]],[[[114.2955819,22.3700896],[114.2947531,22.3720632],[114.2965422,22.3709516],[114.2955819,22.3700896]]],[[[114.3243818,22.3689971],[114.3248478,22.3695306],[114.3246092,22.3688022],[114.3243818,22.3689971]]],[[[114.3019021,22.3711813],[114.3007109,22.3715117],[114.3014448,22.37188],[114.3019021,22.3711813]]],[[[114.3790058,22.3737109],[114.3790048,22.3740284],[114.3791795,22.3738007],[114.3790058,22.3737109]]],[[[114.3781773,22.3744732],[114.3784322,22.374245],[114.3783116,22.3741548],[114.3781773,22.3744732]]],[[[114.286324,22.3737343],[114.2845918,22.3751659],[114.2869421,22.3760881],[114.286324,22.3737343]]],[[[114.3211327,22.3764671],[114.3294327,22.3736127],[114.3286413,22.3657212],[114.3257761,22.3734518],[114.3205845,22.3727068],[114.3211327,22.3764671]]],[[[114.2948252,22.3730683],[114.2958892,22.3743535],[114.2964325,22.3736424],[114.2948252,22.3730683]]],[[[114.3001535,22.3757554],[114.3011208,22.3726395],[114.2994219,22.37516],[114.3001535,22.3757554]]],[[[114.3192432,22.3748751],[114.3196317,22.3749085],[114.319451,22.3747456],[114.3192432,22.3748751]]],[[[113.885253,22.3794998],[113.8804991,22.3707754],[113.8824316,22.3744228],[113.882253,22.3769416],[113.8779253,22.3821105],[113.885253,22.3794998]]],[[[113.9839759,22.3751808],[113.9838967,22.3751845],[113.9839517,22.3752118],[113.9839759,22.3751808]]],[[[114.318308,22.3763416],[114.3191709,22.376335],[114.3182794,22.3753652],[114.318308,22.3763416]]],[[[114.3173843,22.3753721],[114.3179207,22.3757789],[114.3178617,22.3754267],[114.3173843,22.3753721]]],[[[114.2905807,22.3749789],[114.2894773,22.3763318],[114.290717,22.3756915],[114.2905807,22.3749789]]],[[[114.2881214,22.3759807],[114.2881292,22.3768386],[114.288463,22.3763646],[114.2881214,22.3759807]]],[[[114.3043815,22.3740032],[114.3004799,22.3804599],[114.3057476,22.3798525],[114.3043815,22.3740032]]],[[[114.3705296,22.2652604],[114.3691701,22.26556],[114.3693086,22.26619],[114.3705296,22.2652604]]],[[[114.3696552,22.2662275],[114.370138,22.266009],[114.3702023,22.2658303],[114.3696552,22.2662275]]],[[[114.3673369,22.2670384],[114.366517,22.2665015],[114.3665687,22.2671628],[114.3673369,22.2670384]]],[[[114.3675577,22.2645594],[114.3678474,22.2645197],[114.3678581,22.2642814],[114.3675577,22.2645594]]],[[[114.3602138,22.275922],[114.3602835,22.2759419],[114.3602567,22.2759022],[114.3602138,22.275922]]],[[[114.3590577,22.2761652],[114.359326,22.2762149],[114.3593152,22.2759369],[114.3590577,22.2761652]]],[[[114.3512284,22.260597],[114.3482231,22.2541404],[114.3478091,22.2578982],[114.3512284,22.260597]]],[[[114.3508639,22.2720608],[114.3503229,22.2714268],[114.3503537,22.2721203],[114.3508639,22.2720608]]],[[[114.1190681,22.2717132],[114.1190538,22.2717205],[114.1190798,22.2717568],[114.1190681,22.2717132]]],[[[114.2655347,22.2743661],[114.2662213,22.2739169],[114.2660845,22.2735272],[114.2655347,22.2743661]]],[[[114.2657788,22.2744033],[114.2665352,22.2741675],[114.2657546,22.2743686],[114.2657788,22.2744033]]],[[[114.3159201,22.2747201],[114.3121599,22.2762],[114.3146574,22.2779418],[114.3159201,22.2747201]]],[[[114.3516307,22.26061],[114.3518641,22.2605703],[114.3518668,22.2604884],[114.3516307,22.26061]]],[[[114.3519124,22.2605951],[114.3523656,22.2607937],[114.352363,22.2605256],[114.3519124,22.2605951]]],[[[114.3510889,22.2606795],[114.3515154,22.2609799],[114.3516146,22.2606324],[114.3510889,22.2606795]]],[[[113.9966352,22.2661925],[113.9971232,22.2664085],[113.9971351,22.2663897],[113.9966352,22.2661925]]],[[[114.0544269,22.2596437],[114.0471199,22.2618101],[114.0550921,22.2647671],[114.0544269,22.2596437]]],[[[114.352253,22.2614019],[114.3517273,22.261588],[114.3522208,22.2616948],[114.352253,22.2614019]]],[[[114.3454612,22.2624559],[114.3448682,22.2630976],[114.3455977,22.2630487],[114.3454612,22.2624559]]],[[[114.2801325,22.265089],[114.2791191,22.2647534],[114.2792943,22.2655249],[114.2801325,22.265089]]],[[[114.3508291,22.2706122],[114.34888,22.2638607],[114.3462701,22.2630406],[114.3463541,22.2678982],[114.3508291,22.2706122]]],[[[114.3724216,22.3114567],[114.3727148,22.3117731],[114.3728777,22.3114989],[114.3724216,22.3114567]]],[[[114.3711024,22.3122734],[114.3718516,22.3123969],[114.3721382,22.3115923],[114.3711024,22.3122734]]],[[[114.3711201,22.3313123],[114.3709519,22.3312938],[114.3711315,22.3313677],[114.3711201,22.3313123]]],[[[114.3719769,22.3329924],[114.3722772,22.332999],[114.3720715,22.3326031],[114.3719769,22.3329924]]],[[[114.3716932,22.3334344],[114.3716807,22.3336316],[114.3717977,22.333562],[114.3716932,22.3334344]]],[[[114.0229404,22.2801603],[114.0230021,22.2801752],[114.0229887,22.2801529],[114.0229404,22.2801603]]],[[[114.0489508,22.2834087],[114.0485287,22.2836635],[114.0489588,22.2837119],[114.0489508,22.2834087]]],[[[114.0797093,22.2825234],[114.0741196,22.2844195],[114.079645,22.2868121],[114.0797093,22.2825234]]],[[[114.1142968,22.2834524],[114.112007,22.2861476],[114.11532,22.28465],[114.1142968,22.2834524]]],[[[114.2297866,22.2862199],[114.2296664,22.2860848],[114.2282416,22.2862596],[114.2278805,22.2865321],[114.2297866,22.2862199]]],[[[114.2217008,22.2449025],[114.2301482,22.2316733],[114.2143077,22.2197185],[114.22258,22.2145],[114.2183983,22.2088004],[114.22403,22.1970299],[114.2139797,22.1940286],[114.2133929,22.2163602],[114.1972263,22.2104245],[114.1982513,22.2345447],[114.1872377,22.2447347],[114.1793551,22.244551],[114.1710981,22.229976],[114.1617848,22.2474293],[114.1321646,22.2521977],[114.1162841,22.277404],[114.13176,22.289522],[114.183182,22.282302],[114.2031932,22.2951071],[114.2263448,22.2830113],[114.2345956,22.2844453],[114.2431304,22.2682505],[114.244979,22.2737188],[114.2574241,22.2617089],[114.2468579,22.2451626],[114.2520982,22.2313304],[114.2599787,22.230584],[114.25052,22.2276183],[114.2545501,22.21118],[114.2586543,22.210958],[114.2612984,22.2080343],[114.2605731,22.2068273],[114.2422036,22.2082435],[114.2345913,22.2408808],[114.2251192,22.2468461],[114.2217008,22.2449025]],[[114.2122881,22.2486325],[114.2167154,22.2405575],[114.2211287,22.2402036],[114.219498,22.2494179],[114.2122881,22.2486325]],[[114.2106681,22.2484895],[114.2067001,22.2431739],[114.2085357,22.2452854],[114.2117679,22.2461329],[114.2126136,22.2479598],[114.2106681,22.2484895]],[[114.2105871,22.2566568],[114.2112232,22.2546779],[114.2126177,22.2558637],[114.2105871,22.2566568]],[[114.1375809,22.2658405],[114.1385679,22.264093],[114.1398277,22.2663764],[114.1375809,22.2658405]],[[114.1637689,22.2718295],[114.1639298,22.2714398],[114.1640612,22.2716334],[114.1637689,22.2718295]],[[114.1606918,22.2557448],[114.1624954,22.2518013],[114.1625544,22.2567219],[114.1606918,22.2557448]],[[114.1960856,22.2572744],[114.1953522,22.2556267],[114.1963699,22.2558272],[114.1960856,22.2572744]],[[114.1650864,22.2611226],[114.16567,22.2563486],[114.1678386,22.2573108],[114.1650864,22.2611226]],[[114.2118126,22.2618068],[114.2097443,22.2570033],[114.2105767,22.2567786],[114.2118126,22.2618068]]],[[[113.8449951,22.1956204],[113.8416638,22.2345036],[113.8518999,22.23198],[113.8510551,22.2432025],[113.8694028,22.2533056],[113.8626177,22.257781],[113.8713215,22.2687507],[113.8876837,22.2692431],[113.8967013,22.2918512],[113.9216817,22.2914684],[113.9340199,22.2793987],[113.939976,22.2937699],[113.9745745,22.3022829],[114.0199629,22.3338475],[114.0222742,22.3262743],[114.0456551,22.34759],[114.0541241,22.3432756],[114.0553275,22.3108054],[114.0392519,22.3059308],[114.0296102,22.3129164],[114.0156124,22.3061783],[114.0161626,22.2966775],[114.0248395,22.2993064],[114.0255644,22.2951191],[114.0278308,22.2917576],[114.0192207,22.2929661],[114.0237247,22.2659141],[114.0026485,22.272449],[113.9962385,22.2659838],[114.0123654,22.2525588],[113.9941,22.24074],[114.020416,22.2302119],[114.0044239,22.2148514],[113.9803749,22.2173097],[113.9841307,22.2225945],[113.977516,22.2285503],[113.9822585,22.2356525],[113.9824279,22.2385601],[113.9808407,22.2393667],[113.9803735,22.2418708],[113.9798166,22.2421724],[113.9814997,22.2370591],[113.9728698,22.2405585],[113.924049,22.2259932],[113.918993,22.2182098],[113.9297159,22.2176136],[113.9312826,22.2103529],[113.9232805,22.2070366],[113.9087888,22.2072504],[113.8926709,22.223077],[113.86747,22.20251],[113.8449951,22.1956204]],[[113.9978388,22.2328544],[113.9996105,22.2323489],[113.9998761,22.233582],[113.9978388,22.2328544]],[[113.8910756,22.2291868],[113.9017094,22.2261918],[113.8998052,22.2411065],[113.8967265,22.2342963],[113.8910756,22.2291868]],[[114.001311,22.2907377],[114.0019613,22.2860186],[114.0046804,22.2915853],[114.001311,22.2907377]]],[[[114.1876065,22.2870206],[114.1829717,22.2856705],[114.1829287,22.2857976],[114.1876065,22.2870206]]],[[[114.1169637,22.2864802],[114.1164219,22.2850308],[114.1160296,22.2859673],[114.1169637,22.2864802]]],[[[114.0591423,22.2873768],[114.0592335,22.2873867],[114.0592013,22.2873123],[114.0591423,22.2873768]]],[[[114.0588016,22.287347],[114.0589813,22.2874661],[114.0589733,22.287347],[114.0588016,22.287347]]],[[[114.1511771,22.2888681],[114.153182,22.2887366],[114.1532497,22.2884798],[114.1511771,22.2888681]]],[[[114.0603207,22.2890959],[114.0575231,22.2878898],[114.05704,22.2892701],[114.0603207,22.2890959]]],[[[114.1533339,22.2892633],[114.1513514,22.2900209],[114.1535047,22.2893496],[114.1533339,22.2892633]]],[[[114.3091833,22.3074869],[114.3092691,22.3078492],[114.3092906,22.3074472],[114.3091833,22.3074869]]],[[[114.3095481,22.3078145],[114.3098431,22.3076011],[114.3095427,22.3075812],[114.3095481,22.3078145]]],[[[114.364506,22.3074897],[114.3649656,22.3078054],[114.3650039,22.3073577],[114.364506,22.3074897]]],[[[114.3702938,22.3091529],[114.370305,22.3093403],[114.3704552,22.3091815],[114.3702938,22.3091529]]],[[[114.36987,22.3092386],[114.3699484,22.3092944],[114.3699806,22.3092386],[114.36987,22.3092386]]],[[[114.3099772,22.3093828],[114.3102079,22.309348],[114.3100631,22.3091892],[114.3099772,22.3093828]]],[[[114.3700697,22.3119931],[114.3708515,22.3123577],[114.3713597,22.3114657],[114.3700697,22.3119931]]],[[[113.9691763,22.3313396],[113.9650184,22.3299163],[113.9661813,22.3339784],[113.9691763,22.3313396]]],[[[113.9786503,22.3265621],[113.9789591,22.3267345],[113.9793204,22.3266106],[113.9786503,22.3265621]]],[[[114.3678194,22.3253506],[114.3688693,22.3258238],[114.3692471,22.3255145],[114.3678194,22.3253506]]],[[[114.3675887,22.3264826],[114.3692739,22.3267239],[114.3693675,22.3261981],[114.3675887,22.3264826]]],[[[114.3653374,22.3283545],[114.3654713,22.3285471],[114.3654371,22.3282615],[114.3653374,22.3283545]]],[[[114.058231,22.3296782],[114.0590169,22.3297006],[114.0591054,22.3296063],[114.058231,22.3296782]]],[[[114.3692848,22.3343654],[114.3729747,22.3304925],[114.3754103,22.3304686],[114.3780116,22.3277406],[114.3717992,22.3284458],[114.3714366,22.3315576],[114.3692848,22.3343654]]],[[[114.3571657,22.3252229],[114.3572768,22.3252295],[114.3572508,22.3251901],[114.3571657,22.3252229]]],[[[114.3262931,22.3254733],[114.3264208,22.3252461],[114.3261507,22.3254733],[114.3262931,22.3254733]]],[[[114.3261474,22.325599],[114.3259313,22.3255733],[114.3259411,22.3256399],[114.3261474,22.325599]]],[[[114.35735,22.3256236],[114.3574562,22.3255988],[114.3573851,22.3255717],[114.35735,22.3256236]]],[[[114.3261933,22.3257868],[114.327007,22.3254869],[114.3261229,22.3257565],[114.3261933,22.3257868]]],[[[114.3226053,22.3266039],[114.3228999,22.327424],[114.3237609,22.3268112],[114.3226053,22.3266039]]],[[[114.3202474,22.3256678],[114.3198307,22.3263055],[114.3206288,22.3256976],[114.3202474,22.3256678]]],[[[114.3665756,22.3259785],[114.3673848,22.3257898],[114.3668063,22.3252949],[114.3665756,22.3259785]]],[[[114.3227819,22.3274836],[114.3155503,22.3380333],[114.3220384,22.3417482],[114.3308299,22.3316461],[114.3227819,22.3274836]]],[[[114.3191179,22.3121283],[114.3182601,22.3115499],[114.3181985,22.3127601],[114.3191179,22.3121283]]],[[[114.3690763,22.3131364],[114.3691185,22.3129897],[114.3689833,22.3132752],[114.3690763,22.3131364]]],[[[114.3694968,22.3132986],[114.3693933,22.3131129],[114.3691819,22.3133338],[114.3694968,22.3132986]]],[[[114.346486,22.3147124],[114.3468082,22.3144325],[114.34663,22.3143783],[114.346486,22.3147124]]],[[[114.1425099,22.3148432],[114.1426185,22.3148419],[114.1425649,22.3147985],[114.1425099,22.3148432]]],[[[114.1405157,22.3153115],[114.1405519,22.3153258],[114.1405599,22.3153122],[114.1405157,22.3153115]]],[[[114.14057,22.3152538],[114.1405914,22.3153699],[114.1406806,22.3153717],[114.14057,22.3152538]]],[[[114.3694638,22.3156629],[114.3695614,22.3154044],[114.3693291,22.3157283],[114.3694638,22.3156629]]],[[[114.140804,22.315672],[114.1408375,22.3157104],[114.1408771,22.3156943],[114.140804,22.315672]]],[[[114.1396426,22.317126],[114.1397177,22.317229],[114.1397311,22.3171459],[114.1396426,22.317126]]],[[[114.1399792,22.3172042],[114.1400905,22.3171409],[114.1400731,22.317121],[114.1399792,22.3172042]]],[[[114.1408778,22.3157514],[114.1408808,22.3157973],[114.140914,22.3157768],[114.1408778,22.3157514]]],[[[114.1407718,22.3157855],[114.1408228,22.3158028],[114.1407899,22.31577],[114.1407718,22.3157855]]],[[[114.1407188,22.3159573],[114.1407893,22.315971],[114.1407577,22.3159418],[114.1407188,22.3159573]]],[[[114.1408563,22.316193],[114.1407758,22.3162588],[114.1408241,22.3162799],[114.1408563,22.316193]]],[[[114.1987987,22.316432],[114.1989289,22.3164776],[114.1989731,22.3164384],[114.1987987,22.316432]]],[[[114.1405016,22.31651],[114.1405217,22.3165584],[114.1405298,22.3165237],[114.1405016,22.31651]]],[[[114.140574,22.31651],[114.1405727,22.3165807],[114.1406156,22.3165398],[114.140574,22.31651]]],[[[114.1394374,22.3173357],[114.1395662,22.3173183],[114.1394629,22.3172712],[114.1394374,22.3173357]]],[[[114.1393234,22.3174771],[114.139373,22.3175751],[114.1394039,22.317528],[114.1393234,22.3174771]]],[[[114.1390847,22.317688],[114.1392081,22.3176471],[114.1390981,22.3176061],[114.1390847,22.317688]]],[[[114.3667137,22.3192682],[114.3670643,22.3192527],[114.3667418,22.3192164],[114.3667137,22.3192682]]],[[[114.365431,22.3214544],[114.3656155,22.3213162],[114.3654749,22.3213284],[114.365431,22.3214544]]],[[[114.3666833,22.3218162],[114.3655145,22.3222186],[114.3657024,22.3226402],[114.3666833,22.3218162]]],[[[114.3537701,22.322422],[114.3538705,22.3224699],[114.3539072,22.3223478],[114.3537701,22.322422]]],[[[114.347389,22.3148457],[114.3490987,22.3238852],[114.3573396,22.3263615],[114.3532671,22.322169],[114.3537026,22.3172908],[114.347389,22.3148457]]],[[[114.3274968,22.3230426],[114.3266688,22.3227583],[114.3269823,22.3232719],[114.3274968,22.3230426]]],[[[114.3297908,22.3237253],[114.3299601,22.3237202],[114.3298699,22.3235892],[114.3297908,22.3237253]]],[[[114.3022301,22.3254299],[114.2953603,22.3232373],[114.2934,22.33172],[114.3022301,22.3254299]]],[[[114.0222534,22.2903682],[114.0223982,22.2904724],[114.0223258,22.2902912],[114.0222534,22.2903682]]],[[[114.3090277,22.2923591],[114.3091779,22.2924335],[114.3091618,22.292364],[114.3090277,22.2923591]]],[[[114.0262664,22.2946657],[114.0263523,22.2946906],[114.0262933,22.294631],[114.0262664,22.2946657]]],[[[114.0259714,22.2973162],[114.0260143,22.2973807],[114.0260304,22.297341],[114.0259714,22.2973162]]],[[[114.3181513,22.2995645],[114.3185536,22.3004082],[114.3188004,22.3003487],[114.3181513,22.2995645]]],[[[114.0338957,22.2891077],[114.0317659,22.2893692],[114.0342297,22.2903684],[114.0338957,22.2891077]]],[[[114.0402499,22.2804804],[114.0351846,22.2892986],[114.0441098,22.2925902],[114.0399355,22.2860071],[114.047527,22.2841855],[114.0402499,22.2804804]]],[[[114.3109567,22.3024029],[114.3120636,22.302213],[114.3117661,22.3014489],[114.3109567,22.3024029]]],[[[114.3166076,22.3035165],[114.3169349,22.3039334],[114.3168759,22.3034421],[114.3166076,22.3035165]]],[[[113.895772,22.3038335],[113.8959549,22.3038869],[113.896696,22.3031923],[113.895772,22.3038335]]],[[[114.3670459,22.3067271],[114.3671823,22.3065086],[114.3667258,22.3067975],[114.3670459,22.3067271]]],[[[114.3682022,22.3067695],[114.3682663,22.3073043],[114.3686528,22.3066404],[114.3682022,22.3067695]]],[[[114.3085878,22.3047325],[114.3088561,22.3047176],[114.3088239,22.3046332],[114.3085878,22.3047325]]],[[[114.3100631,22.3048367],[114.3102293,22.3050154],[114.3103688,22.3046183],[114.3100631,22.3048367]]],[[[114.0341414,22.3031504],[114.0345384,22.302932],[114.0342272,22.3028427],[114.0341414,22.3031504]]],[[[114.0357078,22.3030909],[114.0357936,22.3032398],[114.0359117,22.3031504],[114.0357078,22.3030909]]],[[[114.3171119,22.3037994],[114.3174123,22.3033527],[114.3172997,22.3032138],[114.3171119,22.3037994]]],[[[114.3116794,22.303414],[114.3106746,22.3032237],[114.3110628,22.3046158],[114.3116794,22.303414]]],[[[114.3125672,22.3009429],[114.3122401,22.3012196],[114.3125759,22.3011787],[114.3125672,22.3009429]]],[[[114.3188004,22.300448],[114.3190096,22.3007507],[114.3192671,22.3005919],[114.3188004,22.300448]]],[[[114.3203652,22.3016843],[114.3199164,22.3004966],[114.3190557,22.3009301],[114.3203652,22.3016843]]],[[[113.9425793,22.3145055],[113.962538,22.32317],[113.9593885,22.3107278],[113.9403242,22.3101699],[113.9339918,22.290619],[113.8939168,22.2949052],[113.8981228,22.3023661],[113.8936114,22.3110822],[113.9336944,22.3239167],[113.9457965,22.3232418],[113.9425793,22.3145055]]],[[[114.3097305,22.3070452],[114.310047,22.3071792],[114.3100899,22.3069013],[114.3097305,22.3070452]]],[[[114.36855,22.3134001],[114.3656487,22.3074246],[114.3611,22.3199701],[114.3664682,22.3210617],[114.3654182,22.3201488],[114.3666829,22.3191308],[114.3673332,22.3191069],[114.3681971,22.3183007],[114.36855,22.3134001]]],[[[114.0613538,22.3405052],[114.0615147,22.3405101],[114.0615174,22.3404233],[114.0613538,22.3405052]]],[[[113.8906411,22.3405824],[113.8900993,22.3416566],[113.8911695,22.3416889],[113.8906411,22.3405824]]],[[[114.3516665,22.3415072],[114.3516443,22.3414097],[114.3515758,22.3414815],[114.3516665,22.3415072]]],[[[114.0624052,22.3412196],[114.0624025,22.3413561],[114.0625473,22.3412693],[114.0624052,22.3412196]]],[[[114.0612599,22.3407905],[114.0614825,22.3408227],[114.0614771,22.340788],[114.0612599,22.3407905]]],[[[114.0625098,22.3411378],[114.0626788,22.3411154],[114.0626117,22.3410782],[114.0625098,22.3411378]]],[[[113.9835205,22.3386923],[113.9808665,22.3372568],[113.9831562,22.340347],[113.9835205,22.3386923]]],[[[114.3746472,22.3386976],[114.3756269,22.339044],[114.3757773,22.3386636],[114.3746472,22.3386976]]],[[[114.0237278,22.3357849],[114.0236959,22.3334713],[114.0221769,22.3363753],[114.0237278,22.3357849]]],[[[114.3610651,22.3388487],[114.3663863,22.3284116],[114.3607201,22.3298996],[114.3610651,22.3388487]]],[[[114.3699127,22.3344865],[114.3703809,22.3347095],[114.3703525,22.3346308],[114.3699127,22.3344865]]],[[[114.3702255,22.3351616],[114.3705707,22.3351091],[114.370495,22.3349954],[114.3702255,22.3351616]]],[[[114.336023,22.3347818],[114.33275,22.33494],[114.3342607,22.337329],[114.336023,22.3347818]]],[[[114.3680807,22.3366608],[114.3676676,22.3366137],[114.3679305,22.336837],[114.3680807,22.3366608]]],[[[114.0628182,22.3389447],[114.0628799,22.3389918],[114.0628638,22.3389347],[114.0628182,22.3389447]]],[[[114.0626037,22.3389744],[114.0626734,22.3390042],[114.0626519,22.3389695],[114.0626037,22.3389744]]],[[[114.0632501,22.3389868],[114.0632528,22.3390836],[114.0633869,22.339096],[114.0632501,22.3389868]]],[[[114.063521,22.3390613],[114.0636578,22.3391977],[114.0637007,22.3391456],[114.063521,22.3390613]]],[[[114.3749715,22.3393223],[114.3751086,22.3395667],[114.3752022,22.3395419],[114.3749715,22.3393223]]],[[[114.0638938,22.3398651],[114.0614101,22.3406441],[114.0622633,22.3411995],[114.0638938,22.3398651]]],[[[113.8857032,22.3470623],[113.8858829,22.3472236],[113.8859097,22.3471491],[113.8857032,22.3470623]]],[[[113.8909174,22.3425423],[113.8911937,22.34251],[113.8910488,22.342381],[113.8909174,22.3425423]]],[[[114.3702974,22.344585],[114.3687847,22.3450712],[114.3699863,22.3456468],[114.3702974,22.344585]]],[[[114.3605634,22.3432809],[114.3608239,22.3433744],[114.3607755,22.343224],[114.3605634,22.3432809]]],[[[114.3232098,22.3422234],[114.3232635,22.342235],[114.3232545,22.3422027],[114.3232098,22.3422234]]],[[[114.3521794,22.3421324],[114.351713,22.3427211],[114.3520888,22.3427107],[114.3521794,22.3421324]]],[[[114.08183,22.35994],[114.1074097,22.3631776],[114.117672,22.330991],[114.091896,22.3261795],[114.08183,22.35994]]],[[[113.8925585,22.3457368],[113.8904497,22.342101],[113.8883588,22.346642],[113.8849393,22.3482313],[113.8925585,22.3457368]]],[[[114.3660366,22.347507],[114.3662198,22.3475498],[114.3662645,22.3474073],[114.3660366,22.347507]]],[[[114.0662886,22.3456341],[114.0539323,22.348758],[114.0649153,22.3558695],[114.0616672,22.3503789],[114.0662886,22.3456341]]],[[[114.3088569,22.3769555],[114.318045,22.3780363],[114.3166299,22.3750156],[114.3166889,22.371697],[114.3208575,22.3641736],[114.3181633,22.3615585],[114.3278958,22.356237],[114.3235198,22.3422977],[114.3031496,22.3518886],[114.3088569,22.3769555]]],[[[114.0341648,22.5063793],[114.0542303,22.5029331],[114.0900192,22.536886],[114.1124985,22.5296305],[114.130722,22.5419069],[114.14834,22.5417211],[114.1612843,22.5619295],[114.1809999,22.5542015],[114.2179897,22.5559998],[114.2263475,22.54367],[114.2195954,22.544676],[114.2094089,22.5354128],[114.2082637,22.5257823],[114.2102652,22.5242219],[114.2335108,22.5318258],[114.2424529,22.5485304],[114.2531848,22.5447359],[114.25528,22.5474301],[114.2549194,22.5489585],[114.2555561,22.5498309],[114.2554595,22.5507821],[114.2560121,22.551555],[114.2562221,22.5390489],[114.2676987,22.535354],[114.2626177,22.5254588],[114.28618,22.5253199],[114.2782911,22.513315],[114.272537,22.517234],[114.2721944,22.5083519],[114.2918094,22.5090157],[114.303736,22.4981314],[114.33623,22.50737],[114.30544,22.48203],[114.2678505,22.4691295],[114.2747728,22.4684929],[114.2542761,22.4525775],[114.2465545,22.4498457],[114.2315203,22.4722086],[114.2173985,22.4671569],[114.2146877,22.4726862],[114.2081126,22.4610447],[114.2167654,22.4561467],[114.2155546,22.4525865],[114.2230167,22.450419],[114.2230278,22.4498869],[114.2098303,22.4494173],[114.2133886,22.4567632],[114.2020783,22.4597059],[114.1783441,22.4450359],[114.1810495,22.4431202],[114.1852007,22.4408118],[114.1855562,22.4411434],[114.1859489,22.4404015],[114.1876461,22.4396335],[114.1951222,22.4395186],[114.213266,22.4270915],[114.2184853,22.4064349],[114.2411471,22.4374138],[114.2457533,22.4307774],[114.2683819,22.4339952],[114.2760721,22.4092923],[114.2759779,22.4190866],[114.2898723,22.4283744],[114.277195,22.4440007],[114.2819859,22.4503632],[114.2914067,22.4499227],[114.2920724,22.4584144],[114.3030731,22.4553916],[114.3039754,22.4587532],[114.3019785,22.4630536],[114.3034191,22.462549],[114.3039608,22.462696],[114.3164066,22.4770367],[114.3202568,22.4767214],[114.3215178,22.4805507],[114.3312894,22.4730779],[114.3272791,22.4609557],[114.3361199,22.4624848],[114.3420401,22.47878],[114.3473444,22.4633199],[114.3378392,22.4624671],[114.3416466,22.444358],[114.3331618,22.4397693],[114.334347,22.4279815],[114.3462534,22.4393262],[114.3471306,22.4234773],[114.3561433,22.4223027],[114.3523976,22.4490647],[114.3619364,22.4522918],[114.3610395,22.4610771],[114.3701758,22.4543197],[114.3706274,22.4373995],[114.40125,22.4361401],[114.39557,22.4291],[114.4057317,22.4126951],[114.3858403,22.4205296],[114.3706009,22.4002911],[114.3907432,22.387803],[114.3865182,22.3768388],[114.3913099,22.3673349],[114.3824707,22.3757828],[114.3805987,22.3737258],[114.3781364,22.3747778],[114.3757658,22.3733085],[114.381191,22.3654696],[114.3743184,22.3594929],[114.37723,22.35895],[114.377842,22.3576633],[114.3594892,22.3509893],[114.3565301,22.3353186],[114.3517133,22.3547897],[114.3436178,22.3468471],[114.3318353,22.3620098],[114.3354017,22.3785938],[114.3180325,22.3823512],[114.3234251,22.399572],[114.304643,22.3839765],[114.2861332,22.3955662],[114.2777117,22.3939738],[114.2698671,22.3779962],[114.2788151,22.3592654],[114.2751979,22.3505454],[114.2722126,22.3598898],[114.2649197,22.3563701],[114.2700971,22.363482],[114.2641299,22.3720001],[114.2505556,22.3544735],[114.2682145,22.3512534],[114.2718861,22.3233268],[114.2897415,22.321133],[114.292499,22.3043162],[114.3033276,22.3105984],[114.3036962,22.307782],[114.3105615,22.3026507],[114.30241,22.2876101],[114.2881222,22.2879501],[114.2932546,22.2732895],[114.2999299,22.2805001],[114.3032633,22.2793538],[114.3003886,22.2693191],[114.3072058,22.2677717],[114.2997698,22.2602818],[114.2822721,22.2715477],[114.2740101,22.26257],[114.2692428,22.274973],[114.2644632,22.2755834],[114.2710154,22.2919078],[114.2646754,22.3089825],[114.243296,22.2856382],[114.2007834,22.3221129],[114.215912,22.3032821],[114.1961055,22.3206939],[114.1895521,22.3001568],[114.1732285,22.2928764],[114.1647437,22.2942287],[114.1669216,22.3008834],[114.1552387,22.2986788],[114.1599275,22.3155402],[114.1485954,22.3266343],[114.1405502,22.3266565],[114.1476084,22.3219425],[114.1423639,22.3150177],[114.140207,22.3177235],[114.1384743,22.3181004],[114.1384746,22.3150355],[114.1352135,22.3145415],[114.1373002,22.3188544],[114.1341206,22.3136445],[114.12158,22.3214775],[114.1353805,22.3275667],[114.1266907,22.3283265],[114.1287241,22.3396842],[114.1154773,22.3473691],[114.1163741,22.3546604],[114.1122927,22.3649003],[114.1055661,22.3719748],[114.0262872,22.3551468],[114.0089677,22.3652919],[113.9987859,22.3618103],[113.9917423,22.3722313],[113.9888642,22.3670179],[113.9875275,22.372554],[113.9799664,22.379235],[113.976875,22.3742945],[113.9765701,22.3815927],[113.9683042,22.3782648],[113.9741252,22.3707955],[113.9513601,22.36963],[113.9529358,22.3558172],[113.9188427,22.3693185],[113.9142618,22.375791],[113.920713,22.386902],[113.9043147,22.4103307],[113.9153322,22.4214532],[113.9371144,22.426526],[113.9393536,22.4208079],[113.9548201,22.4482701],[113.9764056,22.4571677],[113.99846,22.48914],[114.0258933,22.4832909],[114.0313634,22.4696767],[114.0288478,22.48149],[114.0121273,22.4992506],[114.0341648,22.5063793]],[[114.1495308,22.3574341],[114.1475534,22.3546029],[114.1483734,22.3535148],[114.1495361,22.3546108],[114.1495308,22.3574341]],[[114.1500583,22.3506534],[114.1525903,22.3507249],[114.1531911,22.3530349],[114.1500583,22.3506534]],[[114.1458544,22.3518813],[114.1444889,22.3503917],[114.1471402,22.349567],[114.1458544,22.3518813]],[[114.1538263,22.3545987],[114.1541013,22.3510477],[114.1586929,22.3571071],[114.1538263,22.3545987]],[[114.3313907,22.3940879],[114.3352,22.3827061],[114.3473755,22.3669828],[114.3709774,22.3608167],[114.37382,22.3679371],[114.3628305,22.3739023],[114.3721828,22.3851462],[114.3620183,22.3772293],[114.3619616,22.3886744],[114.3490593,22.3820118],[114.3471305,22.3895413],[114.3313907,22.3940879]],[[114.0173746,22.4011338],[114.0171943,22.4002672],[114.0184241,22.3978622],[114.0173746,22.4011338]],[[114.1478711,22.3912418],[114.1443678,22.3784936],[114.1489208,22.3802432],[114.1531926,22.3954875],[114.1478711,22.3912418]],[[114.0712556,22.405863],[114.0752596,22.4044853],[114.0778229,22.4066506],[114.0738989,22.4073591],[114.0712556,22.405863]],[[113.9906399,22.411461],[113.990318,22.409269],[113.9901785,22.4085598],[113.9903234,22.4079349],[113.9906399,22.411461]],[[113.9983838,22.4138553],[113.9975791,22.4120303],[113.998711,22.4111773],[113.9983838,22.4138553]],[[114.2348792,22.4685543],[114.2480778,22.4553654],[114.2589126,22.4568411],[114.2640578,22.4723534],[114.2818412,22.4747317],[114.2906999,22.4855199],[114.2793603,22.492692],[114.2632229,22.4830098],[114.2408619,22.4994849],[114.2443156,22.4852617],[114.2348792,22.4685543]],[[114.1689557,22.4967545],[114.1681132,22.4961957],[114.1687275,22.493971],[114.1689557,22.4967545]],[[114.0879984,22.4168541],[114.0872317,22.4154127],[114.0878575,22.4149989],[114.0879984,22.4168541]],[[114.0849066,22.4164105],[114.0859308,22.4160954],[114.0860257,22.4161685],[114.0849066,22.4164105]],[[114.1126808,22.3672923],[114.112597,22.3671088],[114.1128143,22.3673122],[114.1126808,22.3672923]],[[114.0526181,22.3714034],[114.0525001,22.3703418],[114.0541695,22.37228],[114.0526181,22.3714034]],[[114.1642385,22.3730377],[114.1505914,22.375768],[114.156857,22.3721193],[114.1653114,22.3696803],[114.1642385,22.3730377]],[[114.0220108,22.3862651],[114.0191126,22.3727994],[114.0301315,22.3749253],[114.0342138,22.3799655],[114.0277192,22.3809095],[114.0460083,22.3958273],[114.024881,22.3869864],[114.0231534,22.3853936],[114.0239458,22.3834914],[114.0279771,22.3837692],[114.0244409,22.3804889],[114.0220108,22.3862651]]],[[[114.3541879,22.3773377],[114.3568627,22.3848905],[114.3581684,22.3766168],[114.3541879,22.3773377]]],[[[114.3403427,22.378438],[114.3404422,22.3791198],[114.3408928,22.3786165],[114.3403427,22.378438]]],[[[114.3537134,22.3689307],[114.3539475,22.3699048],[114.3542108,22.3696937],[114.3537134,22.3689307]]],[[[114.3389372,22.3807549],[114.3389827,22.3813135],[114.3391772,22.3808926],[114.3389372,22.3807549]]],[[[114.1493402,22.389938],[114.1488727,22.3908061],[114.1492148,22.3907007],[114.1493402,22.389938]]],[[[114.0745922,22.40605],[114.0744366,22.4066551],[114.0748362,22.4064344],[114.0745922,22.40605]]],[[[114.1632099,22.3726914],[114.1631509,22.372947],[114.1633131,22.3728293],[114.1632099,22.3726914]]],[[[114.0262938,22.3843238],[114.0260823,22.3856592],[114.0272566,22.3850792],[114.0262938,22.3843238]]],[[[114.0273281,22.3768071],[114.0269871,22.3803929],[114.0287381,22.3787659],[114.0273281,22.3768071]]],[[[114.0231419,22.3752341],[114.0239401,22.3772977],[114.0247298,22.3757341],[114.0231419,22.3752341]]],[[[114.0319722,22.3855977],[114.0326724,22.3871623],[114.0332032,22.3862058],[114.0319722,22.3855977]]],[[[114.0243683,22.3847083],[114.0239599,22.3857401],[114.0246017,22.3859694],[114.0243683,22.3847083]]],[[[114.0234098,22.3800602],[114.0233409,22.3804],[114.0234673,22.380124],[114.0234098,22.3800602]]],[[[114.0219343,22.3795559],[114.0222845,22.3799381],[114.0223764,22.3797523],[114.0219343,22.3795559]]],[[[114.0365052,22.3884347],[114.0369071,22.3888913],[114.0371023,22.3888064],[114.0365052,22.3884347]]]]}},{"type":"Feature","id":"EXTERNAL-MAC","properties":{"map_level":"province","external_only":true,"region_code":"MO","display_name_zh":"澳门特别行政区","source_name_original":"Macao S.A.R","prefecture_name":"","entity_id":"","source":"Natural Earth 10m","source_url":"https://github.com/nvkelso/natural-earth-vector","license_status":"public_domain"},"geometry":{"type":"MultiPolygon","coordinates":[[[[113.55290774800005,22.165838934000078],[113.57406660200002,22.16075267100007],[113.57178795700008,22.152899481000077],[113.56324303500003,22.15058014500005],[113.56023196700005,22.141546942000048],[113.57252037900003,22.13731517100007],[113.57797285200002,22.13963450700004],[113.57488040500004,22.13503652600008],[113.58594811300009,22.13194407800006],[113.58749433700007,22.12486399900007],[113.58358808700007,22.12331777600008],[113.57748457100001,22.126654364000046],[113.57797285200002,22.120917059000078],[113.57406660200002,22.11937083500004],[113.56674238400001,22.12335846600007],[113.5663354830001,22.10769277600008],[113.55738366000003,22.111151434000078],[113.5468042330001,22.10537344000005],[113.54110761800007,22.11326732000009],[113.54525800900001,22.11424388200004],[113.54232832100001,22.140733140000066],[113.53223717500009,22.15261465100008],[113.53443444100003,22.16120026200008],[113.55290774800005,22.165838934000078]]],[[[113.53646894600001,22.21706777600008],[113.53891035200002,22.220770575000074],[113.55380293100006,22.211493231000077],[113.55681399800005,22.203558661000045],[113.55152428500003,22.204413153000075],[113.54916425900001,22.199733791000085],[113.55713951900009,22.202460028000075],[113.55380293100006,22.195868231000077],[113.5507104830001,22.195868231000077],[113.55152428500003,22.189561265000066],[113.52890058700007,22.17869700700004],[113.52475019600001,22.17373281500005],[113.52019290500004,22.184881903000075],[113.53524824300007,22.207546291000085],[113.53370201900009,22.210760809000078],[113.52735436300009,22.207546291000085],[113.52434329500011,22.212551174000055],[113.53646894600001,22.21706777600008]]]]}},{"type":"Feature","id":"EXTERNAL-TWN","properties":{"map_level":"province","external_only":true,"region_code":"TW","display_name_zh":"台湾省","source_name_original":"Republic Of China","prefecture_name":"","entity_id":"","source":"geoBoundaries gbOpen TWN ADM0","source_url":"https://www.geoboundaries.org/api/current/gbOpen/TWN/ADM0/","license_status":"CC-BY-4.0_or_ODbL_upstream"},"geometry":{"type":"MultiPolygon","coordinates":[[[[121.6083882133886,22.001333594940036],[121.60884261949047,22.019448941094026],[121.57158131912865,22.055883259765267],[121.57249013133253,22.08451867957268],[121.49933074891476,22.085781873246106],[121.50410201298553,22.04177397167325],[121.55658591776364,22.00449341502491],[121.6083882133886,22.001333594940036]]],[[[120.36905009898601,22.325583041412017],[120.3872263430651,22.342799265424674],[120.38271863453349,22.35503763181464],[120.35727189282295,22.33688142814242],[120.36905009898601,22.325583041412017]]],[[[121.52909434859407,22.63859622618429],[121.53363840961379,22.667531406696355],[121.5059196373935,22.680948550183587],[121.49274186043624,22.651806521657818],[121.52909434859407,22.63859622618429]]],[[[119.44249788081709,23.222255656383936],[119.43362787370643,23.25125003586811],[119.41239802062216,23.230406786659955],[119.42301294716424,23.217177651560178],[119.44249788081709,23.222255656383936]]],[[[119.50436690746278,23.386534208909325],[119.50902002594705,23.3976379670616],[119.50269178480846,23.408228376519787],[119.4908728638585,23.39567352378225],[119.50436690746278,23.386534208909325]]],[[[119.52372388035724,23.543096404640153],[119.5132078325828,23.551713022884314],[119.50501834405065,23.544888025231273],[119.5123702712558,23.53371132657702],[119.52372388035724,23.543096404640153]]],[[[120.04900279324374,23.513248469185896],[120.07401330509663,23.561907203120086],[120.03097195911744,23.51484849448036],[120.04711246385955,23.455634618917884],[120.04900279324374,23.513248469185896]]],[[[119.6209158926963,23.640656147226366],[119.56129781211746,23.59882249456615],[119.54937419600151,23.56017446153413],[119.55926207278037,23.547644727092347],[119.58369094482259,23.55910814766196],[119.58340012491738,23.543912234900574],[119.61379080501729,23.542179256081795],[119.63981918653838,23.580699316599294],[119.69638365811215,23.585896660384662],[119.66919199697008,23.618142242417093],[119.6209158926963,23.640656147226366]]],[[[119.51912892585426,23.610681160038325],[119.53861385950677,23.66989978988937],[119.52660881381735,23.678848987359913],[119.50204034822082,23.615765400850535],[119.46532724338033,23.595357962915273],[119.48888365570667,23.587895583959437],[119.51912892585426,23.610681160038325]]],[[[119.61218220741625,23.660768846223846],[119.61786228369101,23.687611482201987],[119.58241860773694,23.707375788376226],[119.56946803383073,23.685946982986707],[119.61218220741625,23.660768846223846]]],[[[118.26986658218448,24.433225252456907],[118.24941830759587,24.456597773479473],[118.20920336757126,24.41212421217398],[118.22851562690505,24.401572368995232],[118.26986658218448,24.433225252456907]]],[[[118.478720714774,24.442864357024234],[118.45185622602526,24.508911675515378],[118.41095967684782,24.53247683564689],[118.37165354902686,24.485135325542956],[118.38051446801524,24.473142070000165],[118.3475700256223,24.468799402565764],[118.31485278628008,24.494026139152197],[118.28622520185559,24.476657452961433],[118.30531025813855,24.434466380212143],[118.27577386151029,24.41212421217398],[118.33143860900202,24.3862602838077],[118.34916044697923,24.41336554751325],[118.39619147853341,24.43136353792181],[118.42868151482469,24.416468832453745],[118.42663668736566,24.400330917711585],[118.478720714774,24.442864357024234]]],[[[121.69427096666027,25.195839610980897],[121.63019970628204,25.29407026737516],[121.56681005505652,25.299000255808494],[121.53432001876547,25.289345507009614],[121.43798592514679,25.20694077541799],[121.47925508732828,25.1584253497154],[121.4644232721597,25.131046202987477],[121.44450210864909,25.163031813944997],[121.25599628130612,25.12098315292917],[121.08432165598026,25.051901788023372],[121.00948097098512,24.960834040507052],[120.99721200623185,24.922721569779583],[120.95926909671698,24.89593278315448],[120.94109285263801,24.814706658039086],[120.86588864276132,24.71196392148306],[120.86543423665933,24.68079422579916],[120.80244219077326,24.670174623004016],[120.73970006824311,24.6123256686613],[120.72094218435359,24.55798010301828],[120.55401155873244,24.32207834340909],[120.52803770594369,24.235109344590853],[120.46214882115714,24.17086754860918],[120.44783502894518,24.106800796717437],[120.38308215941379,24.059092746497242],[120.34626106496307,23.972395047654743],[120.14724175724052,23.6753546117543],[120.13964829047188,23.537969084704798],[120.17274666293213,23.495113490733615],[120.15457041885315,23.47924333738092],[120.1636040121607,23.342609529171455],[120.09640643780062,23.233480034447382],[120.11336705467556,23.20669497001728],[120.07677609419545,23.168793298929074],[120.1169092411219,23.11316979190366],[120.09862393957826,23.090373872598718],[120.07681244668345,23.09079187439653],[120.0740860100716,23.058601933116563],[120.09135344194692,23.051912147602764],[120.12179865077894,23.073443707395995],[120.126956870046,23.028122825959997],[120.18995956607523,22.95905710401206],[120.1897323630244,22.899839168792255],[120.21810434401641,22.852399087249864],[120.20709919623414,22.82131724924676],[120.27380658001186,22.699285984233427],[120.25198599899488,22.668998970694872],[120.33135086474306,22.586502789105964],[120.34164600299073,22.53503232473804],[120.27206506862592,22.62058728942219],[120.259284897008,22.618293405382303],[120.2862652593127,22.567818281269012],[120.37944691059874,22.48543205395606],[120.43056759707088,22.486271772803946],[120.56971583361758,22.37386378859111],[120.64368405889684,22.29174125513333],[120.7013936338476,22.16470903285108],[120.71048175588726,22.11756852520375],[120.6898244544916,22.016137797271426],[120.72792186208108,21.965711234761784],[120.71279922700751,21.934286701108874],[120.73766432890739,21.910545111545048],[120.75787631232345,21.909735669396696],[120.77296259490879,21.950134705361222],[120.86293500309682,21.89259296576853],[120.85107784387355,21.959037895561607],[120.8982934779068,22.012695452648188],[120.90630327296606,22.34028773527956],[120.92960046081134,22.37260683190749],[120.9449553045032,22.4581384192025],[120.96881162485704,22.481023446434165],[120.9810805896102,22.5348576203001],[121.03182866307861,22.58521370500216],[121.04969591100837,22.643209489621313],[121.13966831919913,22.709246030794247],[121.2216886206055,22.797664123886193],[121.22100701145257,22.845411200192757],[121.28803191149382,22.894397353686884],[121.37573228917472,23.06863598796292],[121.41776485360731,23.100405556861574],[121.44377505888474,23.16037102987218],[121.44464751860073,23.18202722270263],[121.43083357310059,23.18777488293466],[121.43912194040058,23.232210658068823],[121.49321444277939,23.323775160190223],[121.49433228179032,23.369099965071428],[121.51864300824604,23.394125436536456],[121.53800070819,23.464438363640113],[121.57348073663252,23.699786648733266],[121.61841241199579,23.841377709999506],[121.62565564526142,23.94244457425043],[121.66825312736023,24.00902685539711],[121.64720358261707,24.085736770341498],[121.68413771058556,24.1438680525564],[121.69693378641716,24.19786133571114],[121.81209846890181,24.30564677790227],[121.80832689825525,24.38791573382815],[121.83445524911883,24.45287500725442],[121.87671501660259,24.489270665857248],[121.86444605184931,24.517106237825544],[121.89489126068167,24.549424479385777],[121.88398551423427,24.587238402132243],[121.90261616441512,24.60851662828003],[121.86126520913547,24.630617361031113],[121.85717555421775,24.716710938994595],[121.83445524911917,24.744982900524008],[121.86103800608453,24.86934431685296],[121.93987746477728,24.948268528811354],[122.03602979595507,25.01211273885025],[122.01303684719517,25.033935731628446],[121.95464566309147,25.028995016474823],[121.93760543426743,25.05698977108119],[121.9310165457888,25.127360079711536],[121.78628820231006,25.14566618095779],[121.7231257541356,25.178774736994967],[121.71335602294323,25.20632407061595],[121.69427096666027,25.195839610980897]]],[[[119.92735543970764,25.968186299505078],[119.9497207400392,25.981271235464533],[119.91741530622721,25.98063297968372],[119.92735543970764,25.968186299505078]]],[[[119.9947921452789,25.984960285984528],[119.98365919578043,25.97188852662407],[119.96343812424266,25.977199104120757],[119.95957567237588,25.94042865248349],[119.9947921452789,25.984960285984528]]],[[[119.93208410320665,26.172705958214465],[119.90731897064893,26.16067478904887],[119.91413506217862,26.136608727844873],[119.97684310425097,26.16862773485832],[119.92776724523776,26.163121907061793],[119.93208410320665,26.172705958214465]]],[[[120.01468604442346,26.208849091567515],[120.01439522451835,26.257891853586784],[119.96539207048158,26.220981274501696],[119.96466502071826,26.190974647453004],[119.98778520318672,26.218241859890668],[120.01468604442346,26.208849091567515]]]]}}]}