{"type":"FeatureCollection","features":[{"type":"Feature","id":"CTAMAP-2005-COUNTY-0520","properties":{"map_level":"county","source_name":"台湾省","source_code":"710000","county_type":"不统计","prefecture_name":"不统计","prefecture_code":"0","prefecture_type":"不统计","parent_entity_id":"","parent_year_end_name":"","province_name":"台湾省","province_code":"710000","snapshot_year":2005,"panel_year":2004,"link_status":"province_direct_or_out_of_scope","former_name":"","note":""},"geometry":{"type":"MultiPolygon","coordinates":[[[[121.51027,25.29047],[121.57704,25.29831],[121.61805,25.27712],[121.65682,25.21213],[121.69234,25.20791],[121.68609,25.18903],[121.7072,25.16483],[121.74921,25.15678],[121.74215,25.13047],[121.77267,25.15538],[121.80638,25.14821],[121.8215,25.12136],[121.92425,25.12923],[121.91327,25.0852],[121.93547,25.02273],[121.97635,25.02538],[122.00489,25.00717],[121.92618,24.9692],[121.83354,24.86535],[121.81877,24.7593],[121.84975,24.6297],[121.88571,24.59944],[121.85703,24.59957],[121.8771,24.5793],[121.87354,24.53455],[121.84143,24.52001],[121.85165,24.48376],[121.79644,24.42634],[121.77153,24.3058],[121.75918,24.30672],[121.74099,24.2587],[121.66495,24.19607],[121.66338,24.13627],[121.61713,24.0832],[121.64688,24.00771],[121.60629,23.95732],[121.60196,23.87785],[121.54946,23.718],[121.50277,23.51925],[121.51445,23.48881],[121.46577,23.32187],[121.42992,23.2861],[121.42012,23.22596],[121.39605,23.20457],[121.3988,23.13659],[121.41201,23.12322],[121.35929,23.08915],[121.3157,22.9809],[121.23486,22.86691],[121.1895,22.84841],[121.19986,22.79686],[121.17407,22.7579],[121.03426,22.66716],[121.00738,22.5898],[120.97886,22.5589],[120.89337,22.33169],[120.8853,22.12912],[120.89996,22.10427],[120.89988,22.0344],[120.8455,21.98756],[120.84005,21.95707],[120.8662,21.90048],[120.766,21.95927],[120.7285,21.91854],[120.71128,21.93473],[120.71486,21.97898],[120.68585,22.027],[120.70667,22.05626],[120.7009,22.08337],[120.71756,22.09442],[120.64266,22.30313],[120.58498,22.37223],[120.45401,22.44715],[120.48385,22.43341],[120.47964,22.45376],[120.45222,22.44831],[120.44546,22.47195],[120.3035,22.52655],[120.32499,22.53028],[120.31927,22.55098],[120.3415,22.54359],[120.25169,22.6454],[120.27487,22.70677],[120.26162,22.70162],[120.20371,22.80634],[120.1898,22.8582],[120.21838,22.84877],[120.20495,22.86156],[120.21092,22.87943],[120.19302,22.86321],[120.17962,22.89866],[120.16269,22.96725],[120.17523,22.97672],[120.03865,23.06347],[120.03637,23.10215],[120.08583,23.12651],[120.069,23.18458],[120.08792,23.20718],[120.08396,23.23283],[120.09523,23.21878],[120.1178,23.27166],[120.09807,23.27142],[120.09726,23.29036],[120.11435,23.29348],[120.10529,23.3001],[120.13219,23.36875],[120.15496,23.36282],[120.13157,23.38446],[120.1634,23.39289],[120.14555,23.42864],[120.15427,23.44714],[120.13329,23.45153],[120.15469,23.4929],[120.12519,23.48862],[120.11919,23.51599],[120.15332,23.51792],[120.15555,23.51853],[120.15713,23.52204],[120.13958,23.54969],[120.14181,23.64135],[120.1875,23.7003],[120.16972,23.70705],[120.18009,23.75497],[120.20167,23.75654],[120.1656,23.76735],[120.18414,23.79785],[120.17519,23.80438],[120.22374,23.81879],[120.22246,23.83313],[120.24303,23.82244],[120.26051,23.83521],[120.2523,23.86056],[120.28749,23.87562],[120.3303,23.98879],[120.43444,24.09003],[120.43781,24.12532],[120.37978,24.09405],[120.42928,24.15801],[120.4676,24.16565],[120.48874,24.20529],[120.46116,24.21619],[120.4721,24.24082],[120.48222,24.23725],[120.49479,24.26971],[120.50843,24.28375],[120.47863,24.22274],[120.492,24.23938],[120.50608,24.23086],[120.51701,24.27738],[120.52017,24.25959],[120.53383,24.28478],[120.51135,24.29464],[120.5276,24.31354],[120.54947,24.30709],[120.58992,24.39487],[120.68743,24.52383],[120.7233,24.60558],[120.77175,24.6086],[120.75525,24.62395],[120.77979,24.66082],[120.829,24.6731],[120.86602,24.72481],[120.90347,24.74818],[120.91909,24.84713],[120.94624,24.84386],[120.93715,24.85342],[120.95029,24.86007],[120.93472,24.85875],[121.03796,25.0271],[121.21213,25.10859],[121.33605,25.1255],[121.38961,25.14726],[121.41575,25.16934],[121.46153,25.12219],[121.44558,25.16635],[121.40701,25.18679],[121.4527,25.24983],[121.51027,25.29047]]],[[[119.65588,23.60727],[119.69342,23.55519],[119.64301,23.55907],[119.60561,23.52871],[119.60647,23.50797],[119.5727,23.50811],[119.54125,23.53901],[119.54809,23.55428],[119.55734,23.52677],[119.59607,23.52678],[119.59952,23.55047],[119.56248,23.55013],[119.57981,23.56344],[119.55883,23.56274],[119.56179,23.58505],[119.58303,23.59093],[119.59446,23.57334],[119.60575,23.60568],[119.63047,23.60685],[119.62528,23.57879],[119.65588,23.60727]]],[[[121.49939,22.08079],[121.56773,22.08568],[121.57614,22.06042],[121.56405,22.05021],[121.60047,22.02068],[121.59381,22.00322],[121.57161,22.00363],[121.51134,22.04723],[121.49939,22.08079]]],[[[120.09555,23.51535],[120.05664,23.49178],[120.06287,23.48052],[120.03522,23.48276],[120.02409,23.45942],[120.01283,23.4678],[120.01989,23.43585],[120.0,23.46804],[120.07686,23.52206],[120.09555,23.51535]]],[[[119.51237,23.64852],[119.54366,23.64069],[119.51754,23.62742],[119.51792,23.56691],[119.46796,23.56083],[119.50299,23.57839],[119.49243,23.59495],[119.50893,23.61202],[119.50218,23.63113],[119.51237,23.64852]]],[[[120.26269,22.61381],[120.27847,22.60817],[120.31675,22.55416],[120.26269,22.61381]]],[[[119.5876,23.67285],[119.6122,23.65283],[119.59742,23.64125],[119.61036,23.63572],[119.60362,23.62429],[119.58846,23.62269],[119.58093,23.66176],[119.55107,23.66192],[119.5876,23.67285]]],[[[121.46413,22.67316],[121.50921,22.67624],[121.5038,22.63535],[121.4728,22.64729],[121.46413,22.67316]]],[[[120.39862,24.05856],[120.36545,24.0595],[120.37744,24.08497],[120.41943,24.08602],[120.39862,24.05856]]],[[[119.49096,23.39651],[119.5154,23.36869],[119.49059,23.35321],[119.49096,23.39651]]],[[[119.44488,23.22065],[119.42979,23.18832],[119.4106,23.21444],[119.44488,23.22065]]],[[[120.36043,22.32218],[120.36098,22.34647],[120.38814,22.35037],[120.38688,22.34224],[120.36043,22.32218]]],[[[119.62232,23.74344],[119.60201,23.73074],[119.59648,23.7377],[119.61006,23.75587],[119.62232,23.74344]]],[[[123.49235,25.74192],[123.46442,25.73534],[123.45859,25.73944],[123.47704,25.75176],[123.49235,25.74192]]],[[[120.13744,23.64542],[120.1378,23.66469],[120.15028,23.68467],[120.14063,23.6663],[120.13744,23.64542]]],[[[119.54367,23.49458],[119.51177,23.48314],[119.5089,23.4855],[119.54367,23.49458]]],[[[121.96197,24.83553],[121.94231,24.83771],[121.93962,24.84378],[121.95557,24.84963],[121.96197,24.83553]]],[[[121.37512,25.17167],[121.39378,25.16588],[121.37183,25.15654],[121.37512,25.17167]]],[[[120.16865,23.73701],[120.15353,23.71758],[120.15638,23.73848],[120.16865,23.73701]]],[[[119.52956,23.37166],[119.54062,23.36599],[119.51888,23.36375],[119.52956,23.37166]]],[[[120.15556,22.9727],[120.15731,22.98638],[120.16527,22.97207],[120.15556,22.9727]]],[[[119.66559,23.25856],[119.6789,23.26083],[119.67194,23.24407],[119.66559,23.25856]]],[[[120.08955,23.24165],[120.08627,23.23994],[120.09668,23.25808],[120.08955,23.24165]]],[[[119.33081,23.40605],[119.31518,23.39919],[119.31933,23.41175],[119.33081,23.40605]]],[[[119.60694,23.62227],[119.60505,23.60912],[119.59696,23.61674],[119.60694,23.62227]]],[[[121.37906,25.15228],[121.36622,25.13991],[121.36455,25.14305],[121.37906,25.15228]]],[[[121.76401,25.15317],[121.75745,25.16092],[121.776,25.1579],[121.76401,25.15317]]],[[[120.23776,23.8352],[120.24436,23.82554],[120.23088,23.83468],[120.23776,23.8352]]],[[[120.05737,23.13156],[120.04957,23.12449],[120.05825,23.13659],[120.05737,23.13156]]],[[[122.07673,25.63535],[122.06492,25.62928],[122.06619,25.63426],[122.07673,25.63535]]],[[[119.61309,23.253],[119.62013,23.24565],[119.60863,23.24905],[119.61309,23.253]]],[[[121.60339,21.95211],[121.61361,21.94607],[121.60749,21.94458],[121.60339,21.95211]]],[[[123.70028,25.93532],[123.69055,25.93098],[123.69162,25.93728],[123.70028,25.93532]]],[[[119.51461,23.26241],[119.52206,23.26208],[119.51237,23.25583],[119.51461,23.26241]]],[[[119.51979,23.65526],[119.51976,23.64792],[119.51358,23.65411],[119.51979,23.65526]]],[[[120.15423,23.52275],[120.14672,23.51992],[120.14517,23.52563],[120.15423,23.52275]]],[[[119.50485,23.26836],[119.50969,23.27238],[119.51049,23.26724],[119.50485,23.26836]]],[[[121.51021,22.65599],[121.50934,22.65399],[121.50845,22.65485],[121.51021,22.65599]]]]}}]}