{"type":"FeatureCollection","features":[{"type":"Feature","id":"CTAMAP-2010-COUNTY-0204","properties":{"map_level":"county","source_name":"崇明县","source_code":"310230","county_type":"县","prefecture_name":"不统计","prefecture_code":"0","prefecture_type":"不统计","parent_entity_id":"CNUR-000073","parent_year_end_name":"上海市","province_name":"上海市","province_code":"310000","snapshot_year":2010,"panel_year":2009,"link_status":"parent_linked","former_name":"","note":""},"geometry":{"type":"Polygon","coordinates":[[[121.42718,31.7716],[121.49563,31.75431],[121.59977,31.70307],[121.6008,31.71069],[121.80589,31.64886],[121.87476,31.63516],[121.87543,31.61321],[121.9095,31.58821],[121.90901,31.57851],[121.91596,31.58197],[121.97169,31.53831],[121.98787,31.4973],[121.98322,31.47623],[121.95325,31.50649],[121.93867,31.47905],[121.92109,31.4658],[121.92583,31.46265],[121.88721,31.45134],[121.87343,31.363],[121.94189,31.33641],[122.01628,31.32317],[122.10501,31.32042],[122.11241,31.30743],[122.08938,31.26357],[122.0211,31.28679],[121.96275,31.2955],[121.8545,31.2988],[121.85137,31.27677],[121.70453,31.32537],[121.53814,31.40697],[121.44431,31.46738],[121.38216,31.54725],[121.32162,31.58272],[121.25753,31.65124],[121.09698,31.7651],[121.21867,31.84723],[121.29084,31.87255],[121.37037,31.84913],[121.40646,31.80846],[121.40854,31.7927],[121.42718,31.7716]]]}},{"type":"Feature","id":"CTAMAP-2010-COUNTY-0444","properties":{"map_level":"county","source_name":"奉贤区","source_code":"310120","county_type":"市辖区","prefecture_name":"不统计","prefecture_code":"0","prefecture_type":"不统计","parent_entity_id":"CNUR-000073","parent_year_end_name":"上海市","province_name":"上海市","province_code":"310000","snapshot_year":2010,"panel_year":2009,"link_status":"parent_linked","former_name":"奉贤县","note":"2001年撤销奉贤县，设立奉贤区"},"geometry":{"type":"Polygon","coordinates":[[[121.54682,30.99018],[121.59387,31.00456],[121.61634,30.99489],[121.68866,30.99161],[121.7565,30.94973],[121.77681,30.91807],[121.76474,30.85071],[121.65937,30.84548],[121.53129,30.81232],[121.52507,30.81908],[121.4585,30.78165],[121.43235,30.82039],[121.41092,30.81811],[121.39661,30.82926],[121.40002,30.83591],[121.38771,30.8293],[121.37885,30.83601],[121.37763,30.88059],[121.35868,30.88875],[121.34731,30.91526],[121.34668,30.93261],[121.35801,30.93666],[121.35547,30.98024],[121.48421,31.01721],[121.4909,31.00023],[121.5118,31.00995],[121.54682,30.99018]]]}},{"type":"Feature","id":"CTAMAP-2010-COUNTY-0693","properties":{"map_level":"county","source_name":"虹口区","source_code":"310109","county_type":"市辖区","prefecture_name":"不统计","prefecture_code":"0","prefecture_type":"不统计","parent_entity_id":"CNUR-000073","parent_year_end_name":"上海市","province_name":"上海市","province_code":"310000","snapshot_year":2010,"panel_year":2009,"link_status":"parent_linked","former_name":"","note":""},"geometry":{"type":"Polygon","coordinates":[[[121.48084,31.31345],[121.48541,31.29461],[121.4968,31.29658],[121.49206,31.27837],[121.50218,31.27255],[121.512,31.24917],[121.4785,31.24393],[121.47583,31.26061],[121.45772,31.27822],[121.46377,31.31795],[121.48084,31.31345]]]}},{"type":"Feature","id":"CTAMAP-2010-COUNTY-0759","properties":{"map_level":"county","source_name":"黄浦区","source_code":"310101","county_type":"市辖区","prefecture_name":"不统计","prefecture_code":"0","prefecture_type":"不统计","parent_entity_id":"CNUR-000073","parent_year_end_name":"上海市","province_name":"上海市","province_code":"310000","snapshot_year":2010,"panel_year":2009,"link_status":"parent_linked","former_name":"南市区","note":"2000年撤销上海市黄浦区和南市区，设立新的黄浦区"},"geometry":{"type":"Polygon","coordinates":[[[121.49155,31.19566],[121.48179,31.20046],[121.47534,31.22857],[121.4629,31.22578],[121.45842,31.24326],[121.49044,31.24434],[121.50547,31.21784],[121.49155,31.19566]]]}},{"type":"Feature","id":"CTAMAP-2010-COUNTY-0826","properties":{"map_level":"county","source_name":"嘉定区","source_code":"310114","county_type":"市辖区","prefecture_name":"不统计","prefecture_code":"0","prefecture_type":"不统计","parent_entity_id":"CNUR-000073","parent_year_end_name":"上海市","province_name":"上海市","province_code":"310000","snapshot_year":2010,"panel_year":2009,"link_status":"parent_linked","former_name":"","note":""},"geometry":{"type":"Polygon","coordinates":[[[121.33178,31.29683],[121.32195,31.28785],[121.33362,31.27483],[121.36275,31.27155],[121.35436,31.26542],[121.37636,31.2596],[121.37109,31.24624],[121.34955,31.23917],[121.34368,31.24559],[121.30919,31.22915],[121.28775,31.23509],[121.27979,31.25374],[121.24994,31.26162],[121.22259,31.26469],[121.21312,31.2553],[121.20413,31.26343],[121.19025,31.253],[121.16402,31.258],[121.15733,31.27076],[121.14731,31.26977],[121.15664,31.28606],[121.13888,31.3118],[121.12477,31.30542],[121.12566,31.34609],[121.10404,31.35285],[121.10195,31.36857],[121.14342,31.3874],[121.14074,31.3958],[121.15394,31.41209],[121.14333,31.42341],[121.15981,31.43328],[121.14391,31.43747],[121.14292,31.4453],[121.17738,31.45437],[121.20912,31.48079],[121.22553,31.47937],[121.23632,31.49561],[121.24281,31.47901],[121.2985,31.4989],[121.33184,31.43518],[121.32861,31.4125],[121.3096,31.40898],[121.33654,31.36124],[121.32812,31.34884],[121.33978,31.34379],[121.34449,31.32312],[121.32676,31.30341],[121.33178,31.29683]]]}},{"type":"Feature","id":"CTAMAP-2010-COUNTY-0912","properties":{"map_level":"county","source_name":"金山区","source_code":"310116","county_type":"市辖区","prefecture_name":"不统计","prefecture_code":"0","prefecture_type":"不统计","parent_entity_id":"CNUR-000073","parent_year_end_name":"上海市","province_name":"上海市","province_code":"310000","snapshot_year":2010,"panel_year":2009,"link_status":"parent_linked","former_name":"","note":""},"geometry":{"type":"Polygon","coordinates":[[[121.02381,30.94575],[121.02043,30.91134],[121.03675,30.90333],[121.09256,30.90522],[121.08449,30.91661],[121.09593,30.92867],[121.11686,30.92203],[121.10883,30.89963],[121.13651,30.90328],[121.13448,30.92185],[121.13845,30.91695],[121.14522,30.91346],[121.14801,30.91253],[121.1514,30.91258],[121.15335,30.92224],[121.18134,30.91751],[121.21873,30.93338],[121.23588,30.92754],[121.24159,30.91274],[121.28131,30.89796],[121.28421,30.91967],[121.3264,30.90978],[121.34731,30.91526],[121.35868,30.88875],[121.37763,30.88059],[121.37884,30.83601],[121.38771,30.8293],[121.40002,30.83591],[121.39661,30.82926],[121.41092,30.81811],[121.43235,30.82039],[121.4585,30.78165],[121.4019,30.75452],[121.34634,30.70456],[121.26789,30.6917],[121.26086,30.71207],[121.26415,30.73691],[121.22761,30.75821],[121.2144,30.78825],[121.19799,30.78708],[121.19245,30.77567],[121.18574,30.78258],[121.16986,30.77532],[121.12248,30.7809],[121.12423,30.81298],[121.13341,30.82872],[121.12736,30.838],[121.11529,30.83842],[121.11585,30.85166],[121.09712,30.85219],[121.09272,30.85895],[121.06239,30.85085],[121.036,30.82909],[121.04052,30.8181],[121.03361,30.81643],[121.02517,30.83128],[121.01016,30.83825],[120.98574,30.82575],[120.9848,30.8358],[121.00734,30.85471],[121.01748,30.87721],[120.98618,30.89798],[121.00067,30.91086],[120.9951,30.91188],[120.99339,30.95329],[121.00976,30.95185],[121.01317,30.94202],[121.02381,30.94575]]]}},{"type":"Feature","id":"CTAMAP-2010-COUNTY-0963","properties":{"map_level":"county","source_name":"闸北区","source_code":"310108","county_type":"市辖区","prefecture_name":"不统计","prefecture_code":"0","prefecture_type":"不统计","parent_entity_id":"CNUR-000073","parent_year_end_name":"上海市","province_name":"上海市","province_code":"310000","snapshot_year":2010,"panel_year":2009,"link_status":"parent_linked","former_name":"","note":""},"geometry":{"type":"Polygon","coordinates":[[[121.4785,31.24393],[121.44381,31.24629],[121.44641,31.25827],[121.43835,31.26909],[121.42008,31.27305],[121.41394,31.29482],[121.42659,31.30546],[121.42908,31.32274],[121.4636,31.32211],[121.45697,31.28067],[121.47583,31.26061],[121.4785,31.24393]]]}},{"type":"Feature","id":"CTAMAP-2010-COUNTY-1370","properties":{"map_level":"county","source_name":"闵行区","source_code":"310112","county_type":"市辖区","prefecture_name":"不统计","prefecture_code":"0","prefecture_type":"不统计","parent_entity_id":"CNUR-000073","parent_year_end_name":"上海市","province_name":"上海市","province_code":"310000","snapshot_year":2010,"panel_year":2009,"link_status":"parent_linked","former_name":"","note":""},"geometry":{"type":"Polygon","coordinates":[[[121.33356,31.23979],[121.34107,31.22538],[121.32734,31.19158],[121.33384,31.18205],[121.40794,31.19296],[121.41044,31.18525],[121.38982,31.17966],[121.38994,31.16148],[121.39792,31.16403],[121.41688,31.12902],[121.4319,31.13086],[121.43312,31.11389],[121.44695,31.11687],[121.44233,31.10841],[121.44794,31.10312],[121.45847,31.10384],[121.46062,31.11421],[121.47677,31.11268],[121.48474,31.12686],[121.49709,31.11672],[121.50687,31.12344],[121.51025,31.11715],[121.55586,31.11351],[121.56321,31.09519],[121.54746,31.09215],[121.54594,31.08474],[121.57116,31.08212],[121.54982,31.07297],[121.54213,31.0496],[121.55716,31.04546],[121.54911,31.02074],[121.56996,31.02504],[121.56277,31.01353],[121.56613,31.00054],[121.54682,30.99018],[121.5118,31.00995],[121.4909,31.00023],[121.48421,31.01721],[121.35043,30.97855],[121.32265,30.98255],[121.32243,30.99698],[121.33904,31.01631],[121.32852,31.01614],[121.33049,31.06264],[121.35197,31.06514],[121.36773,31.08193],[121.35791,31.10237],[121.34669,31.10098],[121.3441,31.10829],[121.3522,31.11335],[121.32439,31.15836],[121.31512,31.15936],[121.31335,31.17628],[121.29694,31.19905],[121.29132,31.20537],[121.27275,31.19574],[121.25907,31.20837],[121.24917,31.23841],[121.23567,31.24318],[121.24994,31.26162],[121.27979,31.25374],[121.29341,31.23273],[121.31158,31.22925],[121.33356,31.23979]]]}},{"type":"Feature","id":"CTAMAP-2010-COUNTY-1539","properties":{"map_level":"county","source_name":"浦东新区","source_code":"310115","county_type":"市辖区","prefecture_name":"不统计","prefecture_code":"0","prefecture_type":"不统计","parent_entity_id":"CNUR-000073","parent_year_end_name":"上海市","province_name":"上海市","province_code":"310000","snapshot_year":2010,"panel_year":2009,"link_status":"parent_linked","former_name":"南汇区(浦东新区)","note":"2009年南汇区并入浦东新区"},"geometry":{"type":"MultiPolygon","coordinates":[[[[121.85137,31.27677],[121.84543,31.2447],[121.83396,31.23685],[121.83632,31.2223],[121.81434,31.23304],[121.7958,31.23149],[121.77298,31.21649],[121.81689,31.17344],[121.87689,31.13249],[121.86236,31.1124],[121.88041,31.12891],[121.91987,31.09561],[121.89074,31.07533],[121.94007,30.99918],[121.97408,30.92047],[121.97249,30.88499],[121.88757,30.84822],[121.76475,30.84816],[121.77681,30.91807],[121.7565,30.94973],[121.68866,30.99161],[121.61634,30.99489],[121.59387,31.00456],[121.56613,31.00054],[121.56277,31.01353],[121.56996,31.02504],[121.54911,31.02074],[121.55716,31.04546],[121.54213,31.0496],[121.54982,31.07297],[121.57116,31.08212],[121.54594,31.08474],[121.54746,31.09215],[121.56321,31.09519],[121.55586,31.11351],[121.51025,31.11715],[121.50687,31.12344],[121.49709,31.11672],[121.48474,31.12686],[121.47534,31.11191],[121.46062,31.11421],[121.46549,31.12583],[121.45264,31.14684],[121.46466,31.1626],[121.46047,31.18018],[121.49154,31.19565],[121.50547,31.21784],[121.48835,31.24192],[121.53462,31.25315],[121.56463,31.27942],[121.55434,31.33331],[121.50528,31.35777],[121.50022,31.37974],[121.53814,31.40697],[121.70453,31.32537],[121.85137,31.27677]]],[[[121.94026,31.22958],[122.03546,31.21574],[122.03874,31.19459],[122.02517,31.16683],[122.00983,31.17043],[122.00629,31.15911],[121.99041,31.15432],[121.96193,31.16253],[121.9458,31.17748],[121.93465,31.19666],[121.94026,31.22958]]],[[[121.87307,31.24418],[121.92277,31.22878],[121.9146,31.20095],[121.89353,31.20989],[121.87493,31.23225],[121.87307,31.24418]]]]}},{"type":"Feature","id":"CTAMAP-2010-COUNTY-1601","properties":{"map_level":"county","source_name":"青浦区","source_code":"310118","county_type":"市辖区","prefecture_name":"不统计","prefecture_code":"0","prefecture_type":"不统计","parent_entity_id":"CNUR-000073","parent_year_end_name":"上海市","province_name":"上海市","province_code":"310000","snapshot_year":2010,"panel_year":2009,"link_status":"parent_linked","former_name":"","note":""},"geometry":{"type":"Polygon","coordinates":[[[121.14918,31.2787],[121.14784,31.26899],[121.15733,31.27076],[121.16402,31.258],[121.17951,31.2539],[121.20413,31.26343],[121.21312,31.2553],[121.22259,31.26469],[121.24994,31.26162],[121.23567,31.24318],[121.24917,31.23841],[121.25907,31.20837],[121.27301,31.19557],[121.29145,31.20531],[121.31809,31.16583],[121.2952,31.15338],[121.27479,31.15359],[121.27275,31.14633],[121.28329,31.14211],[121.2772,31.13519],[121.26143,31.13853],[121.25395,31.12898],[121.24253,31.13619],[121.24009,31.1276],[121.21909,31.11711],[121.22372,31.14111],[121.20423,31.13767],[121.17756,31.14536],[121.17959,31.12064],[121.16998,31.11986],[121.17047,31.11055],[121.16144,31.11028],[121.15066,31.09234],[121.10813,31.11343],[121.09333,31.09549],[121.09484,31.08508],[121.12424,31.06176],[121.09671,31.05541],[121.08624,31.06665],[121.07652,31.05843],[121.09556,31.03571],[121.08118,31.0274],[121.10003,31.01],[121.09339,30.96773],[121.06032,30.95688],[121.03904,30.97054],[121.03917,30.95939],[121.01235,30.94234],[121.00976,30.95185],[120.99861,30.94917],[120.98862,30.95725],[120.98794,30.97262],[120.9983,30.97976],[120.98507,31.01487],[120.95937,31.01857],[120.95023,31.03231],[120.94408,31.03142],[120.94579,31.01996],[120.93178,31.01952],[120.93545,31.01147],[120.89725,31.01966],[120.89055,31.0581],[120.89824,31.08789],[120.85234,31.10718],[120.8756,31.13626],[120.92587,31.14377],[120.979,31.13407],[121.01352,31.13641],[121.02707,31.14417],[121.03618,31.13966],[121.04009,31.15629],[121.06401,31.15168],[121.07311,31.16392],[121.05617,31.24003],[121.05766,31.27003],[121.07781,31.27355],[121.08268,31.29409],[121.09859,31.27594],[121.11149,31.28767],[121.14918,31.2787]]]}},{"type":"Feature","id":"CTAMAP-2010-COUNTY-1843","properties":{"map_level":"county","source_name":"松江区","source_code":"310117","county_type":"市辖区","prefecture_name":"不统计","prefecture_code":"0","prefecture_type":"不统计","parent_entity_id":"CNUR-000073","parent_year_end_name":"上海市","province_name":"上海市","province_code":"310000","snapshot_year":2010,"panel_year":2009,"link_status":"parent_linked","former_name":"","note":""},"geometry":{"type":"Polygon","coordinates":[[[121.27479,31.15359],[121.3248,31.15781],[121.35258,31.1125],[121.3441,31.10829],[121.34669,31.10098],[121.35791,31.10237],[121.36773,31.08193],[121.35197,31.06514],[121.33049,31.06264],[121.32852,31.01614],[121.33904,31.01631],[121.32235,30.99656],[121.32265,30.98255],[121.35547,30.98024],[121.35801,30.93666],[121.34668,30.93261],[121.34731,30.91526],[121.3264,30.90978],[121.28421,30.91967],[121.28131,30.89796],[121.24159,30.91274],[121.23588,30.92754],[121.21873,30.93338],[121.18134,30.91751],[121.15335,30.92224],[121.1514,30.91258],[121.13448,30.92185],[121.13651,30.90328],[121.10883,30.89963],[121.11686,30.92203],[121.09593,30.92867],[121.08449,30.91661],[121.09414,30.90931],[121.09079,30.90464],[121.03675,30.90333],[121.02043,30.91134],[121.02362,30.94797],[121.03917,30.95939],[121.03891,30.97048],[121.06032,30.95688],[121.09339,30.96773],[121.10003,31.01],[121.08118,31.0274],[121.09556,31.03571],[121.07652,31.05843],[121.08624,31.06665],[121.09671,31.05541],[121.12424,31.06176],[121.09484,31.08508],[121.09333,31.09549],[121.108,31.11333],[121.15066,31.09234],[121.16144,31.11028],[121.17047,31.11055],[121.16998,31.11986],[121.17959,31.12064],[121.17756,31.14536],[121.20423,31.13767],[121.22372,31.14111],[121.21909,31.11711],[121.24009,31.1276],[121.24253,31.13619],[121.25395,31.12898],[121.26143,31.13853],[121.2772,31.13519],[121.28329,31.14211],[121.27275,31.14633],[121.27479,31.15359]]]}},{"type":"Feature","id":"CTAMAP-2010-COUNTY-2290","properties":{"map_level":"county","source_name":"徐汇区","source_code":"310104","county_type":"市辖区","prefecture_name":"不统计","prefecture_code":"0","prefecture_type":"不统计","parent_entity_id":"CNUR-000073","parent_year_end_name":"上海市","province_name":"上海市","province_code":"310000","snapshot_year":2010,"panel_year":2009,"link_status":"parent_linked","former_name":"","note":""},"geometry":{"type":"Polygon","coordinates":[[[121.47087,31.18995],[121.46047,31.18018],[121.46466,31.1626],[121.45264,31.14684],[121.46559,31.12379],[121.45847,31.10384],[121.44794,31.10312],[121.44233,31.10841],[121.44695,31.11687],[121.43302,31.11398],[121.4319,31.13086],[121.41688,31.12902],[121.39792,31.16403],[121.38994,31.16148],[121.38688,31.17056],[121.38982,31.17966],[121.41044,31.18525],[121.40794,31.19296],[121.43336,31.20588],[121.43061,31.21292],[121.45311,31.22207],[121.47087,31.18995]]]}},{"type":"Feature","id":"CTAMAP-2010-COUNTY-2357","properties":{"map_level":"county","source_name":"杨浦区","source_code":"310110","county_type":"市辖区","prefecture_name":"不统计","prefecture_code":"0","prefecture_type":"不统计","parent_entity_id":"CNUR-000073","parent_year_end_name":"上海市","province_name":"上海市","province_code":"310000","snapshot_year":2010,"panel_year":2009,"link_status":"parent_linked","former_name":"","note":""},"geometry":{"type":"Polygon","coordinates":[[[121.512,31.24917],[121.50218,31.27255],[121.49206,31.27837],[121.4968,31.29658],[121.48541,31.29461],[121.48084,31.31345],[121.49218,31.3136],[121.48912,31.33216],[121.50122,31.3479],[121.51324,31.34265],[121.52102,31.34883],[121.55434,31.33331],[121.56463,31.27942],[121.53462,31.25315],[121.512,31.24917]]]}},{"type":"Feature","id":"CTAMAP-2010-COUNTY-2582","properties":{"map_level":"county","source_name":"长宁区","source_code":"310105","county_type":"市辖区","prefecture_name":"不统计","prefecture_code":"0","prefecture_type":"不统计","parent_entity_id":"CNUR-000073","parent_year_end_name":"上海市","province_name":"上海市","province_code":"310000","snapshot_year":2010,"panel_year":2009,"link_status":"parent_linked","former_name":"","note":""},"geometry":{"type":"Polygon","coordinates":[[[121.34368,31.24559],[121.35657,31.22837],[121.38182,31.22081],[121.42291,31.23113],[121.43088,31.22684],[121.43336,31.20588],[121.41551,31.19272],[121.33384,31.18205],[121.32734,31.19158],[121.34107,31.22538],[121.33356,31.23979],[121.34368,31.24559]]]}},{"type":"Feature","id":"CTAMAP-2010-COUNTY-2706","properties":{"map_level":"county","source_name":"普陀区","source_code":"310107","county_type":"市辖区","prefecture_name":"不统计","prefecture_code":"0","prefecture_type":"不统计","parent_entity_id":"CNUR-000073","parent_year_end_name":"上海市","province_name":"上海市","province_code":"310000","snapshot_year":2010,"panel_year":2009,"link_status":"parent_linked","former_name":"","note":""},"geometry":{"type":"Polygon","coordinates":[[[121.41486,31.26716],[121.42507,31.27676],[121.43854,31.2689],[121.4454,31.24513],[121.3946,31.22024],[121.37072,31.22228],[121.34955,31.23917],[121.37109,31.24624],[121.37636,31.2596],[121.36122,31.25949],[121.35436,31.26542],[121.36275,31.27155],[121.33362,31.27483],[121.32139,31.28922],[121.33759,31.29971],[121.35876,31.30456],[121.35401,31.29518],[121.38997,31.29645],[121.39973,31.28811],[121.39531,31.28002],[121.40077,31.27483],[121.41486,31.26716]]]}},{"type":"Feature","id":"CTAMAP-2010-COUNTY-2728","properties":{"map_level":"county","source_name":"宝山区","source_code":"310113","county_type":"市辖区","prefecture_name":"不统计","prefecture_code":"0","prefecture_type":"不统计","parent_entity_id":"CNUR-000073","parent_year_end_name":"上海市","province_name":"上海市","province_code":"310000","snapshot_year":2010,"panel_year":2009,"link_status":"parent_linked","former_name":"","note":""},"geometry":{"type":"Polygon","coordinates":[[[121.53814,31.40697],[121.50022,31.37974],[121.50035,31.36318],[121.52102,31.34883],[121.51324,31.34265],[121.50101,31.34769],[121.48912,31.33216],[121.49218,31.3136],[121.46054,31.32326],[121.42908,31.32274],[121.42659,31.30546],[121.41416,31.29582],[121.4205,31.27253],[121.41486,31.26716],[121.39578,31.27927],[121.39973,31.28811],[121.38997,31.29645],[121.36491,31.29101],[121.35401,31.29518],[121.35747,31.30472],[121.33228,31.29552],[121.32676,31.30341],[121.34449,31.32312],[121.33978,31.34379],[121.32812,31.34884],[121.33654,31.36124],[121.3096,31.40898],[121.32861,31.4125],[121.33184,31.43518],[121.31403,31.45892],[121.3117,31.4831],[121.29551,31.50181],[121.30619,31.50782],[121.31998,31.5019],[121.38223,31.54715],[121.44431,31.46738],[121.53814,31.40697]]]}},{"type":"Feature","id":"CTAMAP-2010-COUNTY-2826","properties":{"map_level":"county","source_name":"静安区","source_code":"310106","county_type":"市辖区","prefecture_name":"不统计","prefecture_code":"0","prefecture_type":"不统计","parent_entity_id":"CNUR-000073","parent_year_end_name":"上海市","province_name":"上海市","province_code":"310000","snapshot_year":2010,"panel_year":2009,"link_status":"parent_linked","former_name":"","note":""},"geometry":{"type":"Polygon","coordinates":[[[121.45842,31.24326],[121.4629,31.22577],[121.43477,31.21612],[121.43079,31.22692],[121.42298,31.22611],[121.42625,31.23702],[121.45842,31.24326]]]}},{"type":"Feature","id":"CTAMAP-2010-COUNTY-2860","properties":{"map_level":"county","source_name":"卢湾区","source_code":"310103","county_type":"市辖区","prefecture_name":"不统计","prefecture_code":"0","prefecture_type":"不统计","parent_entity_id":"CNUR-000073","parent_year_end_name":"上海市","province_name":"上海市","province_code":"310000","snapshot_year":2010,"panel_year":2009,"link_status":"parent_linked","former_name":"","note":""},"geometry":{"type":"Polygon","coordinates":[[[121.49155,31.19566],[121.46587,31.19307],[121.45211,31.22581],[121.47534,31.22857],[121.48179,31.20046],[121.49155,31.19566]]]}}]}