{"type":"FeatureCollection","features":[{"type":"Feature","id":"CTAMAP-2011-COUNTY-0056","properties":{"map_level":"county","source_name":"巴南区","source_code":"500113","county_type":"市辖区","prefecture_name":"不统计","prefecture_code":"0","prefecture_type":"不统计","parent_entity_id":"CNUR-000235","parent_year_end_name":"重庆市","province_name":"重庆市","province_code":"500000","snapshot_year":2011,"panel_year":2010,"link_status":"parent_linked","former_name":"","note":""},"geometry":{"type":"Polygon","coordinates":[[[106.99831,29.71609],[106.95243,29.57659],[106.91828,29.40136],[106.91828,29.28551],[106.96509,29.21817],[106.95226,29.19378],[106.91549,29.18412],[106.89301,29.19576],[106.90512,29.16353],[106.88815,29.1352],[106.84801,29.15988],[106.81906,29.15124],[106.80631,29.18166],[106.76498,29.16469],[106.74512,29.17993],[106.72554,29.16537],[106.68297,29.19119],[106.66307,29.16178],[106.65052,29.17756],[106.62447,29.16815],[106.60217,29.12997],[106.55508,29.13743],[106.54388,29.21625],[106.51705,29.22723],[106.50469,29.28339],[106.48263,29.29533],[106.47366,29.36319],[106.43172,29.35596],[106.48299,29.40107],[106.52898,29.39158],[106.49534,29.44831],[106.5001,29.48163],[106.53961,29.47655],[106.55758,29.4915],[106.59131,29.46662],[106.60494,29.47733],[106.66716,29.46063],[106.6904,29.49212],[106.73422,29.48874],[106.79668,29.59244],[106.84717,29.57922],[106.97074,29.7694],[106.98561,29.76958],[106.99831,29.71609]]]}},{"type":"Feature","id":"CTAMAP-2011-COUNTY-0094","properties":{"map_level":"county","source_name":"北碚区","source_code":"500109","county_type":"市辖区","prefecture_name":"不统计","prefecture_code":"0","prefecture_type":"不统计","parent_entity_id":"CNUR-000235","parent_year_end_name":"重庆市","province_name":"重庆市","province_code":"500000","snapshot_year":2011,"panel_year":2010,"link_status":"parent_linked","former_name":"","note":""},"geometry":{"type":"Polygon","coordinates":[[[106.64717,30.08524],[106.67551,30.06269],[106.6637,30.03587],[106.67678,30.03164],[106.66852,29.93524],[106.68364,29.93552],[106.63964,29.84804],[106.58494,29.81965],[106.57705,29.80151],[106.58837,29.81208],[106.60533,29.7994],[106.58916,29.7891],[106.60084,29.77089],[106.52928,29.75118],[106.53763,29.76687],[106.51076,29.77254],[106.53267,29.72446],[106.50946,29.70998],[106.50629,29.68807],[106.48025,29.70324],[106.45797,29.69586],[106.44125,29.65292],[106.42296,29.67568],[106.43676,29.7488],[106.30185,29.73898],[106.31883,29.77658],[106.3361,29.77603],[106.36616,29.81631],[106.33872,29.81824],[106.33935,29.84685],[106.31131,29.88965],[106.3778,29.9303],[106.38772,29.90257],[106.42095,29.88715],[106.4191,29.90685],[106.43885,29.90716],[106.45211,29.92901],[106.43902,29.88626],[106.45808,29.88731],[106.4477,29.86902],[106.46031,29.87266],[106.47348,29.91047],[106.50184,29.93418],[106.51596,29.92841],[106.52329,29.94871],[106.54123,29.93805],[106.56456,30.01204],[106.59536,30.03597],[106.58881,30.05306],[106.64717,30.08524]]]}},{"type":"Feature","id":"CTAMAP-2011-COUNTY-0108","properties":{"map_level":"county","source_name":"璧山县","source_code":"500227","county_type":"县","prefecture_name":"不统计","prefecture_code":"0","prefecture_type":"不统计","parent_entity_id":"CNUR-000235","parent_year_end_name":"重庆市","province_name":"重庆市","province_code":"500000","snapshot_year":2011,"panel_year":2010,"link_status":"parent_linked","former_name":"","note":""},"geometry":{"type":"Polygon","coordinates":[[[106.31883,29.77658],[106.27455,29.69518],[106.2856,29.64038],[106.26914,29.63369],[106.27872,29.62852],[106.24807,29.56589],[106.26946,29.48279],[106.2324,29.38525],[106.1729,29.30927],[106.11222,29.28265],[106.06753,29.32412],[106.0402,29.32821],[106.06258,29.38109],[106.05208,29.40663],[106.08352,29.55623],[106.11737,29.63873],[106.16561,29.69086],[106.15259,29.70695],[106.15663,29.76357],[106.22808,29.80593],[106.31072,29.88748],[106.33935,29.84685],[106.33872,29.81824],[106.36616,29.81631],[106.3361,29.77603],[106.31883,29.77658]]]}},{"type":"Feature","id":"CTAMAP-2011-COUNTY-0188","properties":{"map_level":"county","source_name":"城口县","source_code":"500229","county_type":"县","prefecture_name":"不统计","prefecture_code":"0","prefecture_type":"不统计","parent_entity_id":"CNUR-000235","parent_year_end_name":"重庆市","province_name":"重庆市","province_code":"500000","snapshot_year":2011,"panel_year":2010,"link_status":"parent_linked","former_name":"","note":""},"geometry":{"type":"Polygon","coordinates":[[[108.50456,32.20417],[108.66924,32.10491],[108.73608,32.10635],[108.77235,32.05583],[108.83121,32.04095],[108.89664,31.98789],[108.98497,31.98213],[109.07851,31.93475],[109.19558,31.84624],[109.18858,31.82159],[109.27053,31.80206],[109.27502,31.78003],[109.249,31.76242],[109.27496,31.74847],[109.27678,31.71912],[109.22586,31.72563],[109.22227,31.6902],[109.0585,31.70812],[108.99703,31.69071],[108.98972,31.65514],[108.88611,31.65673],[108.85801,31.68365],[108.78172,31.68989],[108.74809,31.64665],[108.67314,31.62552],[108.63723,31.62755],[108.62213,31.65346],[108.5296,31.68009],[108.5017,31.73658],[108.53179,31.75968],[108.45536,31.78372],[108.4587,31.81422],[108.42062,31.81298],[108.3841,31.83296],[108.37686,31.85765],[108.34026,31.86358],[108.30387,31.90856],[108.28305,31.91156],[108.2768,31.95515],[108.25668,31.96857],[108.30357,31.99966],[108.34811,31.97496],[108.3632,31.98652],[108.32272,32.01901],[108.36129,32.03843],[108.34501,32.07352],[108.4239,32.06324],[108.44667,32.07563],[108.44853,32.0931],[108.36473,32.17624],[108.40193,32.19807],[108.47483,32.18322],[108.50456,32.20417]]]}},{"type":"Feature","id":"CTAMAP-2011-COUNTY-0235","properties":{"map_level":"county","source_name":"大渡口区","source_code":"500104","county_type":"市辖区","prefecture_name":"不统计","prefecture_code":"0","prefecture_type":"不统计","parent_entity_id":"CNUR-000235","parent_year_end_name":"重庆市","province_name":"重庆市","province_code":"500000","snapshot_year":2011,"panel_year":2010,"link_status":"parent_linked","former_name":"","note":""},"geometry":{"type":"Polygon","coordinates":[[[106.52007,29.48123],[106.5001,29.48163],[106.49423,29.45536],[106.52898,29.39158],[106.48299,29.40107],[106.39671,29.3439],[106.39403,29.44318],[106.44885,29.41692],[106.44981,29.46128],[106.46666,29.47602],[106.45198,29.49405],[106.51566,29.49415],[106.52007,29.48123]]]}},{"type":"Feature","id":"CTAMAP-2011-COUNTY-0262","properties":{"map_level":"county","source_name":"大足县","source_code":"500225","county_type":"县","prefecture_name":"不统计","prefecture_code":"0","prefecture_type":"不统计","parent_entity_id":"CNUR-000235","parent_year_end_name":"重庆市","province_name":"重庆市","province_code":"500000","snapshot_year":2011,"panel_year":2010,"link_status":"parent_linked","former_name":"","note":""},"geometry":{"type":"Polygon","coordinates":[[[105.82762,29.52577],[105.7618,29.53299],[105.76168,29.50483],[105.73377,29.48973],[105.77003,29.45918],[105.8096,29.47608],[105.76716,29.41086],[105.76479,29.38277],[105.74748,29.37404],[105.72508,29.38767],[105.73675,29.40159],[105.71933,29.40013],[105.7354,29.44116],[105.71943,29.46291],[105.68426,29.44841],[105.6541,29.46756],[105.66043,29.5022],[105.63685,29.50855],[105.63368,29.47696],[105.61796,29.50787],[105.57974,29.51786],[105.59883,29.57323],[105.58748,29.58984],[105.5602,29.59382],[105.54543,29.57434],[105.53586,29.59339],[105.51398,29.58914],[105.46956,29.71035],[105.48849,29.72365],[105.53578,29.69709],[105.52652,29.71045],[105.53923,29.73705],[105.56267,29.72754],[105.57243,29.74835],[105.57882,29.82114],[105.60144,29.82034],[105.61346,29.84881],[105.63788,29.84047],[105.67426,29.85724],[105.70548,29.84334],[105.72945,29.86314],[105.73084,29.82397],[105.70875,29.79204],[105.76231,29.7965],[105.77578,29.81401],[105.82804,29.76014],[105.86609,29.75948],[105.89019,29.80621],[105.90019,29.78874],[105.93872,29.77904],[105.98652,29.78317],[105.99544,29.75202],[106.02237,29.7543],[106.03331,29.7294],[105.99528,29.66869],[105.97873,29.67472],[105.8685,29.54101],[105.82762,29.52577]]]}},{"type":"Feature","id":"CTAMAP-2011-COUNTY-0307","properties":{"map_level":"county","source_name":"垫江县","source_code":"500231","county_type":"县","prefecture_name":"不统计","prefecture_code":"0","prefecture_type":"不统计","parent_entity_id":"CNUR-000235","parent_year_end_name":"重庆市","province_name":"重庆市","province_code":"500000","snapshot_year":2011,"panel_year":2010,"link_status":"parent_linked","former_name":"","note":""},"geometry":{"type":"Polygon","coordinates":[[[107.66978,30.46199],[107.56591,30.3292],[107.59396,30.31611],[107.5925,30.2915],[107.56253,30.27394],[107.56952,30.24437],[107.54122,30.231],[107.54226,30.20384],[107.56059,30.20155],[107.57295,30.22404],[107.5995,30.1893],[107.55747,30.17294],[107.57965,30.13209],[107.52272,30.08596],[107.53463,30.0654],[107.48664,30.00595],[107.47096,29.99206],[107.44977,30.00111],[107.45227,30.02284],[107.43109,30.03625],[107.37003,29.97614],[107.32268,29.97286],[107.29272,29.99431],[107.30808,30.01009],[107.30417,30.04032],[107.27153,30.04599],[107.24249,30.07769],[107.28569,30.09911],[107.29106,30.14199],[107.26429,30.14549],[107.28381,30.17847],[107.22383,30.22651],[107.28301,30.33783],[107.33236,30.38085],[107.35512,30.46255],[107.39965,30.52066],[107.47335,30.48057],[107.48384,30.49642],[107.51507,30.48968],[107.54495,30.50443],[107.56851,30.47876],[107.63004,30.48849],[107.62962,30.47443],[107.66978,30.46199]]]}},{"type":"Feature","id":"CTAMAP-2011-COUNTY-0419","properties":{"map_level":"county","source_name":"丰都县","source_code":"500230","county_type":"县","prefecture_name":"不统计","prefecture_code":"0","prefecture_type":"不统计","parent_entity_id":"CNUR-000235","parent_year_end_name":"重庆市","province_name":"重庆市","province_code":"500000","snapshot_year":2011,"panel_year":2010,"link_status":"parent_linked","former_name":"","note":""},"geometry":{"type":"Polygon","coordinates":[[[107.93233,30.0704],[108.02162,30.03471],[108.01282,30.01671],[108.02915,29.996],[107.98918,29.96964],[108.04462,29.91215],[108.03753,29.89663],[108.06714,29.87889],[108.05472,29.85942],[108.08031,29.84094],[108.12507,29.85438],[108.14397,29.84794],[108.14451,29.82871],[108.16667,29.83708],[108.18525,29.82216],[108.18601,29.79706],[108.2135,29.7802],[108.18284,29.74644],[108.16718,29.7478],[108.17468,29.69858],[108.14137,29.66643],[108.14542,29.64906],[108.17353,29.65157],[108.17788,29.62428],[108.14743,29.5995],[108.09555,29.60038],[108.07455,29.6211],[107.97413,29.63006],[107.94536,29.60387],[107.93106,29.65785],[107.86451,29.67147],[107.83814,29.65826],[107.82555,29.54934],[107.76296,29.58126],[107.777,29.58516],[107.75117,29.60659],[107.72494,29.59],[107.69636,29.62029],[107.71366,29.6583],[107.66882,29.66649],[107.62631,29.70205],[107.63546,29.81323],[107.60884,29.8054],[107.5891,29.83903],[107.62222,29.87798],[107.59438,29.89209],[107.57256,29.95295],[107.55365,29.95044],[107.51862,29.98139],[107.50022,29.95895],[107.50208,29.9786],[107.48307,29.97066],[107.46682,29.99086],[107.53463,30.0654],[107.52272,30.08596],[107.57646,30.12459],[107.55747,30.17294],[107.59472,30.18352],[107.58774,30.20177],[107.60658,30.21345],[107.6225,30.20897],[107.65277,30.26327],[107.67227,30.25449],[107.66704,30.22527],[107.70606,30.24109],[107.71059,30.22394],[107.69751,30.2204],[107.71874,30.22093],[107.71966,30.23549],[107.7319,30.22295],[107.75693,30.24427],[107.75943,30.20064],[107.84244,30.16468],[107.8063,30.12304],[107.81693,30.11243],[107.84969,30.1224],[107.87157,30.10276],[107.89166,30.1244],[107.93233,30.0704]]]}},{"type":"Feature","id":"CTAMAP-2011-COUNTY-0443","properties":{"map_level":"county","source_name":"奉节县","source_code":"500236","county_type":"县","prefecture_name":"不统计","prefecture_code":"0","prefecture_type":"不统计","parent_entity_id":"CNUR-000235","parent_year_end_name":"重庆市","province_name":"重庆市","province_code":"500000","snapshot_year":2011,"panel_year":2010,"link_status":"parent_linked","former_name":"","note":""},"geometry":{"type":"Polygon","coordinates":[[[109.56404,31.24746],[109.57827,31.22551],[109.62322,31.229],[109.6186,31.19303],[109.6398,31.18],[109.73504,31.18013],[109.76638,31.16284],[109.76137,31.11483],[109.7183,31.09326],[109.70803,31.06659],[109.59131,31.0136],[109.60944,30.99616],[109.59109,30.95562],[109.60834,30.90602],[109.55746,30.89872],[109.56436,30.8772],[109.60948,30.86479],[109.60521,30.83598],[109.63183,30.82677],[109.65361,30.72976],[109.58231,30.69593],[109.56455,30.64689],[109.52912,30.64148],[109.52719,30.67028],[109.44884,30.61536],[109.34627,30.48962],[109.33288,30.52663],[109.35899,30.55716],[109.3046,30.60146],[109.32392,30.61873],[109.30846,30.61064],[109.29879,30.63383],[109.22609,30.59051],[109.24151,30.58824],[109.19184,30.54744],[109.16357,30.55026],[109.14124,30.52353],[109.12013,30.53376],[109.07605,30.60257],[109.10494,30.61202],[109.11322,30.64205],[109.01158,30.65057],[109.02551,30.71173],[109.01387,30.72099],[109.04334,30.73315],[109.05483,30.76456],[109.0382,30.83342],[109.06217,30.87067],[109.10868,30.86283],[109.12978,30.86913],[109.12467,30.88278],[109.14499,30.87994],[109.14025,30.90506],[109.1577,30.90897],[109.14558,30.94074],[109.21199,30.92332],[109.20956,30.98091],[109.24667,31.03264],[109.17759,31.0711],[109.12624,31.05617],[109.08861,31.06632],[109.09691,31.12103],[109.05102,31.13344],[109.04421,31.16202],[109.04529,31.18841],[109.06772,31.18266],[109.08954,31.2018],[109.06531,31.27222],[109.03102,31.29379],[109.0485,31.32316],[109.0479,31.36847],[109.11949,31.3745],[109.31074,31.35233],[109.34696,31.29067],[109.37247,31.28801],[109.38681,31.24542],[109.43178,31.2335],[109.46501,31.25633],[109.56404,31.24746]]]}},{"type":"Feature","id":"CTAMAP-2011-COUNTY-0456","properties":{"map_level":"county","source_name":"涪陵区","source_code":"500102","county_type":"市辖区","prefecture_name":"不统计","prefecture_code":"0","prefecture_type":"不统计","parent_entity_id":"CNUR-000235","parent_year_end_name":"重庆市","province_name":"重庆市","province_code":"500000","snapshot_year":2011,"panel_year":2010,"link_status":"parent_linked","former_name":"","note":""},"geometry":{"type":"Polygon","coordinates":[[[107.44804,30.00266],[107.48307,29.97066],[107.50208,29.9786],[107.50022,29.95895],[107.51862,29.98139],[107.55365,29.95044],[107.57256,29.95295],[107.59438,29.89209],[107.62222,29.87798],[107.5891,29.83903],[107.60884,29.8054],[107.63546,29.81323],[107.62631,29.70205],[107.66882,29.66649],[107.71403,29.65781],[107.65152,29.55407],[107.60428,29.52662],[107.61171,29.48366],[107.58826,29.48151],[107.52971,29.42606],[107.47122,29.50929],[107.42689,29.48544],[107.422,29.50966],[107.38616,29.53426],[107.32872,29.51508],[107.29672,29.46353],[107.22404,29.42104],[107.23491,29.36737],[107.20095,29.36936],[107.20943,29.40212],[107.15463,29.42693],[107.13456,29.41496],[107.14292,29.39845],[107.09964,29.38925],[107.10868,29.36663],[107.07816,29.36225],[107.04058,29.38042],[107.0499,29.39519],[107.0222,29.40017],[107.03021,29.46901],[107.01185,29.47273],[107.01531,29.49114],[106.99504,29.47347],[106.9417,29.5],[106.99831,29.71609],[107.02312,29.71965],[107.06547,29.75922],[107.09803,29.75667],[107.18296,29.7975],[107.20775,29.81877],[107.20601,29.84304],[107.30825,29.84774],[107.35721,29.91237],[107.37453,29.89943],[107.37858,29.92978],[107.41245,29.97454],[107.44804,30.00266]]]}},{"type":"Feature","id":"CTAMAP-2011-COUNTY-0638","properties":{"map_level":"county","source_name":"合川区","source_code":"500117","county_type":"市辖区","prefecture_name":"不统计","prefecture_code":"0","prefecture_type":"不统计","parent_entity_id":"CNUR-000235","parent_year_end_name":"重庆市","province_name":"重庆市","province_code":"500000","snapshot_year":2011,"panel_year":2010,"link_status":"parent_linked","former_name":"合川市","note":"2006年撤销合川市，设立合川区"},"geometry":{"type":"Polygon","coordinates":[[[105.99721,30.3791],[106.07031,30.33754],[106.08484,30.34839],[106.08585,30.32878],[106.12214,30.30445],[106.11984,30.32786],[106.15833,30.31381],[106.176,30.23433],[106.19783,30.23679],[106.18787,30.2187],[106.2006,30.20655],[106.2287,30.21432],[106.24026,30.18049],[106.243,30.20083],[106.26779,30.18862],[106.25717,30.21669],[106.28037,30.19944],[106.30315,30.22896],[106.29623,30.24152],[106.33102,30.22818],[106.36846,30.25128],[106.38634,30.24574],[106.37888,30.25805],[106.39842,30.24464],[106.42496,30.25621],[106.40462,30.27757],[106.43025,30.27948],[106.43697,30.31245],[106.50531,30.29183],[106.55707,30.31754],[106.60826,30.29595],[106.63977,30.25193],[106.60448,30.23593],[106.62465,30.22393],[106.62916,30.18918],[106.6463,30.19181],[106.64706,30.16522],[106.67622,30.16032],[106.66558,30.10646],[106.58881,30.05306],[106.59536,30.03597],[106.56456,30.01204],[106.54123,29.93805],[106.52329,29.94871],[106.51596,29.92841],[106.50184,29.93418],[106.47348,29.91047],[106.46166,29.87348],[106.44902,29.86796],[106.45808,29.88731],[106.43902,29.88626],[106.45766,29.92711],[106.4191,29.90685],[106.41734,29.88713],[106.38772,29.90257],[106.3778,29.9303],[106.26415,29.8472],[106.27656,29.89939],[106.26278,29.88741],[106.20188,29.93781],[106.1241,29.92485],[106.13055,29.94165],[106.1055,29.95406],[106.1208,30.00048],[106.04893,30.00008],[106.04235,30.01745],[105.98435,30.04104],[105.97728,30.08474],[105.99379,30.13112],[105.9736,30.14648],[105.98472,30.16599],[105.96635,30.18435],[105.99205,30.17959],[106.0173,30.20408],[105.97928,30.23764],[106.00915,30.27497],[105.97573,30.28343],[105.96266,30.31091],[105.98634,30.32552],[105.97164,30.33371],[105.98433,30.35126],[105.97528,30.37479],[105.99721,30.3791]]]}},{"type":"Feature","id":"CTAMAP-2011-COUNTY-0871","properties":{"map_level":"county","source_name":"江津区","source_code":"500116","county_type":"市辖区","prefecture_name":"不统计","prefecture_code":"0","prefecture_type":"不统计","parent_entity_id":"CNUR-000235","parent_year_end_name":"重庆市","province_name":"重庆市","province_code":"500000","snapshot_year":2011,"panel_year":2010,"link_status":"parent_linked","former_name":"江津市","note":"2006年撤销江津市，设立江津区"},"geometry":{"type":"Polygon","coordinates":[[[106.39671,29.3439],[106.47366,29.36319],[106.48263,29.29533],[106.50469,29.28339],[106.51705,29.22723],[106.54388,29.21625],[106.53851,29.18847],[106.55806,29.16546],[106.54587,29.14855],[106.57337,29.12794],[106.58402,29.03156],[106.60484,29.01787],[106.584,29.00928],[106.57392,29.02654],[106.54562,29.00841],[106.54153,29.03968],[106.52248,29.03908],[106.48765,29.08663],[106.4715,29.01386],[106.44331,29.02936],[106.44089,29.04058],[106.45973,29.04385],[106.43903,29.05397],[106.37907,29.03133],[106.4082,28.95645],[106.39561,28.94864],[106.41084,28.87565],[106.44591,28.86375],[106.46501,28.8291],[106.44603,28.81741],[106.46261,28.79725],[106.44803,28.79607],[106.45069,28.78127],[106.525,28.67794],[106.49908,28.66374],[106.48963,28.60993],[106.52175,28.57872],[106.50323,28.57023],[106.47069,28.60254],[106.46249,28.58737],[106.49818,28.53779],[106.46524,28.5362],[106.39507,28.57448],[106.36223,28.52743],[106.3475,28.54295],[106.33641,28.53545],[106.32783,28.55584],[106.34461,28.58701],[106.31715,28.6239],[106.32498,28.63979],[106.30219,28.64789],[106.31693,28.66754],[106.30025,28.71371],[106.26882,28.74313],[106.27609,28.77392],[106.24657,28.79018],[106.26116,28.85096],[106.22416,28.89352],[106.16945,28.92426],[106.09923,28.90082],[106.06886,28.92353],[106.04432,28.90928],[106.03306,28.91457],[106.04386,28.95351],[106.01578,28.95465],[105.98084,28.98417],[105.9691,28.97594],[105.98519,28.96551],[105.96514,28.9713],[105.90345,28.92266],[105.9067,28.90232],[105.88263,28.91583],[105.88006,28.93692],[105.84143,28.93335],[105.82089,28.96348],[105.8522,28.98402],[105.86244,29.03108],[105.91781,29.05762],[105.91197,29.11062],[106.02975,29.25804],[106.0402,29.32821],[106.06753,29.32412],[106.11222,29.28265],[106.1729,29.30927],[106.21963,29.35597],[106.26201,29.45418],[106.32543,29.41558],[106.31816,29.38995],[106.28092,29.38978],[106.25761,29.33821],[106.28528,29.32362],[106.27579,29.28874],[106.29366,29.26143],[106.38205,29.28315],[106.39671,29.3439]]]}},{"type":"Feature","id":"CTAMAP-2011-COUNTY-0970","properties":{"map_level":"county","source_name":"九龙坡区","source_code":"500107","county_type":"市辖区","prefecture_name":"不统计","prefecture_code":"0","prefecture_type":"不统计","parent_entity_id":"CNUR-000235","parent_year_end_name":"重庆市","province_name":"重庆市","province_code":"500000","snapshot_year":2011,"panel_year":2010,"link_status":"parent_linked","former_name":"","note":""},"geometry":{"type":"Polygon","coordinates":[[[106.47916,29.55084],[106.49761,29.53177],[106.52884,29.53179],[106.54524,29.48053],[106.45678,29.49798],[106.45004,29.48716],[106.46666,29.47602],[106.44981,29.46128],[106.44885,29.41692],[106.39403,29.44318],[106.39122,29.39255],[106.40549,29.36991],[106.38294,29.32052],[106.38722,29.28775],[106.29483,29.2605],[106.27579,29.28874],[106.28528,29.32362],[106.25761,29.33821],[106.28092,29.38978],[106.31816,29.38995],[106.32543,29.41558],[106.25939,29.45391],[106.26946,29.48279],[106.24829,29.53366],[106.28789,29.53291],[106.35259,29.56226],[106.37655,29.53825],[106.41002,29.54365],[106.40234,29.49576],[106.41336,29.49462],[106.43874,29.49675],[106.47916,29.55084]]]}},{"type":"Feature","id":"CTAMAP-2011-COUNTY-0996","properties":{"map_level":"county","source_name":"开县","source_code":"500234","county_type":"县","prefecture_name":"不统计","prefecture_code":"0","prefecture_type":"不统计","parent_entity_id":"CNUR-000235","parent_year_end_name":"重庆市","province_name":"重庆市","province_code":"500000","snapshot_year":2011,"panel_year":2010,"link_status":"parent_linked","former_name":"","note":""},"geometry":{"type":"Polygon","coordinates":[[[108.894,31.65755],[108.89037,31.60917],[108.83678,31.57586],[108.7976,31.57744],[108.75811,31.50609],[108.6908,31.50068],[108.70108,31.46527],[108.75619,31.44114],[108.7316,31.39534],[108.68681,31.38423],[108.70724,31.37683],[108.69569,31.34631],[108.63132,31.33347],[108.65379,31.294],[108.63164,31.2865],[108.63956,31.26556],[108.59466,31.23773],[108.57397,31.18174],[108.59834,31.1627],[108.55942,31.13616],[108.54304,31.10841],[108.55237,31.09111],[108.53173,31.09623],[108.53502,31.08594],[108.47249,31.05716],[108.4699,31.02481],[108.33614,30.96396],[108.3577,30.92897],[108.25378,30.87476],[108.23737,30.89248],[108.22333,30.88334],[108.22496,30.85648],[108.1764,30.82575],[108.12087,30.84409],[108.10054,30.83237],[108.08315,30.87308],[108.09741,30.8795],[108.08363,30.89098],[108.06767,30.89646],[108.03271,30.87189],[108.0,30.91314],[107.93287,30.93035],[107.93829,30.99117],[107.97682,30.98425],[108.0,31.02691],[108.05496,31.0526],[108.02014,31.06624],[108.00509,31.1121],[108.0882,31.19592],[108.06384,31.22186],[108.07209,31.23399],[108.02656,31.21987],[108.01502,31.24585],[108.08538,31.26716],[108.1769,31.32724],[108.17581,31.35409],[108.14947,31.37539],[108.20319,31.4004],[108.2059,31.44145],[108.22166,31.45735],[108.19204,31.46999],[108.18655,31.49268],[108.23241,31.5097],[108.33648,31.51244],[108.344,31.54851],[108.38505,31.54902],[108.37346,31.57247],[108.41497,31.62129],[108.44245,31.6364],[108.46117,31.62041],[108.46718,31.64049],[108.53906,31.67634],[108.62213,31.65346],[108.64469,31.62564],[108.73388,31.63825],[108.78172,31.68989],[108.85636,31.68417],[108.894,31.65755]]]}},{"type":"Feature","id":"CTAMAP-2011-COUNTY-1126","properties":{"map_level":"county","source_name":"梁平县","source_code":"500228","county_type":"县","prefecture_name":"不统计","prefecture_code":"0","prefecture_type":"不统计","parent_entity_id":"CNUR-000235","parent_year_end_name":"重庆市","province_name":"重庆市","province_code":"500000","snapshot_year":2011,"panel_year":2010,"link_status":"parent_linked","former_name":"","note":""},"geometry":{"type":"Polygon","coordinates":[[[107.86904,30.81189],[107.95483,30.72002],[108.08056,30.71701],[108.07485,30.66683],[108.0391,30.66511],[108.01285,30.63924],[108.03189,30.57751],[107.96795,30.52163],[107.94699,30.52873],[107.94182,30.48638],[107.88095,30.51404],[107.88496,30.55491],[107.82699,30.56203],[107.80943,30.46966],[107.74304,30.52492],[107.6573,30.42268],[107.66978,30.46199],[107.62962,30.47443],[107.63004,30.48849],[107.56851,30.47876],[107.54495,30.50443],[107.51507,30.48968],[107.48384,30.49642],[107.47335,30.48057],[107.39965,30.52066],[107.42772,30.52397],[107.438,30.53704],[107.42392,30.55238],[107.51088,30.64628],[107.46971,30.66978],[107.42001,30.74264],[107.4419,30.75429],[107.43994,30.78024],[107.45808,30.77261],[107.45541,30.78809],[107.49437,30.81203],[107.48436,30.84311],[107.51241,30.85823],[107.51853,30.84726],[107.60664,30.84484],[107.63779,30.81439],[107.71266,30.89233],[107.75285,30.86494],[107.7589,30.81966],[107.84321,30.79462],[107.86904,30.81189]]]}},{"type":"Feature","id":"CTAMAP-2011-COUNTY-1400","properties":{"map_level":"county","source_name":"南岸区","source_code":"500108","county_type":"市辖区","prefecture_name":"不统计","prefecture_code":"0","prefecture_type":"不统计","parent_entity_id":"CNUR-000235","parent_year_end_name":"重庆市","province_name":"重庆市","province_code":"500000","snapshot_year":2011,"panel_year":2010,"link_status":"parent_linked","former_name":"","note":""},"geometry":{"type":"Polygon","coordinates":[[[106.79668,29.59244],[106.73422,29.48874],[106.6904,29.49212],[106.66896,29.46114],[106.60494,29.47733],[106.59131,29.46662],[106.53011,29.51403],[106.53463,29.54188],[106.58298,29.55275],[106.57645,29.59445],[106.60294,29.61992],[106.6214,29.61748],[106.63575,29.59089],[106.65349,29.59517],[106.67443,29.56497],[106.75281,29.6134],[106.79668,29.59244]]]}},{"type":"Feature","id":"CTAMAP-2011-COUNTY-1405","properties":{"map_level":"county","source_name":"南川区","source_code":"500119","county_type":"市辖区","prefecture_name":"不统计","prefecture_code":"0","prefecture_type":"不统计","parent_entity_id":"CNUR-000235","parent_year_end_name":"重庆市","province_name":"重庆市","province_code":"500000","snapshot_year":2011,"panel_year":2010,"link_status":"parent_linked","former_name":"南川市","note":"2006年撤销南川市，设立南川区"},"geometry":{"type":"Polygon","coordinates":[[[107.23491,29.36737],[107.25897,29.38632],[107.28584,29.352],[107.38559,29.33208],[107.36828,29.29933],[107.41715,29.27793],[107.3964,29.25395],[107.39106,29.20851],[107.40348,29.14402],[107.42346,29.13128],[107.40709,29.09717],[107.36989,29.10572],[107.39102,29.04311],[107.35952,29.01253],[107.43579,28.95149],[107.39028,28.86137],[107.3267,28.84624],[107.341,28.83046],[107.3296,28.81413],[107.25013,28.79703],[107.24387,28.76448],[107.21346,28.77692],[107.20678,28.82142],[107.22135,28.83888],[107.1886,28.84128],[107.19923,28.87036],[107.1869,28.8928],[107.14084,28.8788],[107.0902,28.89421],[107.08217,28.87557],[107.05544,28.87084],[107.06987,28.8874],[107.04613,28.91222],[107.05109,28.94146],[107.0097,28.95646],[107.02164,28.99786],[106.97598,29.0346],[106.97983,29.05572],[106.94692,29.07278],[106.9342,29.04443],[106.90309,29.05397],[106.91747,29.10533],[106.88815,29.1352],[106.90512,29.16353],[106.89301,29.19576],[106.94055,29.18731],[106.96509,29.21817],[106.91828,29.28551],[106.91828,29.40136],[106.9417,29.5],[106.99504,29.47347],[107.01531,29.49114],[107.01185,29.47273],[107.03021,29.46901],[107.0222,29.40017],[107.04761,29.39751],[107.04015,29.38085],[107.07031,29.36405],[107.10868,29.36663],[107.09964,29.38925],[107.14292,29.39845],[107.13456,29.41496],[107.15463,29.42693],[107.20943,29.40212],[107.20095,29.36936],[107.23491,29.36737]]]}},{"type":"Feature","id":"CTAMAP-2011-COUNTY-1481","properties":{"map_level":"county","source_name":"彭水苗族土家族自治县","source_code":"500243","county_type":"自治县","prefecture_name":"不统计","prefecture_code":"0","prefecture_type":"不统计","parent_entity_id":"CNUR-000235","parent_year_end_name":"重庆市","province_name":"重庆市","province_code":"500000","snapshot_year":2011,"panel_year":2010,"link_status":"parent_linked","former_name":"","note":""},"geometry":{"type":"Polygon","coordinates":[[[108.43279,29.74311],[108.52262,29.70169],[108.52167,29.68652],[108.49748,29.67714],[108.48235,29.62703],[108.51032,29.6172],[108.54461,29.55016],[108.50339,29.54222],[108.48989,29.51621],[108.5752,29.48692],[108.58812,29.44956],[108.57387,29.42126],[108.54974,29.41409],[108.54415,29.38649],[108.5571,29.35545],[108.54406,29.32132],[108.58088,29.28486],[108.56644,29.22812],[108.54477,29.21222],[108.57032,29.16677],[108.56455,29.15174],[108.52658,29.13127],[108.51371,29.10382],[108.459,29.09006],[108.41272,29.05436],[108.37215,29.04956],[108.30808,29.00025],[108.29387,29.05073],[108.30361,29.0821],[108.27077,29.09507],[108.23826,29.03171],[108.22064,29.03315],[108.22634,29.0503],[108.19231,29.0747],[108.12945,29.05567],[108.11903,29.07236],[108.06468,29.08924],[108.01819,29.04071],[107.92582,29.03901],[107.90263,29.00862],[107.87905,29.01181],[107.86314,28.96087],[107.80473,28.986],[107.82062,29.0393],[107.85228,29.0458],[107.88547,29.08646],[107.89486,29.19079],[107.94051,29.1813],[107.99282,29.23959],[108.00469,29.23482],[107.99126,29.2899],[108.00388,29.31782],[107.97123,29.36369],[108.00924,29.4517],[108.01155,29.50688],[108.07231,29.56042],[108.06097,29.57849],[108.08209,29.59289],[108.06246,29.61502],[108.07455,29.6211],[108.09555,29.60038],[108.15832,29.60377],[108.17792,29.62447],[108.16279,29.65656],[108.20032,29.68],[108.22324,29.74976],[108.24339,29.75355],[108.32238,29.71398],[108.36853,29.71558],[108.35614,29.76139],[108.39162,29.84059],[108.42351,29.81191],[108.41486,29.77932],[108.44118,29.7784],[108.43279,29.74311]]]}},{"type":"Feature","id":"CTAMAP-2011-COUNTY-1564","properties":{"map_level":"county","source_name":"綦江县","source_code":"500222","county_type":"县","prefecture_name":"不统计","prefecture_code":"0","prefecture_type":"不统计","parent_entity_id":"CNUR-000235","parent_year_end_name":"重庆市","province_name":"重庆市","province_code":"500000","snapshot_year":2011,"panel_year":2010,"link_status":"parent_linked","former_name":"","note":""},"geometry":{"type":"Polygon","coordinates":[[[106.90601,29.07579],[106.86633,29.11119],[106.8362,29.10603],[106.877,29.01787],[106.86367,29.01718],[106.86003,28.97121],[106.84277,28.96612],[106.85125,28.93783],[106.82713,28.87134],[106.80265,28.8828],[106.76322,28.83396],[106.77894,28.81714],[106.76614,28.82731],[106.7536,28.82112],[106.78114,28.79439],[106.79349,28.80488],[106.78146,28.83012],[106.8154,28.83971],[106.77417,28.75467],[106.82198,28.76188],[106.82553,28.73697],[106.85816,28.71333],[106.85496,28.69427],[106.88233,28.69801],[106.86326,28.62945],[106.82596,28.62679],[106.80792,28.59148],[106.78184,28.62846],[106.75299,28.61324],[106.77746,28.57013],[106.72462,28.54686],[106.7417,28.47196],[106.7183,28.4588],[106.68766,28.4641],[106.68471,28.48886],[106.6603,28.49698],[106.64363,28.48259],[106.62862,28.50765],[106.59044,28.51669],[106.58708,28.49366],[106.56142,28.48836],[106.56068,28.52508],[106.61214,28.55441],[106.60165,28.59627],[106.63314,28.62746],[106.61281,28.6443],[106.64456,28.65007],[106.64325,28.66659],[106.62459,28.66235],[106.60724,28.69229],[106.5694,28.70741],[106.55564,28.76392],[106.45084,28.83997],[106.44591,28.86375],[106.41084,28.87565],[106.39561,28.94864],[106.4082,28.95645],[106.3793,29.03171],[106.4182,29.0511],[106.43741,29.04267],[106.43903,29.05397],[106.45973,29.04385],[106.44089,29.04058],[106.44331,29.02936],[106.4715,29.01386],[106.48765,29.08663],[106.52248,29.03908],[106.54153,29.03968],[106.54562,29.00841],[106.57392,29.02654],[106.58364,29.0094],[106.59882,29.01275],[106.58402,29.03156],[106.57047,29.13105],[106.60802,29.13286],[106.63976,29.17723],[106.66307,29.16178],[106.68297,29.19119],[106.72554,29.16537],[106.74512,29.17993],[106.76498,29.16469],[106.80631,29.18166],[106.81906,29.15124],[106.84173,29.16085],[106.87567,29.14957],[106.91747,29.10533],[106.90601,29.07579]]]}},{"type":"Feature","id":"CTAMAP-2011-COUNTY-1580","properties":{"map_level":"county","source_name":"黔江区","source_code":"500114","county_type":"市辖区","prefecture_name":"不统计","prefecture_code":"0","prefecture_type":"不统计","parent_entity_id":"CNUR-000235","parent_year_end_name":"重庆市","province_name":"重庆市","province_code":"500000","snapshot_year":2011,"panel_year":2010,"link_status":"parent_linked","former_name":"黔江区","note":"2000年黔江土家族苗族自治县更名为黔江区"},"geometry":{"type":"Polygon","coordinates":[[[108.6233,29.86892],[108.65631,29.85663],[108.66706,29.82739],[108.65234,29.82094],[108.6766,29.8048],[108.6763,29.72434],[108.6936,29.70502],[108.67938,29.69501],[108.70885,29.70259],[108.70595,29.68204],[108.76095,29.63907],[108.75441,29.66322],[108.7766,29.65318],[108.78166,29.6577],[108.7487,29.69185],[108.77236,29.69764],[108.79381,29.66359],[108.77811,29.63666],[108.817,29.6345],[108.8239,29.67452],[108.82504,29.65404],[108.84134,29.66172],[108.85049,29.63953],[108.88135,29.63843],[108.8618,29.60247],[108.87912,29.59162],[108.89634,29.60493],[108.91048,29.57421],[108.87316,29.54045],[108.88753,29.53234],[108.88276,29.49962],[108.86015,29.47438],[108.88728,29.44045],[108.92662,29.4382],[108.93889,29.41377],[108.89894,29.30001],[108.94343,29.2691],[108.88985,29.21105],[108.8457,29.1097],[108.79997,29.13272],[108.7722,29.1291],[108.76803,29.10538],[108.74483,29.11267],[108.74158,29.08993],[108.72173,29.08278],[108.68908,29.10976],[108.66239,29.11095],[108.65954,29.07449],[108.61798,29.07667],[108.61208,29.11365],[108.59544,29.08952],[108.58286,29.09811],[108.59405,29.1113],[108.55337,29.14301],[108.57032,29.16677],[108.54478,29.21227],[108.56644,29.22812],[108.58088,29.28486],[108.54406,29.32132],[108.5571,29.35545],[108.54415,29.38652],[108.54974,29.41409],[108.57387,29.42126],[108.58812,29.44956],[108.5752,29.48692],[108.49386,29.5045],[108.50339,29.54222],[108.53104,29.54228],[108.54512,29.5613],[108.51032,29.6172],[108.48235,29.62703],[108.49748,29.67714],[108.52172,29.68675],[108.49465,29.73397],[108.54271,29.74503],[108.51764,29.76671],[108.53905,29.80448],[108.58723,29.86049],[108.6233,29.86892]]]}},{"type":"Feature","id":"CTAMAP-2011-COUNTY-1668","properties":{"map_level":"county","source_name":"荣昌县","source_code":"500226","county_type":"县","prefecture_name":"不统计","prefecture_code":"0","prefecture_type":"不统计","parent_entity_id":"CNUR-000235","parent_year_end_name":"重庆市","province_name":"重庆市","province_code":"500000","snapshot_year":2011,"panel_year":2010,"link_status":"parent_linked","former_name":"","note":""},"geometry":{"type":"Polygon","coordinates":[[[105.42029,29.69021],[105.48797,29.67664],[105.51398,29.58914],[105.53586,29.59339],[105.54543,29.57434],[105.5602,29.59382],[105.58748,29.58984],[105.59883,29.57323],[105.57974,29.51786],[105.61796,29.50787],[105.62627,29.48086],[105.64379,29.48511],[105.63685,29.50855],[105.66043,29.5022],[105.64912,29.48688],[105.66323,29.45838],[105.68809,29.44745],[105.71278,29.46591],[105.73459,29.44375],[105.71919,29.4021],[105.73724,29.40037],[105.72172,29.38123],[105.65115,29.35313],[105.64317,29.32322],[105.62667,29.31734],[105.67129,29.26623],[105.66395,29.25613],[105.64283,29.25836],[105.62837,29.28394],[105.60503,29.25767],[105.60678,29.27812],[105.51448,29.26638],[105.50602,29.28948],[105.47137,29.28132],[105.45544,29.29299],[105.45563,29.33078],[105.41536,29.31467],[105.4122,29.35244],[105.43708,29.36969],[105.4273,29.38184],[105.44033,29.40125],[105.42422,29.42135],[105.36984,29.42004],[105.39455,29.4402],[105.37298,29.46046],[105.33492,29.44228],[105.32085,29.45071],[105.33468,29.46661],[105.29143,29.5372],[105.29697,29.57731],[105.31338,29.5799],[105.31736,29.61231],[105.33244,29.59929],[105.35128,29.62953],[105.37518,29.62591],[105.37083,29.6438],[105.38986,29.65376],[105.37965,29.67123],[105.42029,29.69021]]]}},{"type":"Feature","id":"CTAMAP-2011-COUNTY-1713","properties":{"map_level":"county","source_name":"沙坪坝区","source_code":"500106","county_type":"市辖区","prefecture_name":"不统计","prefecture_code":"0","prefecture_type":"不统计","parent_entity_id":"CNUR-000235","parent_year_end_name":"重庆市","province_name":"重庆市","province_code":"500000","snapshot_year":2011,"panel_year":2010,"link_status":"parent_linked","former_name":"","note":""},"geometry":{"type":"Polygon","coordinates":[[[106.45356,29.67156],[106.46697,29.6557],[106.44644,29.62998],[106.45889,29.61732],[106.44642,29.59117],[106.49079,29.55556],[106.43874,29.49675],[106.40296,29.49498],[106.41036,29.54323],[106.37655,29.53825],[106.35259,29.56226],[106.28789,29.53291],[106.24952,29.53527],[106.25512,29.59405],[106.27308,29.63986],[106.2856,29.64038],[106.27455,29.69518],[106.30185,29.73898],[106.43333,29.75045],[106.42449,29.65867],[106.44431,29.6534],[106.45356,29.67156]]]}},{"type":"Feature","id":"CTAMAP-2011-COUNTY-1794","properties":{"map_level":"county","source_name":"石柱土家族自治县","source_code":"500240","county_type":"自治县","prefecture_name":"不统计","prefecture_code":"0","prefecture_type":"不统计","parent_entity_id":"CNUR-000235","parent_year_end_name":"重庆市","province_name":"重庆市","province_code":"500000","snapshot_year":2011,"panel_year":2010,"link_status":"parent_linked","former_name":"","note":""},"geometry":{"type":"Polygon","coordinates":[[[108.42577,30.51586],[108.40668,30.43995],[108.42487,30.42011],[108.39771,30.37971],[108.42684,30.35644],[108.45687,30.36079],[108.5183,30.31273],[108.55699,30.25722],[108.57961,30.2588],[108.54872,30.17205],[108.56302,30.15633],[108.50875,30.06081],[108.52751,30.05885],[108.52348,30.01311],[108.54767,29.98111],[108.53305,29.98626],[108.51102,29.93498],[108.52081,29.86932],[108.50362,29.88902],[108.48922,29.87103],[108.45386,29.86735],[108.42773,29.88232],[108.4035,29.85989],[108.38548,29.86378],[108.36255,29.82269],[108.38777,29.81481],[108.35614,29.76139],[108.36853,29.71558],[108.32238,29.71398],[108.24339,29.75355],[108.22324,29.74976],[108.20032,29.68],[108.14963,29.64718],[108.14137,29.66643],[108.1749,29.69926],[108.16718,29.7478],[108.18284,29.74644],[108.21338,29.78045],[108.18601,29.79706],[108.18525,29.82216],[108.16667,29.83708],[108.14474,29.82863],[108.14067,29.8498],[108.08031,29.84094],[108.05696,29.85711],[108.06714,29.87889],[108.03753,29.89663],[108.04462,29.91215],[107.98918,29.96964],[108.02915,29.996],[108.01282,30.01671],[108.02162,30.03471],[107.99418,30.05645],[108.02458,30.09237],[108.02756,30.07246],[108.05219,30.07687],[108.08777,30.13261],[108.05696,30.16133],[108.10312,30.20948],[108.12295,30.2077],[108.1227,30.22812],[108.09402,30.22383],[108.08649,30.25026],[108.11073,30.25481],[108.12118,30.23802],[108.13843,30.27192],[108.11885,30.29993],[108.14199,30.29854],[108.16035,30.32543],[108.1122,30.32757],[108.08258,30.35488],[108.12905,30.36691],[108.17677,30.41589],[108.21938,30.4234],[108.25853,30.39079],[108.27411,30.41004],[108.29187,30.40295],[108.37546,30.53782],[108.39978,30.55068],[108.40522,30.53379],[108.39197,30.52424],[108.40647,30.50453],[108.42577,30.51586]]]}},{"type":"Feature","id":"CTAMAP-2011-COUNTY-1964","properties":{"map_level":"county","source_name":"铜梁县","source_code":"500224","county_type":"县","prefecture_name":"不统计","prefecture_code":"0","prefecture_type":"不统计","parent_entity_id":"CNUR-000235","parent_year_end_name":"重庆市","province_name":"重庆市","province_code":"500000","snapshot_year":2011,"panel_year":2010,"link_status":"parent_linked","former_name":"","note":""},"geometry":{"type":"Polygon","coordinates":[[[105.9536,30.08333],[105.98912,30.0344],[106.04235,30.01745],[106.04893,30.00008],[106.1208,30.00048],[106.1055,29.95406],[106.13055,29.94165],[106.1241,29.92485],[106.20188,29.93781],[106.26278,29.88741],[106.27864,29.89733],[106.25433,29.83433],[106.15663,29.76357],[106.15259,29.70695],[106.16561,29.69086],[106.11737,29.63873],[106.08527,29.54832],[106.006,29.52303],[105.9921,29.54421],[105.95353,29.5375],[105.93238,29.55296],[105.90787,29.54165],[105.88741,29.57314],[105.97873,29.67472],[105.99528,29.66869],[106.03331,29.7294],[106.02422,29.75276],[105.99544,29.75202],[105.98652,29.78317],[105.93872,29.77904],[105.90019,29.78874],[105.89019,29.80621],[105.86609,29.75948],[105.82804,29.76014],[105.77329,29.815],[105.84436,29.89949],[105.92476,29.87158],[105.94767,29.91245],[105.92792,29.95897],[105.90684,29.96564],[105.90682,29.99637],[105.86368,30.00985],[105.86726,30.04784],[105.89596,30.04795],[105.8947,30.0808],[105.91041,30.09815],[105.92944,30.09144],[105.93895,30.06459],[105.9536,30.08333]]]}},{"type":"Feature","id":"CTAMAP-2011-COUNTY-1966","properties":{"map_level":"county","source_name":"潼南县","source_code":"500223","county_type":"县","prefecture_name":"不统计","prefecture_code":"0","prefecture_type":"不统计","parent_entity_id":"CNUR-000235","parent_year_end_name":"重庆市","province_name":"重庆市","province_code":"500000","snapshot_year":2011,"panel_year":2010,"link_status":"parent_linked","former_name":"","note":""},"geometry":{"type":"Polygon","coordinates":[[[105.97527,30.37458],[105.98433,30.35126],[105.97164,30.33371],[105.98634,30.32552],[105.96438,30.30225],[106.00989,30.27211],[105.97928,30.23764],[106.0173,30.20408],[105.99205,30.17959],[105.96635,30.18435],[105.99579,30.11367],[105.97987,30.10305],[105.97833,30.06403],[105.9536,30.08333],[105.93895,30.06459],[105.92944,30.09144],[105.9063,30.09686],[105.89688,30.04971],[105.86726,30.04784],[105.86328,30.01335],[105.9098,29.99238],[105.90328,29.97479],[105.93592,29.94805],[105.94254,29.89546],[105.91504,29.86488],[105.90575,29.88288],[105.84436,29.89949],[105.76231,29.7965],[105.70875,29.79204],[105.73519,29.85332],[105.7295,29.88923],[105.69755,29.93091],[105.72765,29.96022],[105.72024,29.98665],[105.74992,30.02707],[105.6846,30.04116],[105.66835,30.07621],[105.63619,30.07595],[105.63838,30.10209],[105.56922,30.12739],[105.59338,30.16135],[105.56749,30.16435],[105.55134,30.14657],[105.53138,30.16499],[105.55644,30.18711],[105.57573,30.17536],[105.6405,30.18903],[105.64246,30.21153],[105.65794,30.21462],[105.61553,30.23791],[105.62063,30.27861],[105.66686,30.25612],[105.71857,30.25354],[105.73227,30.27914],[105.70894,30.28729],[105.70872,30.32205],[105.73783,30.32174],[105.73003,30.33855],[105.75117,30.34589],[105.76559,30.37882],[105.75539,30.38842],[105.79261,30.4336],[105.82711,30.43484],[105.84167,30.39412],[105.86073,30.41329],[105.87624,30.38878],[105.88769,30.41349],[105.90397,30.40502],[105.89831,30.38918],[105.91271,30.39852],[105.94081,30.37535],[105.97527,30.37458]]]}},{"type":"Feature","id":"CTAMAP-2011-COUNTY-1991","properties":{"map_level":"county","source_name":"万州区","source_code":"500101","county_type":"市辖区","prefecture_name":"不统计","prefecture_code":"0","prefecture_type":"不统计","parent_entity_id":"CNUR-000235","parent_year_end_name":"重庆市","province_name":"重庆市","province_code":"500000","snapshot_year":2011,"panel_year":2010,"link_status":"parent_linked","former_name":"","note":""},"geometry":{"type":"Polygon","coordinates":[[[108.90729,30.58044],[108.83669,30.50617],[108.80426,30.49382],[108.78416,30.51748],[108.73641,30.49892],[108.69635,30.54583],[108.68637,30.5901],[108.65632,30.59104],[108.63619,30.57714],[108.64004,30.52098],[108.63236,30.53553],[108.61393,30.52574],[108.56148,30.47083],[108.50827,30.50396],[108.46136,30.48537],[108.45029,30.49841],[108.41923,30.4918],[108.42577,30.51586],[108.40647,30.50453],[108.39197,30.52424],[108.40522,30.53379],[108.39978,30.55068],[108.37546,30.53782],[108.29241,30.40329],[108.27411,30.41004],[108.25842,30.39081],[108.21938,30.4234],[108.23826,30.44657],[108.22848,30.47848],[108.18668,30.51915],[108.16698,30.51464],[108.16652,30.54282],[108.14882,30.53685],[108.14241,30.56603],[108.11903,30.56764],[108.12025,30.59035],[108.10031,30.59308],[108.09811,30.57296],[108.02398,30.58622],[108.01285,30.63924],[108.0391,30.66511],[108.07485,30.66683],[108.07947,30.71912],[107.95483,30.72002],[107.86904,30.81189],[108.0,30.91314],[108.03271,30.87189],[108.06767,30.89646],[108.09596,30.8817],[108.08315,30.87308],[108.10003,30.83261],[108.12087,30.84409],[108.17691,30.82583],[108.22496,30.85648],[108.22333,30.88334],[108.23737,30.89248],[108.25378,30.87476],[108.3577,30.92897],[108.33614,30.96396],[108.39352,30.9959],[108.44864,31.00397],[108.4514,30.96845],[108.53204,30.99911],[108.51872,30.97757],[108.55016,30.91448],[108.5871,30.92114],[108.6062,30.94234],[108.62067,30.87727],[108.64851,30.89442],[108.69518,30.81382],[108.73235,30.81194],[108.74462,30.75065],[108.76374,30.74337],[108.75898,30.71527],[108.78763,30.71578],[108.77516,30.68577],[108.81604,30.69629],[108.82714,30.68181],[108.87786,30.69888],[108.89234,30.68609],[108.89714,30.64892],[108.86375,30.61252],[108.90729,30.58044]]]}},{"type":"Feature","id":"CTAMAP-2011-COUNTY-2056","properties":{"map_level":"county","source_name":"巫山县","source_code":"500237","county_type":"县","prefecture_name":"不统计","prefecture_code":"0","prefecture_type":"不统计","parent_entity_id":"CNUR-000235","parent_year_end_name":"重庆市","province_name":"重庆市","province_code":"500000","snapshot_year":2011,"panel_year":2010,"link_status":"parent_linked","former_name":"","note":""},"geometry":{"type":"Polygon","coordinates":[[[110.15873,31.30542],[110.15325,31.25804],[110.16677,31.24931],[110.17512,31.17976],[110.19563,31.16027],[110.17652,31.12467],[110.126,31.1037],[110.11501,31.03413],[110.13552,31.0327],[110.13119,30.9878],[110.15848,30.99384],[110.16797,30.98177],[110.14816,30.95519],[110.14367,30.90781],[110.07836,30.80498],[110.04482,30.80208],[110.01409,30.83187],[110.00334,30.88687],[109.97115,30.89238],[109.95108,30.87887],[109.89598,30.90402],[109.71483,30.81089],[109.71387,30.78035],[109.69561,30.77173],[109.69521,30.78645],[109.65235,30.76565],[109.63183,30.82677],[109.60151,30.84109],[109.60948,30.86479],[109.56436,30.8772],[109.55746,30.89872],[109.60834,30.90602],[109.59109,30.95562],[109.60944,30.99616],[109.59131,31.0136],[109.70803,31.06659],[109.7183,31.09326],[109.76137,31.11483],[109.76655,31.16181],[109.75459,31.17746],[109.6398,31.18],[109.6186,31.19303],[109.62322,31.229],[109.57809,31.22561],[109.56404,31.24746],[109.59674,31.26454],[109.60603,31.29719],[109.63756,31.31378],[109.65918,31.29693],[109.71202,31.30196],[109.70646,31.3274],[109.72447,31.35836],[109.76042,31.34967],[109.78335,31.3807],[109.81515,31.39021],[109.91591,31.3954],[109.93839,31.47783],[109.98693,31.47545],[110.05134,31.41081],[110.11196,31.41291],[110.13955,31.38717],[110.15873,31.30542]]]}},{"type":"Feature","id":"CTAMAP-2011-COUNTY-2057","properties":{"map_level":"county","source_name":"巫溪县","source_code":"500238","county_type":"县","prefecture_name":"不统计","prefecture_code":"0","prefecture_type":"不统计","parent_entity_id":"CNUR-000235","parent_year_end_name":"重庆市","province_name":"重庆市","province_code":"500000","snapshot_year":2011,"panel_year":2010,"link_status":"parent_linked","former_name":"","note":""},"geometry":{"type":"Polygon","coordinates":[[[109.5796,31.72849],[109.61357,31.71269],[109.67951,31.72067],[109.72992,31.69685],[109.73329,31.62944],[109.75971,31.60627],[109.73988,31.60099],[109.74819,31.5822],[109.7215,31.57284],[109.72329,31.54991],[109.78405,31.55515],[109.79519,31.54257],[109.83419,31.55773],[109.88758,31.51999],[109.97834,31.51464],[109.93553,31.48279],[109.93547,31.42993],[109.91637,31.39577],[109.81515,31.39021],[109.78335,31.3807],[109.76042,31.34967],[109.72447,31.35836],[109.70646,31.3274],[109.71202,31.30196],[109.65918,31.29693],[109.63756,31.31378],[109.5632,31.24711],[109.46501,31.25633],[109.43178,31.2335],[109.38658,31.24556],[109.37247,31.28801],[109.32992,31.3097],[109.31926,31.34993],[109.25826,31.36371],[109.05228,31.36773],[108.93209,31.39427],[108.88419,31.38603],[108.88631,31.33956],[108.83254,31.34941],[108.81787,31.36158],[108.83001,31.38054],[108.79105,31.40169],[108.80442,31.42678],[108.73476,31.44426],[108.6917,31.48052],[108.69628,31.50407],[108.75811,31.50609],[108.7976,31.57744],[108.83678,31.57586],[108.89037,31.60917],[108.89691,31.66185],[108.98972,31.65514],[109.00248,31.6943],[109.13144,31.70987],[109.22227,31.6902],[109.22648,31.72594],[109.38394,31.70687],[109.41516,31.72284],[109.5796,31.72849]]]}},{"type":"Feature","id":"CTAMAP-2011-COUNTY-2095","properties":{"map_level":"county","source_name":"武隆县","source_code":"500232","county_type":"县","prefecture_name":"不统计","prefecture_code":"0","prefecture_type":"不统计","parent_entity_id":"CNUR-000235","parent_year_end_name":"重庆市","province_name":"重庆市","province_code":"500000","snapshot_year":2011,"panel_year":2010,"link_status":"parent_linked","former_name":"","note":""},"geometry":{"type":"Polygon","coordinates":[[[108.06246,29.61502],[108.08209,29.59289],[108.06097,29.57849],[108.07231,29.56042],[108.01155,29.50688],[108.00924,29.4517],[107.97123,29.36369],[108.00388,29.31782],[107.99126,29.2899],[108.00469,29.23482],[107.99282,29.23959],[107.94051,29.1813],[107.89486,29.19079],[107.88547,29.08646],[107.85228,29.0458],[107.81881,29.03605],[107.7803,29.04985],[107.80687,29.14265],[107.74849,29.20175],[107.69245,29.14584],[107.62135,29.17464],[107.59043,29.14709],[107.55743,29.2242],[107.48077,29.17638],[107.4583,29.1792],[107.45894,29.19804],[107.43988,29.20775],[107.39774,29.18813],[107.3964,29.25395],[107.41715,29.27793],[107.36828,29.29933],[107.38559,29.33208],[107.27054,29.35821],[107.26844,29.37657],[107.23752,29.38204],[107.22337,29.40944],[107.29928,29.46595],[107.32551,29.51281],[107.38616,29.53426],[107.422,29.50966],[107.42689,29.48544],[107.47122,29.50929],[107.52971,29.42606],[107.58826,29.48151],[107.61171,29.48366],[107.60428,29.52662],[107.65152,29.55407],[107.69814,29.61798],[107.72831,29.5886],[107.75083,29.60652],[107.76417,29.59977],[107.777,29.58516],[107.76296,29.58126],[107.82555,29.54934],[107.83814,29.65826],[107.85195,29.67043],[107.93106,29.65785],[107.94536,29.60387],[107.97413,29.63006],[108.06246,29.61502]]]}},{"type":"Feature","id":"CTAMAP-2011-COUNTY-2283","properties":{"map_level":"county","source_name":"秀山土家族苗族自治县","source_code":"500241","county_type":"自治县","prefecture_name":"不统计","prefecture_code":"0","prefecture_type":"不统计","parent_entity_id":"CNUR-000235","parent_year_end_name":"重庆市","province_name":"重庆市","province_code":"500000","snapshot_year":2011,"panel_year":2010,"link_status":"parent_linked","former_name":"","note":""},"geometry":{"type":"Polygon","coordinates":[[[109.23052,28.88294],[109.23548,28.78157],[109.296,28.7424],[109.24973,28.69715],[109.26759,28.67376],[109.18952,28.64058],[109.1764,28.62147],[109.19737,28.60257],[109.22977,28.62452],[109.25363,28.60966],[109.28915,28.63177],[109.31654,28.58766],[109.26915,28.54138],[109.26983,28.49793],[109.18599,28.47301],[109.17295,28.43498],[109.14417,28.41508],[109.13712,28.32489],[109.0754,28.25285],[109.09633,28.20398],[109.0756,28.18771],[109.01984,28.22328],[109.00778,28.17545],[108.989,28.16521],[108.92627,28.19328],[108.91704,28.22162],[108.8412,28.20295],[108.81676,28.24874],[108.75577,28.1952],[108.75397,28.22627],[108.73448,28.22986],[108.72026,28.27986],[108.76636,28.31796],[108.7561,28.32998],[108.77945,28.38313],[108.75468,28.39082],[108.77708,28.43045],[108.72213,28.4775],[108.72635,28.52127],[108.78219,28.55284],[108.82397,28.60797],[108.87686,28.62486],[108.95021,28.61327],[108.97548,28.68325],[108.99859,28.70322],[109.01528,28.69379],[109.03855,28.71956],[109.0551,28.77126],[109.10254,28.81529],[109.08983,28.82163],[109.17106,28.85346],[109.20535,28.88456],[109.23052,28.88294]]]}},{"type":"Feature","id":"CTAMAP-2011-COUNTY-2426","properties":{"map_level":"county","source_name":"永川区","source_code":"500118","county_type":"市辖区","prefecture_name":"不统计","prefecture_code":"0","prefecture_type":"不统计","parent_entity_id":"CNUR-000235","parent_year_end_name":"重庆市","province_name":"重庆市","province_code":"500000","snapshot_year":2011,"panel_year":2010,"link_status":"parent_linked","former_name":"永川市","note":"2006年撤销永川市，设立永川区"},"geometry":{"type":"Polygon","coordinates":[[[106.08527,29.54832],[106.02975,29.25804],[105.91197,29.11062],[105.91781,29.05762],[105.86244,29.03108],[105.8522,28.98402],[105.82451,28.9693],[105.82612,28.94861],[105.79509,28.93793],[105.78934,28.9506],[105.80636,28.96042],[105.75685,28.99343],[105.76269,29.01752],[105.73808,29.04293],[105.75413,29.07319],[105.72459,29.101],[105.72653,29.1223],[105.74954,29.13612],[105.72511,29.13641],[105.72464,29.16221],[105.70513,29.18079],[105.71955,29.19834],[105.68728,29.27262],[105.69268,29.29263],[105.71391,29.29605],[105.69785,29.30179],[105.65988,29.27762],[105.62667,29.31734],[105.64317,29.32322],[105.65115,29.35313],[105.72285,29.38753],[105.74748,29.37404],[105.76479,29.38277],[105.82449,29.52118],[105.8685,29.54101],[105.88658,29.57292],[105.9035,29.56641],[105.90787,29.54165],[105.93238,29.55296],[105.95353,29.5375],[105.9921,29.54421],[106.006,29.52303],[106.08527,29.54832]]]}},{"type":"Feature","id":"CTAMAP-2011-COUNTY-2456","properties":{"map_level":"county","source_name":"酉阳土家族苗族自治县","source_code":"500242","county_type":"自治县","prefecture_name":"不统计","prefecture_code":"0","prefecture_type":"不统计","parent_entity_id":"CNUR-000235","parent_year_end_name":"重庆市","province_name":"重庆市","province_code":"500000","snapshot_year":2011,"panel_year":2010,"link_status":"parent_linked","former_name":"","note":""},"geometry":{"type":"Polygon","coordinates":[[[109.21795,29.14921],[109.23156,29.08915],[109.29732,29.07382],[109.31647,29.04789],[109.28907,29.01953],[109.28329,28.97737],[109.25908,28.9632],[109.24557,28.89907],[109.08983,28.82163],[109.10254,28.81529],[109.0551,28.77126],[109.03855,28.71956],[109.01528,28.69379],[108.99859,28.70322],[108.97548,28.68325],[108.95021,28.61327],[108.87686,28.62486],[108.81646,28.60471],[108.78219,28.55284],[108.72635,28.52127],[108.71947,28.49591],[108.70525,28.50337],[108.69481,28.48519],[108.64035,28.47319],[108.63684,28.45871],[108.69327,28.40771],[108.65366,28.37141],[108.65337,28.35393],[108.6737,28.35119],[108.66407,28.33869],[108.61224,28.32761],[108.57684,28.34576],[108.57314,28.39137],[108.60351,28.41076],[108.60733,28.44155],[108.58401,28.46435],[108.56938,28.53208],[108.6075,28.54614],[108.60078,28.59413],[108.63117,28.63735],[108.58232,28.64306],[108.56395,28.66652],[108.55591,28.65137],[108.46908,28.63065],[108.32905,28.67938],[108.34485,28.74083],[108.38469,28.79373],[108.34842,28.81916],[108.34584,28.93686],[108.31817,28.95762],[108.30808,29.00025],[108.37215,29.04956],[108.41272,29.05436],[108.459,29.09006],[108.51371,29.10382],[108.54852,29.14224],[108.59008,29.11594],[108.58289,29.09788],[108.59544,29.08952],[108.61209,29.11364],[108.62257,29.07584],[108.66073,29.07535],[108.66432,29.11131],[108.72269,29.08291],[108.74474,29.09402],[108.74483,29.11267],[108.76803,29.10538],[108.77193,29.1289],[108.79227,29.13227],[108.8446,29.10853],[108.88985,29.21105],[108.94343,29.2691],[108.89981,29.29834],[108.90452,29.31483],[108.91561,29.32924],[108.98097,29.3374],[108.9961,29.36786],[109.03114,29.36376],[109.02432,29.3854],[109.04837,29.40663],[109.10563,29.36633],[109.1003,29.29042],[109.1366,29.27165],[109.10689,29.21035],[109.14011,29.16998],[109.16027,29.18397],[109.21795,29.14921]]]}},{"type":"Feature","id":"CTAMAP-2011-COUNTY-2470","properties":{"map_level":"county","source_name":"渝北区","source_code":"500112","county_type":"市辖区","prefecture_name":"不统计","prefecture_code":"0","prefecture_type":"不统计","parent_entity_id":"CNUR-000235","parent_year_end_name":"重庆市","province_name":"重庆市","province_code":"500000","snapshot_year":2011,"panel_year":2010,"link_status":"parent_linked","former_name":"","note":""},"geometry":{"type":"Polygon","coordinates":[[[106.69769,30.11789],[106.69526,30.07668],[106.72349,30.05898],[106.72722,30.02923],[106.78268,30.02002],[106.83797,30.05194],[106.8596,30.02908],[106.86581,29.98089],[106.88671,29.99055],[106.92714,29.97819],[106.98019,29.9369],[106.93247,29.85033],[106.93586,29.80634],[106.96868,29.76792],[106.93145,29.6971],[106.89112,29.6595],[106.86088,29.65248],[106.78789,29.68163],[106.75157,29.65249],[106.74051,29.67393],[106.70168,29.63024],[106.58804,29.64137],[106.55752,29.59084],[106.49187,29.57796],[106.48794,29.60396],[106.44607,29.62661],[106.46697,29.6557],[106.45157,29.686],[106.47745,29.70324],[106.51071,29.69201],[106.50946,29.70998],[106.53396,29.72798],[106.51076,29.77254],[106.53763,29.76687],[106.52928,29.75118],[106.60084,29.77089],[106.58916,29.7891],[106.60533,29.7994],[106.58837,29.81208],[106.59059,29.80321],[106.57705,29.80151],[106.58494,29.81965],[106.63964,29.84804],[106.68364,29.93552],[106.66852,29.93524],[106.67678,30.03164],[106.6637,30.03587],[106.67551,30.06269],[106.64721,30.086],[106.66963,30.12503],[106.69769,30.11789]]]}},{"type":"Feature","id":"CTAMAP-2011-COUNTY-2472","properties":{"map_level":"county","source_name":"渝中区","source_code":"500103","county_type":"市辖区","prefecture_name":"不统计","prefecture_code":"0","prefecture_type":"不统计","parent_entity_id":"CNUR-000235","parent_year_end_name":"重庆市","province_name":"重庆市","province_code":"500000","snapshot_year":2011,"panel_year":2010,"link_status":"parent_linked","former_name":"","note":""},"geometry":{"type":"Polygon","coordinates":[[[106.58189,29.55137],[106.49761,29.53177],[106.47823,29.55253],[106.58702,29.57188],[106.58189,29.55137]]]}},{"type":"Feature","id":"CTAMAP-2011-COUNTY-2537","properties":{"map_level":"county","source_name":"云阳县","source_code":"500235","county_type":"县","prefecture_name":"不统计","prefecture_code":"0","prefecture_type":"不统计","parent_entity_id":"CNUR-000235","parent_year_end_name":"重庆市","province_name":"重庆市","province_code":"500000","snapshot_year":2011,"panel_year":2010,"link_status":"parent_linked","former_name":"","note":""},"geometry":{"type":"Polygon","coordinates":[[[109.0479,31.36847],[109.0485,31.32316],[109.03102,31.29379],[109.06531,31.27222],[109.08954,31.2018],[109.06772,31.18266],[109.04529,31.18841],[109.04421,31.16202],[109.05102,31.13344],[109.09691,31.12103],[109.08861,31.06632],[109.12624,31.05617],[109.17759,31.0711],[109.2466,31.03195],[109.20956,30.98091],[109.21199,30.92332],[109.14792,30.94163],[109.1577,30.90897],[109.14025,30.90506],[109.14499,30.87994],[109.12467,30.88278],[109.12998,30.86942],[109.1128,30.86341],[109.04833,30.86387],[109.03936,30.81033],[109.05483,30.76456],[109.04334,30.73315],[109.01387,30.72099],[109.02551,30.71173],[109.01365,30.69757],[109.01727,30.64431],[109.00205,30.6296],[108.96009,30.62903],[108.90729,30.58044],[108.86375,30.61252],[108.89714,30.64892],[108.89234,30.68609],[108.87786,30.69888],[108.82714,30.68181],[108.81604,30.69629],[108.77516,30.68577],[108.78763,30.71578],[108.75898,30.71527],[108.76374,30.74337],[108.74462,30.75065],[108.73291,30.81118],[108.69518,30.81382],[108.64851,30.89442],[108.62067,30.87727],[108.6095,30.93995],[108.55018,30.91447],[108.51872,30.97757],[108.53204,30.99911],[108.4514,30.96845],[108.44864,31.00397],[108.41003,31.002],[108.4699,31.02481],[108.48245,31.06576],[108.53502,31.08594],[108.53173,31.09623],[108.55412,31.09266],[108.54304,31.10841],[108.55942,31.13616],[108.5985,31.16311],[108.57397,31.18174],[108.59466,31.23773],[108.63956,31.26556],[108.63164,31.2865],[108.65366,31.29345],[108.63519,31.34022],[108.69569,31.34631],[108.70724,31.37683],[108.68681,31.38423],[108.7316,31.39534],[108.75619,31.44114],[108.80442,31.42678],[108.79105,31.40169],[108.83001,31.38054],[108.81787,31.36158],[108.83254,31.34941],[108.88631,31.33956],[108.88419,31.38603],[108.93209,31.39427],[109.0479,31.36847]]]}},{"type":"Feature","id":"CTAMAP-2011-COUNTY-2585","properties":{"map_level":"county","source_name":"长寿区","source_code":"500115","county_type":"市辖区","prefecture_name":"不统计","prefecture_code":"0","prefecture_type":"不统计","parent_entity_id":"CNUR-000235","parent_year_end_name":"重庆市","province_name":"重庆市","province_code":"500000","snapshot_year":2011,"panel_year":2010,"link_status":"parent_linked","former_name":"长寿县","note":"2001年撤销长寿县，设立长寿区"},"geometry":{"type":"Polygon","coordinates":[[[107.45227,30.02284],[107.37858,29.92978],[107.37453,29.89943],[107.35721,29.91237],[107.30825,29.84774],[107.20601,29.84304],[107.20775,29.81877],[107.18296,29.7975],[107.09803,29.75667],[107.06547,29.75922],[107.02312,29.71965],[106.99831,29.71609],[106.98561,29.76958],[106.95377,29.77871],[106.93586,29.80634],[106.93307,29.85469],[106.98019,29.9369],[106.92714,29.97819],[106.88671,29.99055],[106.86581,29.98089],[106.85127,30.0231],[106.94158,30.03996],[106.97657,30.08841],[107.02004,30.03694],[107.0397,30.03739],[107.0391,30.05809],[107.06258,30.0482],[107.08061,30.06677],[107.07594,30.10072],[107.09673,30.09655],[107.10257,30.11907],[107.12742,30.12381],[107.22383,30.22651],[107.28381,30.17847],[107.26429,30.14549],[107.29106,30.14199],[107.28569,30.09911],[107.24249,30.07769],[107.27153,30.04599],[107.30417,30.04032],[107.30808,30.01009],[107.29272,29.99431],[107.32268,29.97286],[107.37003,29.97614],[107.43109,30.03625],[107.45227,30.02284]]]}},{"type":"Feature","id":"CTAMAP-2011-COUNTY-2647","properties":{"map_level":"county","source_name":"忠县","source_code":"500233","county_type":"县","prefecture_name":"不统计","prefecture_code":"0","prefecture_type":"不统计","parent_entity_id":"CNUR-000235","parent_year_end_name":"重庆市","province_name":"重庆市","province_code":"500000","snapshot_year":2011,"panel_year":2010,"link_status":"parent_linked","former_name":"","note":""},"geometry":{"type":"Polygon","coordinates":[[[108.21938,30.4234],[108.16996,30.4135],[108.12905,30.36691],[108.08373,30.35763],[108.1122,30.32757],[108.16035,30.32543],[108.14199,30.29854],[108.11885,30.29993],[108.13843,30.27192],[108.12118,30.23802],[108.11073,30.25481],[108.08649,30.25026],[108.09362,30.22423],[108.11993,30.22966],[108.12349,30.20999],[108.10312,30.20948],[108.05696,30.16133],[108.08777,30.13261],[108.04804,30.07209],[108.02756,30.07246],[108.02458,30.09237],[107.98178,30.05026],[107.93233,30.0704],[107.89166,30.1244],[107.87157,30.10276],[107.84969,30.1224],[107.81693,30.11243],[107.8063,30.12304],[107.84244,30.16468],[107.75943,30.20064],[107.75693,30.24427],[107.7319,30.22295],[107.71966,30.23549],[107.71874,30.22093],[107.69751,30.2204],[107.71059,30.22394],[107.70606,30.24109],[107.66704,30.22527],[107.67227,30.25449],[107.65739,30.26482],[107.6179,30.20561],[107.57849,30.20332],[107.57141,30.22395],[107.54336,30.19954],[107.54122,30.231],[107.56952,30.24437],[107.56253,30.27394],[107.5925,30.2915],[107.59396,30.31611],[107.56647,30.32657],[107.57628,30.3458],[107.74304,30.52492],[107.80943,30.46966],[107.82699,30.56203],[107.88496,30.55491],[107.88095,30.51404],[107.93834,30.48491],[107.95452,30.53514],[107.96795,30.52163],[108.03048,30.57717],[108.09811,30.57296],[108.10709,30.59616],[108.12306,30.58727],[108.11944,30.56716],[108.14251,30.56589],[108.14882,30.53685],[108.16652,30.54282],[108.16698,30.51464],[108.18668,30.51915],[108.22848,30.47848],[108.23826,30.44657],[108.21938,30.4234]]]}},{"type":"Feature","id":"CTAMAP-2011-COUNTY-2741","properties":{"map_level":"county","source_name":"江北区","source_code":"500105","county_type":"市辖区","prefecture_name":"不统计","prefecture_code":"0","prefecture_type":"不统计","parent_entity_id":"CNUR-000235","parent_year_end_name":"重庆市","province_name":"重庆市","province_code":"500000","snapshot_year":2011,"panel_year":2010,"link_status":"parent_linked","former_name":"","note":""},"geometry":{"type":"Polygon","coordinates":[[[106.89112,29.6595],[106.84609,29.57875],[106.75449,29.61366],[106.67443,29.56497],[106.60813,29.62081],[106.58064,29.6058],[106.58118,29.57045],[106.52526,29.55537],[106.48287,29.55875],[106.44642,29.59117],[106.46234,29.61408],[106.48862,29.60316],[106.49187,29.57796],[106.54522,29.58422],[106.58804,29.64137],[106.68542,29.62574],[106.72648,29.64952],[106.73054,29.67038],[106.75157,29.65249],[106.78789,29.68163],[106.86088,29.65248],[106.89112,29.6595]]]}},{"type":"Feature","id":"CTAMAP-2011-COUNTY-2860","properties":{"map_level":"county","source_name":"双桥区","source_code":"500111","county_type":"市辖区","prefecture_name":"不统计","prefecture_code":"0","prefecture_type":"不统计","parent_entity_id":"CNUR-000235","parent_year_end_name":"重庆市","province_name":"重庆市","province_code":"500000","snapshot_year":2011,"panel_year":2010,"link_status":"parent_linked","former_name":"","note":""},"geometry":{"type":"Polygon","coordinates":[[[105.82762,29.52577],[105.8096,29.47608],[105.77003,29.45918],[105.73397,29.48157],[105.76168,29.50483],[105.7618,29.53299],[105.82762,29.52577]]]}},{"type":"Feature","id":"CTAMAP-2011-COUNTY-2861","properties":{"map_level":"county","source_name":"万盛区","source_code":"500110","county_type":"市辖区","prefecture_name":"不统计","prefecture_code":"0","prefecture_type":"不统计","parent_entity_id":"CNUR-000235","parent_year_end_name":"重庆市","province_name":"重庆市","province_code":"500000","snapshot_year":2011,"panel_year":2010,"link_status":"parent_linked","former_name":"","note":""},"geometry":{"type":"Polygon","coordinates":[[[106.90601,29.07579],[106.90189,29.05665],[106.91515,29.04908],[106.93987,29.04742],[106.94692,29.07278],[106.9831,29.05228],[106.97598,29.0346],[107.02521,28.98981],[107.0097,28.95646],[107.05109,28.94146],[107.0513,28.87311],[107.0343,28.86802],[107.03518,28.8845],[107.01304,28.88897],[107.01333,28.86469],[106.97956,28.85442],[106.98946,28.77484],[106.94692,28.76964],[106.92184,28.81309],[106.86008,28.7778],[106.83973,28.78501],[106.81985,28.75735],[106.77555,28.75335],[106.8154,28.83971],[106.78146,28.83012],[106.79349,28.80488],[106.78114,28.79439],[106.7536,28.82112],[106.77894,28.81714],[106.76322,28.83396],[106.80265,28.8828],[106.82713,28.87134],[106.85125,28.93783],[106.84277,28.96612],[106.86003,28.97121],[106.86367,29.01718],[106.877,29.01787],[106.8362,29.10603],[106.86633,29.11119],[106.90601,29.07579]]]}}]}