{"type":"FeatureCollection","features":[{"type":"Feature","id":"CTAMAP-2013-COUNTY-0165","properties":{"map_level":"county","source_name":"昌平区","source_code":"110114","county_type":"市辖区","prefecture_name":"不统计","prefecture_code":"0","prefecture_type":"不统计","parent_entity_id":"CNUR-000001","parent_year_end_name":"北京市","province_name":"北京市","province_code":"110000","snapshot_year":2013,"panel_year":2012,"link_status":"parent_linked","former_name":"","note":""},"geometry":{"type":"Polygon","coordinates":[[[116.49991,40.26009],[116.49298,40.24906],[116.47639,40.24514],[116.47885,40.22207],[116.47132,40.22294],[116.46464,40.2111],[116.48204,40.19031],[116.47063,40.15772],[116.4819,40.15658],[116.47306,40.14547],[116.48404,40.10123],[116.45935,40.09249],[116.4535,40.05872],[116.4177,40.06478],[116.41776,40.05809],[116.40333,40.05419],[116.40043,40.03869],[116.38926,40.03538],[116.36093,40.04976],[116.37565,40.0649],[116.35706,40.06745],[116.32251,40.05347],[116.29675,40.05872],[116.2843,40.08191],[116.27401,40.07861],[116.25041,40.10347],[116.23406,40.10741],[116.24099,40.13496],[116.20327,40.13949],[116.19612,40.15974],[116.17649,40.15676],[116.17178,40.14313],[116.16146,40.1413],[116.16122,40.12321],[116.12169,40.11486],[116.07608,40.117],[116.04259,40.08395],[116.0178,40.07616],[115.98034,40.0823],[115.96255,40.07437],[115.95637,40.0976],[115.93782,40.1017],[115.94053,40.10932],[115.91692,40.13262],[115.84748,40.14817],[115.83852,40.16427],[115.8475,40.17951],[115.842,40.18288],[115.86588,40.1862],[115.8925,40.23345],[115.9063,40.23305],[115.91096,40.24606],[115.92448,40.2537],[115.9569,40.25664],[115.97271,40.27195],[115.97231,40.2916],[115.9839,40.29848],[115.96958,40.3093],[115.97659,40.32299],[116.01096,40.33304],[116.02477,40.31113],[116.03228,40.31076],[116.04667,40.31558],[116.05321,40.33331],[116.06589,40.33726],[116.10329,40.32925],[116.11592,40.31144],[116.12703,40.31065],[116.13573,40.31566],[116.13288,40.34503],[116.13982,40.34575],[116.14014,40.33451],[116.14896,40.34083],[116.14196,40.36044],[116.20848,40.381],[116.22569,40.37386],[116.26344,40.38036],[116.27669,40.37396],[116.28379,40.39036],[116.31821,40.38517],[116.35378,40.36544],[116.34258,40.35505],[116.36337,40.35504],[116.3615,40.33483],[116.4344,40.32615],[116.4495,40.31327],[116.4441,40.28801],[116.47301,40.27851],[116.48232,40.26308],[116.49991,40.26009]]]}},{"type":"Feature","id":"CTAMAP-2013-COUNTY-0258","properties":{"map_level":"county","source_name":"大兴区","source_code":"110115","county_type":"市辖区","prefecture_name":"不统计","prefecture_code":"0","prefecture_type":"不统计","parent_entity_id":"CNUR-000001","parent_year_end_name":"北京市","province_name":"北京市","province_code":"110000","snapshot_year":2013,"panel_year":2012,"link_status":"parent_linked","former_name":"大兴县","note":"2001年撤销大兴县，设立大兴区"},"geometry":{"type":"Polygon","coordinates":[[[116.52907,39.82348],[116.53578,39.80209],[116.52512,39.79058],[116.5321,39.78008],[116.52456,39.77747],[116.53474,39.75997],[116.51468,39.76457],[116.51705,39.74832],[116.52607,39.74757],[116.52157,39.74221],[116.53393,39.73985],[116.52629,39.73758],[116.53132,39.72103],[116.52102,39.71576],[116.57094,39.70853],[116.59486,39.71135],[116.61595,39.72705],[116.63165,39.72302],[116.63772,39.70955],[116.64733,39.70738],[116.64017,39.69994],[116.64505,39.68718],[116.65862,39.6849],[116.66041,39.67518],[116.69794,39.67144],[116.6969,39.64854],[116.70432,39.63669],[116.71792,39.63768],[116.71953,39.62288],[116.69465,39.61987],[116.69723,39.60907],[116.72107,39.59187],[116.69915,39.58682],[116.68895,39.59817],[116.65886,39.60447],[116.62259,39.59853],[116.60194,39.62385],[116.58959,39.61703],[116.56017,39.61874],[116.55773,39.6026],[116.51987,39.5956],[116.5138,39.58071],[116.52097,39.57199],[116.50286,39.55917],[116.50241,39.54958],[116.46715,39.55189],[116.47168,39.53497],[116.45835,39.52634],[116.43065,39.52501],[116.43767,39.50852],[116.41846,39.50839],[116.41526,39.52397],[116.39648,39.52553],[116.39856,39.51241],[116.4171,39.49527],[116.40574,39.4806],[116.42045,39.48645],[116.42213,39.47488],[116.43801,39.48089],[116.4499,39.45811],[116.44408,39.44722],[116.42864,39.44208],[116.32784,39.45467],[116.29932,39.48823],[116.25293,39.49893],[116.23946,39.51493],[116.24004,39.55625],[116.22142,39.56462],[116.21532,39.57734],[116.20975,39.62358],[116.21591,39.66672],[116.24203,39.73368],[116.24548,39.79213],[116.2814,39.79804],[116.30378,39.76789],[116.31718,39.79719],[116.34973,39.80495],[116.36088,39.79817],[116.36129,39.78617],[116.38404,39.7789],[116.38511,39.76363],[116.3921,39.76428],[116.39017,39.78557],[116.42322,39.79315],[116.41632,39.80904],[116.40371,39.81002],[116.41336,39.814],[116.40951,39.8281],[116.43416,39.82794],[116.46824,39.80852],[116.48363,39.81768],[116.50044,39.81647],[116.50875,39.82852],[116.52907,39.82348]]]}},{"type":"Feature","id":"CTAMAP-2013-COUNTY-0334","properties":{"map_level":"county","source_name":"东城区","source_code":"110101","county_type":"市辖区","prefecture_name":"不统计","prefecture_code":"0","prefecture_type":"不统计","parent_entity_id":"CNUR-000001","parent_year_end_name":"北京市","province_name":"北京市","province_code":"110000","snapshot_year":2013,"panel_year":2012,"link_status":"parent_linked","former_name":"崇文区(东城区)","note":"2010年撤销崇文区，合并到东城区"},"geometry":{"type":"Polygon","coordinates":[[[116.43683,39.87053],[116.41485,39.8714],[116.40491,39.85757],[116.37496,39.86662],[116.39317,39.8707],[116.38546,39.91049],[116.3932,39.92701],[116.38731,39.95572],[116.38038,39.95534],[116.3833,39.96165],[116.40164,39.96065],[116.40127,39.97261],[116.40783,39.96059],[116.42341,39.95811],[116.42379,39.9489],[116.44113,39.94373],[116.43756,39.92731],[116.42807,39.92817],[116.4302,39.90112],[116.44234,39.90204],[116.44471,39.89225],[116.43782,39.88868],[116.43683,39.87053]]]}},{"type":"Feature","id":"CTAMAP-2013-COUNTY-0412","properties":{"map_level":"county","source_name":"房山区","source_code":"110111","county_type":"市辖区","prefecture_name":"不统计","prefecture_code":"0","prefecture_type":"不统计","parent_entity_id":"CNUR-000001","parent_year_end_name":"北京市","province_name":"北京市","province_code":"110000","snapshot_year":2013,"panel_year":2012,"link_status":"parent_linked","former_name":"","note":""},"geometry":{"type":"Polygon","coordinates":[[[116.0484,39.84461],[116.08038,39.82993],[116.08556,39.78106],[116.11251,39.78982],[116.12544,39.7824],[116.11185,39.77335],[116.11586,39.76114],[116.15418,39.76586],[116.16337,39.78314],[116.19434,39.77713],[116.20811,39.82239],[116.22428,39.82413],[116.24155,39.80505],[116.24203,39.73368],[116.20956,39.63315],[116.21532,39.57734],[116.20224,39.57643],[116.198,39.58758],[116.17851,39.58965],[116.14901,39.58235],[116.13046,39.56718],[116.11438,39.57347],[116.09998,39.56954],[116.09511,39.57865],[116.0292,39.57037],[116.01859,39.57445],[116.02008,39.58618],[115.98916,39.57593],[115.98544,39.59246],[115.9721,39.59315],[115.97217,39.57175],[115.95162,39.55989],[115.92433,39.59238],[115.90445,39.59972],[115.90696,39.57201],[115.90198,39.5659],[115.88454,39.56762],[115.88162,39.54978],[115.86041,39.5455],[115.84952,39.55396],[115.81312,39.52978],[115.82264,39.50599],[115.76124,39.51473],[115.76257,39.50774],[115.74598,39.51291],[115.73234,39.54518],[115.71698,39.54284],[115.71084,39.55934],[115.68626,39.56542],[115.6934,39.57586],[115.68193,39.59988],[115.66125,39.61449],[115.65096,39.5987],[115.61205,39.60297],[115.57512,39.5884],[115.53959,39.61771],[115.5082,39.59081],[115.50634,39.61013],[115.51591,39.6211],[115.51622,39.63885],[115.50045,39.65095],[115.47182,39.65104],[115.49261,39.68856],[115.48517,39.70265],[115.48625,39.73724],[115.43392,39.7504],[115.4288,39.76881],[115.41833,39.77298],[115.43635,39.78381],[115.45173,39.78096],[115.47704,39.79749],[115.50061,39.78237],[115.54876,39.79447],[115.56318,39.81245],[115.58964,39.81955],[115.62489,39.87092],[115.76262,39.92393],[115.79775,39.91994],[115.83953,39.89606],[115.87396,39.91537],[115.93502,39.91655],[115.93879,39.90037],[115.91683,39.88447],[115.91937,39.8765],[115.94827,39.86572],[115.99085,39.87424],[115.97827,39.84956],[115.98322,39.8393],[116.00331,39.84881],[116.01361,39.83901],[116.0484,39.84461]]]}},{"type":"Feature","id":"CTAMAP-2013-COUNTY-0429","properties":{"map_level":"county","source_name":"丰台区","source_code":"110106","county_type":"市辖区","prefecture_name":"不统计","prefecture_code":"0","prefecture_type":"不统计","parent_entity_id":"CNUR-000001","parent_year_end_name":"北京市","province_name":"北京市","province_code":"110000","snapshot_year":2013,"panel_year":2012,"link_status":"parent_linked","former_name":"","note":""},"geometry":{"type":"Polygon","coordinates":[[[116.31978,39.89578],[116.31527,39.87396],[116.37515,39.86957],[116.40317,39.85751],[116.41485,39.8714],[116.43683,39.87053],[116.44015,39.85953],[116.46175,39.85439],[116.40951,39.8281],[116.41336,39.814],[116.40371,39.81002],[116.41632,39.80904],[116.42322,39.79315],[116.39017,39.78557],[116.3921,39.76428],[116.38511,39.76363],[116.38404,39.7789],[116.36129,39.78617],[116.36088,39.79817],[116.34037,39.80654],[116.31718,39.79719],[116.30177,39.7685],[116.28609,39.79607],[116.24656,39.79214],[116.22214,39.82465],[116.20805,39.82236],[116.19434,39.77713],[116.16337,39.78314],[116.15418,39.76586],[116.11586,39.76114],[116.11185,39.77335],[116.12544,39.7824],[116.11251,39.78982],[116.08556,39.78106],[116.08038,39.82993],[116.0484,39.84461],[116.06472,39.85237],[116.06428,39.86712],[116.09533,39.86626],[116.14773,39.88629],[116.18964,39.88231],[116.20141,39.87408],[116.23379,39.8939],[116.28859,39.89526],[116.28814,39.88541],[116.31978,39.89578]]]}},{"type":"Feature","id":"CTAMAP-2013-COUNTY-0612","properties":{"map_level":"county","source_name":"海淀区","source_code":"110108","county_type":"市辖区","prefecture_name":"不统计","prefecture_code":"0","prefecture_type":"不统计","parent_entity_id":"CNUR-000001","parent_year_end_name":"北京市","province_name":"北京市","province_code":"110000","snapshot_year":2013,"panel_year":2012,"link_status":"parent_linked","former_name":"","note":""},"geometry":{"type":"Polygon","coordinates":[[[116.38452,40.03989],[116.38882,40.03142],[116.3446,40.02545],[116.37508,39.97613],[116.37421,39.9668],[116.36389,39.96657],[116.36574,39.94726],[116.35088,39.94261],[116.34691,39.94981],[116.3434,39.9417],[116.32229,39.94068],[116.33206,39.89616],[116.3081,39.89578],[116.28814,39.88541],[116.28897,39.8952],[116.24696,39.89603],[116.24611,39.91977],[116.20068,39.91667],[116.21381,39.94225],[116.17969,39.96896],[116.17894,39.98461],[116.17278,39.98694],[116.16518,39.97563],[116.16103,39.98613],[116.14477,39.99247],[116.16659,39.99966],[116.16565,40.00745],[116.12846,40.02921],[116.07184,40.03135],[116.06515,40.06013],[116.04263,40.08492],[116.07608,40.117],[116.12169,40.11486],[116.16122,40.12321],[116.16146,40.1413],[116.17178,40.14313],[116.17649,40.15676],[116.19612,40.15974],[116.20327,40.13949],[116.24099,40.13496],[116.23406,40.10741],[116.25041,40.10347],[116.27401,40.07861],[116.2843,40.08191],[116.29675,40.05872],[116.32251,40.05347],[116.36391,40.06751],[116.37633,40.06003],[116.36049,40.0518],[116.36335,40.04546],[116.38452,40.03989]]]}},{"type":"Feature","id":"CTAMAP-2013-COUNTY-0745","properties":{"map_level":"county","source_name":"怀柔区","source_code":"110116","county_type":"市辖区","prefecture_name":"不统计","prefecture_code":"0","prefecture_type":"不统计","parent_entity_id":"CNUR-000001","parent_year_end_name":"北京市","province_name":"北京市","province_code":"110000","snapshot_year":2013,"panel_year":2012,"link_status":"parent_linked","former_name":"怀柔县","note":"2001年撤销怀柔县，设立怀柔区"},"geometry":{"type":"Polygon","coordinates":[[[116.69269,41.01962],[116.67701,40.99886],[116.67166,40.96962],[116.69668,40.93491],[116.71453,40.92445],[116.70729,40.90871],[116.77421,40.87453],[116.79879,40.8389],[116.8146,40.84676],[116.85043,40.83356],[116.87452,40.81495],[116.88095,40.79969],[116.83004,40.77057],[116.834,40.75927],[116.82336,40.74849],[116.79467,40.7446],[116.77764,40.75619],[116.78431,40.72778],[116.77916,40.70014],[116.75016,40.70429],[116.70713,40.6762],[116.70609,40.63987],[116.69542,40.61971],[116.70877,40.56964],[116.65984,40.5515],[116.69587,40.54427],[116.70936,40.52264],[116.69495,40.50735],[116.68738,40.47484],[116.70011,40.45863],[116.71602,40.45531],[116.71919,40.41692],[116.73544,40.41493],[116.71023,40.3999],[116.71017,40.38284],[116.70046,40.37254],[116.72054,40.35988],[116.71694,40.33816],[116.7525,40.33279],[116.76736,40.3144],[116.75496,40.31188],[116.75725,40.30099],[116.74751,40.30279],[116.67486,40.23314],[116.66431,40.2337],[116.66738,40.24561],[116.65888,40.26079],[116.61782,40.25949],[116.61621,40.24937],[116.60182,40.25029],[116.59376,40.26245],[116.53187,40.27584],[116.53418,40.26598],[116.51785,40.2563],[116.48253,40.26298],[116.47301,40.27851],[116.4441,40.28801],[116.4495,40.31327],[116.4344,40.32615],[116.3615,40.33483],[116.36337,40.35504],[116.34255,40.35514],[116.35378,40.3653],[116.34918,40.36992],[116.28025,40.39518],[116.28937,40.42307],[116.28771,40.45149],[116.30034,40.46475],[116.28551,40.48399],[116.31704,40.49874],[116.36858,40.4971],[116.38723,40.47104],[116.40089,40.48072],[116.48603,40.47964],[116.51277,40.48982],[116.49253,40.51361],[116.4704,40.5126],[116.45486,40.52299],[116.51913,40.58167],[116.53319,40.62075],[116.56331,40.62407],[116.56853,40.6308],[116.53407,40.65535],[116.52119,40.654],[116.50743,40.67092],[116.48027,40.67363],[116.48217,40.68968],[116.49248,40.69518],[116.50465,40.7248],[116.49472,40.75852],[116.45919,40.77111],[116.45306,40.79427],[116.43108,40.81867],[116.4013,40.83051],[116.39374,40.84814],[116.32819,40.90292],[116.3281,40.91977],[116.364,40.94186],[116.39257,40.90415],[116.46781,40.8943],[116.46738,40.91822],[116.44605,40.94907],[116.44923,40.97806],[116.45785,40.98269],[116.5102,40.97355],[116.55737,40.99209],[116.59589,40.97425],[116.6086,40.9818],[116.61698,41.01921],[116.60802,41.0415],[116.62553,41.05896],[116.67092,41.04109],[116.68353,41.04283],[116.69269,41.01962]]]}},{"type":"Feature","id":"CTAMAP-2013-COUNTY-1345","properties":{"map_level":"county","source_name":"门头沟区","source_code":"110109","county_type":"市辖区","prefecture_name":"不统计","prefecture_code":"0","prefecture_type":"不统计","parent_entity_id":"CNUR-000001","parent_year_end_name":"北京市","province_name":"北京市","province_code":"110000","snapshot_year":2013,"panel_year":2012,"link_status":"parent_linked","former_name":"","note":""},"geometry":{"type":"Polygon","coordinates":[[[115.80037,40.15208],[115.91608,40.13317],[115.94053,40.10932],[115.93782,40.1017],[115.95637,40.0976],[115.96255,40.07437],[115.98034,40.0823],[116.0178,40.07616],[116.04259,40.08395],[116.06515,40.06013],[116.07184,40.03135],[116.12846,40.02921],[116.15766,40.01552],[116.16659,39.99966],[116.10836,39.98124],[116.11641,39.96583],[116.10562,39.9416],[116.13502,39.92081],[116.16373,39.88597],[116.13183,39.88245],[116.09533,39.86626],[116.06607,39.8678],[116.06472,39.85237],[116.0484,39.84461],[116.01361,39.83901],[116.00331,39.84881],[115.98401,39.83911],[115.97827,39.84956],[115.99085,39.87424],[115.94827,39.86572],[115.91937,39.8765],[115.91683,39.88447],[115.93879,39.90037],[115.93502,39.91655],[115.87396,39.91537],[115.83953,39.89606],[115.79775,39.91994],[115.76262,39.92393],[115.62489,39.87092],[115.59075,39.82071],[115.56959,39.811],[115.50711,39.84066],[115.52246,39.87106],[115.50276,39.883],[115.51429,39.90103],[115.48076,39.92256],[115.47458,39.93436],[115.41736,39.9539],[115.41936,39.97657],[115.44223,39.99688],[115.43555,40.00917],[115.44811,40.02845],[115.47742,40.03816],[115.52108,40.07492],[115.54491,40.0779],[115.55779,40.09711],[115.58462,40.09536],[115.59224,40.11814],[115.63568,40.11482],[115.64839,40.13022],[115.72906,40.12846],[115.74746,40.14226],[115.74804,40.16203],[115.77141,40.17662],[115.78077,40.1775],[115.7807,40.16921],[115.80037,40.15208]]]}},{"type":"Feature","id":"CTAMAP-2013-COUNTY-1366","properties":{"map_level":"county","source_name":"密云县","source_code":"110228","county_type":"县","prefecture_name":"不统计","prefecture_code":"0","prefecture_type":"不统计","parent_entity_id":"CNUR-000001","parent_year_end_name":"北京市","province_name":"北京市","province_code":"110000","snapshot_year":2013,"panel_year":2012,"link_status":"parent_linked","former_name":"","note":""},"geometry":{"type":"Polygon","coordinates":[[[117.47465,40.67632],[117.50782,40.65466],[117.49627,40.65162],[117.49387,40.63476],[117.47148,40.63372],[117.45532,40.65151],[117.44219,40.64989],[117.44035,40.62666],[117.42617,40.62418],[117.42213,40.63603],[117.41443,40.63382],[117.41785,40.61869],[117.40598,40.60353],[117.42306,40.57772],[117.41493,40.56775],[117.39474,40.56989],[117.38092,40.55922],[117.34022,40.58034],[117.30833,40.57694],[117.2431,40.54681],[117.25696,40.51183],[117.21227,40.51296],[117.20156,40.4985],[117.22132,40.48075],[117.22884,40.45612],[117.25559,40.43904],[117.22872,40.41595],[117.23296,40.39292],[117.21764,40.37409],[117.14956,40.37148],[117.111,40.35243],[117.09029,40.35812],[117.05457,40.33697],[117.01589,40.33566],[117.0006,40.31829],[117.00519,40.30625],[116.99768,40.29327],[116.96937,40.28335],[116.94501,40.26003],[116.96947,40.24834],[116.95396,40.23156],[116.91813,40.22511],[116.89025,40.23075],[116.86563,40.287],[116.85122,40.2917],[116.84281,40.31024],[116.82296,40.30298],[116.81102,40.28073],[116.78321,40.28796],[116.77597,40.27166],[116.76036,40.26661],[116.73422,40.2781],[116.74751,40.30279],[116.75725,40.30099],[116.75496,40.31188],[116.76735,40.31451],[116.7525,40.33279],[116.71694,40.33816],[116.72054,40.35988],[116.70046,40.37254],[116.71017,40.38284],[116.71023,40.3999],[116.73544,40.41493],[116.71919,40.41692],[116.71602,40.45531],[116.70011,40.45863],[116.68738,40.47484],[116.69495,40.50735],[116.70936,40.52264],[116.69587,40.54427],[116.6598,40.55126],[116.70877,40.56964],[116.69542,40.61971],[116.70609,40.63987],[116.70713,40.6762],[116.75016,40.70429],[116.77916,40.70014],[116.78431,40.72778],[116.77764,40.75619],[116.79467,40.7446],[116.82336,40.74849],[116.834,40.75927],[116.83004,40.77057],[116.88095,40.79969],[116.89054,40.79539],[116.88643,40.77897],[116.9191,40.7715],[116.91749,40.74927],[116.93663,40.72852],[116.9628,40.70616],[116.99618,40.69589],[117.0217,40.6922],[117.10242,40.70557],[117.13164,40.69548],[117.19952,40.69305],[117.23497,40.67512],[117.25492,40.67974],[117.27892,40.65968],[117.31255,40.65644],[117.33047,40.6618],[117.33604,40.67201],[117.40256,40.68567],[117.45946,40.67184],[117.47465,40.67632]]]}},{"type":"Feature","id":"CTAMAP-2013-COUNTY-1506","properties":{"map_level":"county","source_name":"平谷区","source_code":"110117","county_type":"市辖区","prefecture_name":"不统计","prefecture_code":"0","prefecture_type":"不统计","parent_entity_id":"CNUR-000001","parent_year_end_name":"北京市","province_name":"北京市","province_code":"110000","snapshot_year":2013,"panel_year":2012,"link_status":"parent_linked","former_name":"平谷县","note":"2001年撤销平谷县，设立平谷区"},"geometry":{"type":"Polygon","coordinates":[[[117.21764,40.37409],[117.21976,40.36778],[117.23663,40.36809],[117.25352,40.33474],[117.26844,40.33131],[117.26791,40.30726],[117.28686,40.29522],[117.28924,40.27692],[117.32534,40.28831],[117.33904,40.23499],[117.34504,40.22808],[117.38335,40.22647],[117.38692,40.22012],[117.37086,40.21713],[117.37185,40.20866],[117.38659,40.20243],[117.37317,40.20051],[117.37718,40.18653],[117.39115,40.19146],[117.40027,40.18469],[117.34494,40.17171],[117.35399,40.15556],[117.34122,40.13454],[117.30708,40.13862],[117.29113,40.11768],[117.23323,40.1115],[117.21875,40.09489],[117.20492,40.09478],[117.19792,40.06853],[117.1854,40.07166],[117.17927,40.0836],[117.1743,40.06863],[117.15424,40.07518],[117.13269,40.06265],[117.07908,40.07371],[117.03137,40.04681],[117.01859,40.02883],[116.96961,40.03647],[116.95485,40.05777],[116.97217,40.06385],[116.98013,40.07715],[116.96354,40.09918],[116.9614,40.12835],[116.96993,40.14826],[116.9589,40.16873],[116.94138,40.17695],[116.92336,40.20944],[116.9324,40.21308],[116.93084,40.23121],[116.95386,40.23152],[116.96805,40.24344],[116.96853,40.24991],[116.94503,40.26006],[116.96937,40.28335],[116.99768,40.29327],[117.00519,40.30625],[117.0006,40.31829],[117.01589,40.33566],[117.05457,40.33697],[117.09029,40.35812],[117.111,40.35243],[117.14956,40.37148],[117.21764,40.37409]]]}},{"type":"Feature","id":"CTAMAP-2013-COUNTY-1789","properties":{"map_level":"county","source_name":"石景山区","source_code":"110107","county_type":"市辖区","prefecture_name":"不统计","prefecture_code":"0","prefecture_type":"不统计","parent_entity_id":"CNUR-000001","parent_year_end_name":"北京市","province_name":"北京市","province_code":"110000","snapshot_year":2013,"panel_year":2012,"link_status":"parent_linked","former_name":"","note":""},"geometry":{"type":"Polygon","coordinates":[[[116.14485,39.99233],[116.16103,39.98613],[116.16518,39.97563],[116.17278,39.98694],[116.17894,39.98461],[116.17969,39.96896],[116.21381,39.94225],[116.20068,39.91667],[116.24611,39.91977],[116.25227,39.89431],[116.23379,39.8939],[116.20141,39.87408],[116.16373,39.88597],[116.13502,39.92081],[116.11316,39.93158],[116.10561,39.94184],[116.11641,39.96583],[116.10771,39.98007],[116.14485,39.99233]]]}},{"type":"Feature","id":"CTAMAP-2013-COUNTY-1838","properties":{"map_level":"county","source_name":"顺义区","source_code":"110113","county_type":"市辖区","prefecture_name":"不统计","prefecture_code":"0","prefecture_type":"不统计","parent_entity_id":"CNUR-000001","parent_year_end_name":"北京市","province_name":"北京市","province_code":"110000","snapshot_year":2013,"panel_year":2012,"link_status":"parent_linked","former_name":"","note":""},"geometry":{"type":"Polygon","coordinates":[[[116.89025,40.23075],[116.93504,40.22274],[116.92496,40.20563],[116.96993,40.14826],[116.9614,40.12835],[116.96354,40.09918],[116.98013,40.07715],[116.93927,40.04032],[116.92573,40.05094],[116.90808,40.05153],[116.86499,40.03922],[116.84418,40.05389],[116.82568,40.05002],[116.80925,40.02972],[116.77344,40.03334],[116.76628,40.01228],[116.749,40.0145],[116.73572,40.02637],[116.71134,40.01838],[116.70261,40.02538],[116.68121,40.01245],[116.65244,40.0234],[116.62105,40.02026],[116.60842,40.03068],[116.58963,40.01627],[116.54535,40.0454],[116.54507,40.05805],[116.45908,40.09125],[116.48649,40.10739],[116.47307,40.14527],[116.4819,40.15658],[116.47063,40.15772],[116.48204,40.19031],[116.46468,40.2081],[116.46765,40.21978],[116.47885,40.22207],[116.47639,40.24514],[116.49298,40.24906],[116.49858,40.2598],[116.52983,40.26043],[116.53187,40.27584],[116.59376,40.26245],[116.60182,40.25029],[116.61621,40.24937],[116.61782,40.25949],[116.65888,40.26079],[116.66738,40.24561],[116.66431,40.2337],[116.67804,40.23309],[116.73285,40.28282],[116.76577,40.26755],[116.77597,40.27166],[116.78321,40.28796],[116.8165,40.28337],[116.82296,40.30298],[116.84281,40.31024],[116.85122,40.2917],[116.86563,40.287],[116.89025,40.23075]],[[116.57458,40.08904],[116.56889,40.10678],[116.57296,40.07119],[116.58088,40.07321],[116.5861,40.04205],[116.59205,40.04043],[116.59273,40.05148],[116.6026,40.05385],[116.59258,40.10281],[116.59009,40.08916],[116.57458,40.08904]]]}},{"type":"Feature","id":"CTAMAP-2013-COUNTY-2126","properties":{"map_level":"county","source_name":"西城区","source_code":"110102","county_type":"市辖区","prefecture_name":"不统计","prefecture_code":"0","prefecture_type":"不统计","parent_entity_id":"CNUR-000001","parent_year_end_name":"北京市","province_name":"北京市","province_code":"110000","snapshot_year":2013,"panel_year":2012,"link_status":"parent_linked","former_name":"宣武区(西城区)","note":"2010年撤销宣武区，合并到西城区"},"geometry":{"type":"Polygon","coordinates":[[[116.38139,39.96006],[116.3932,39.92701],[116.38546,39.91049],[116.39317,39.8707],[116.34452,39.86755],[116.33638,39.87463],[116.31527,39.87396],[116.31978,39.89578],[116.33206,39.89616],[116.32229,39.94068],[116.3434,39.9417],[116.34691,39.94981],[116.35088,39.94261],[116.36574,39.94726],[116.36389,39.96657],[116.38784,39.97167],[116.38139,39.96006]]]}},{"type":"Feature","id":"CTAMAP-2013-COUNTY-2327","properties":{"map_level":"county","source_name":"延庆县","source_code":"110229","county_type":"县","prefecture_name":"不统计","prefecture_code":"0","prefecture_type":"不统计","parent_entity_id":"CNUR-000001","parent_year_end_name":"北京市","province_name":"北京市","province_code":"110000","snapshot_year":2013,"panel_year":2012,"link_status":"parent_linked","former_name":"","note":""},"geometry":{"type":"Polygon","coordinates":[[[116.45919,40.77111],[116.49414,40.75928],[116.50345,40.73417],[116.49844,40.70637],[116.47805,40.6764],[116.50743,40.67092],[116.52126,40.65395],[116.53407,40.65535],[116.55,40.6395],[116.56824,40.63447],[116.56341,40.6241],[116.53319,40.62075],[116.51913,40.58167],[116.45486,40.52299],[116.4704,40.5126],[116.49253,40.51361],[116.51277,40.48982],[116.48603,40.47964],[116.40089,40.48072],[116.38723,40.47104],[116.36322,40.49892],[116.31722,40.49877],[116.28662,40.48464],[116.30034,40.46475],[116.28463,40.44002],[116.28937,40.42307],[116.28025,40.39518],[116.28358,40.37854],[116.22569,40.37386],[116.20848,40.381],[116.14218,40.36056],[116.14959,40.34307],[116.14165,40.33431],[116.13972,40.34586],[116.13211,40.34391],[116.13575,40.31577],[116.12852,40.31114],[116.11592,40.31144],[116.10329,40.32925],[116.06589,40.33726],[116.05321,40.33331],[116.04605,40.3151],[116.0275,40.31018],[116.01319,40.33137],[116.00155,40.33191],[115.96824,40.31696],[115.9839,40.29848],[115.97231,40.2916],[115.97571,40.2757],[115.95968,40.26482],[115.93385,40.30202],[115.93525,40.31067],[115.91809,40.32519],[115.91232,40.35281],[115.85196,40.36224],[115.85435,40.37454],[115.83532,40.3767],[115.77297,40.44135],[115.76454,40.44131],[115.76347,40.46826],[115.77551,40.49206],[115.73587,40.49535],[115.72954,40.50266],[115.74665,40.53495],[115.77841,40.55704],[115.81383,40.55821],[115.82156,40.58606],[115.87994,40.59476],[115.90179,40.61609],[115.96073,40.60502],[115.97731,40.57746],[116.00361,40.58772],[116.02206,40.60582],[116.02487,40.59602],[116.09246,40.62899],[116.11532,40.62757],[116.1049,40.64566],[116.12848,40.66549],[116.15833,40.66183],[116.17293,40.7075],[116.21385,40.74435],[116.2415,40.79028],[116.26196,40.77603],[116.268,40.76243],[116.28407,40.76277],[116.30246,40.75043],[116.30177,40.76219],[116.31138,40.7706],[116.37311,40.77061],[116.4015,40.77871],[116.41852,40.76576],[116.44768,40.76423],[116.45919,40.77111]]]}},{"type":"Feature","id":"CTAMAP-2013-COUNTY-2763","properties":{"map_level":"county","source_name":"朝阳区","source_code":"110105","county_type":"市辖区","prefecture_name":"不统计","prefecture_code":"0","prefecture_type":"不统计","parent_entity_id":"CNUR-000001","parent_year_end_name":"北京市","province_name":"北京市","province_code":"110000","snapshot_year":2013,"panel_year":2012,"link_status":"parent_linked","former_name":"","note":""},"geometry":{"type":"MultiPolygon","coordinates":[[[[116.58963,40.01627],[116.62233,40.00689],[116.63797,39.99053],[116.63942,39.9447],[116.62617,39.94907],[116.62488,39.92038],[116.61427,39.92219],[116.61627,39.90133],[116.60969,39.89514],[116.60989,39.88857],[116.62222,39.88935],[116.61401,39.86785],[116.62083,39.85937],[116.59866,39.84911],[116.5965,39.83063],[116.586,39.82275],[116.53937,39.83493],[116.52733,39.83168],[116.52907,39.82348],[116.50875,39.82852],[116.50044,39.81647],[116.48363,39.81768],[116.46824,39.80852],[116.41892,39.8309],[116.4455,39.85058],[116.46161,39.85143],[116.4368,39.86486],[116.43782,39.88868],[116.44471,39.89225],[116.44234,39.90204],[116.4302,39.90112],[116.42807,39.92817],[116.43756,39.92731],[116.44113,39.94373],[116.42379,39.9489],[116.41883,39.96079],[116.40783,39.96059],[116.40311,39.97266],[116.40164,39.96065],[116.38139,39.96006],[116.38784,39.97167],[116.37473,39.97137],[116.37078,39.99089],[116.3446,40.02545],[116.38882,40.03142],[116.38452,40.03989],[116.39923,40.03778],[116.40333,40.05419],[116.41776,40.05809],[116.4177,40.06478],[116.4535,40.05872],[116.46077,40.08888],[116.54507,40.05805],[116.54535,40.0454],[116.58963,40.01627]]],[[[116.57458,40.08904],[116.59009,40.08916],[116.59258,40.10281],[116.6026,40.05385],[116.59273,40.05148],[116.59205,40.04043],[116.5861,40.04205],[116.58088,40.07321],[116.57296,40.07119],[116.56889,40.10678],[116.57458,40.08904]]]]}},{"type":"Feature","id":"CTAMAP-2013-COUNTY-2765","properties":{"map_level":"county","source_name":"通州区","source_code":"110112","county_type":"市辖区","prefecture_name":"不统计","prefecture_code":"0","prefecture_type":"不统计","parent_entity_id":"CNUR-000001","parent_year_end_name":"北京市","province_name":"北京市","province_code":"110000","snapshot_year":2013,"panel_year":2012,"link_status":"parent_linked","former_name":"","note":""},"geometry":{"type":"Polygon","coordinates":[[[116.76628,40.01228],[116.77034,39.99201],[116.75125,39.96],[116.77757,39.94258],[116.78004,39.88515],[116.79809,39.87691],[116.80625,39.88853],[116.80711,39.88012],[116.81945,39.87717],[116.8411,39.85391],[116.88013,39.84364],[116.89653,39.83001],[116.89836,39.85007],[116.91354,39.84583],[116.94006,39.78105],[116.91521,39.77948],[116.89572,39.76229],[116.90953,39.73031],[116.87671,39.71753],[116.88659,39.68903],[116.89898,39.68876],[116.90065,39.67661],[116.84397,39.6665],[116.84538,39.65138],[116.81793,39.63401],[116.83256,39.62111],[116.784,39.60935],[116.7845,39.59519],[116.77537,39.59192],[116.74852,39.61683],[116.7245,39.61795],[116.71556,39.62811],[116.71792,39.63768],[116.70432,39.63669],[116.69668,39.64911],[116.69794,39.67144],[116.66385,39.6734],[116.65862,39.6849],[116.64505,39.68718],[116.64017,39.69994],[116.64733,39.70738],[116.63772,39.70955],[116.63165,39.72302],[116.61595,39.72705],[116.59486,39.71135],[116.57094,39.70853],[116.56726,39.71388],[116.52452,39.71246],[116.53132,39.72103],[116.52644,39.7384],[116.53388,39.7404],[116.52157,39.74221],[116.52607,39.74757],[116.51705,39.74832],[116.51468,39.76457],[116.53474,39.75997],[116.52456,39.77747],[116.5321,39.78008],[116.52512,39.79058],[116.53578,39.80209],[116.5274,39.83174],[116.56313,39.8324],[116.586,39.82275],[116.5965,39.83063],[116.59866,39.84911],[116.62083,39.85937],[116.61401,39.86785],[116.62222,39.88935],[116.60989,39.88857],[116.60969,39.89514],[116.61627,39.90133],[116.61427,39.92219],[116.62488,39.92038],[116.62617,39.94907],[116.63942,39.9447],[116.63767,39.9927],[116.62233,40.00689],[116.58963,40.01627],[116.59698,40.02745],[116.60842,40.03068],[116.62105,40.02026],[116.65244,40.0234],[116.68121,40.01245],[116.70261,40.02538],[116.71134,40.01838],[116.73572,40.02637],[116.749,40.0145],[116.76628,40.01228]]]}}]}