{"type":"FeatureCollection","features":[{"type":"Feature","id":"CTAMAP-2023-COUNTY-0000","properties":{"map_level":"county","source_name":"西沙区","source_code":"460301","county_type":"市辖区","prefecture_name":"三沙市","prefecture_code":"460300","prefecture_type":"地级市","parent_entity_id":"CNUR-000233","parent_year_end_name":"三沙市","province_name":"海南省","province_code":"460000","snapshot_year":2023,"panel_year":2022,"link_status":"parent_linked","former_name":"","note":"2020年新设西沙区"},"geometry":{"type":"MultiPolygon","coordinates":[[[[117.73178,15.23722],[117.77841,15.1892],[117.83492,15.16111],[117.84045,15.12914],[117.82507,15.15481],[117.77502,15.17388],[117.73559,15.22089],[117.7223,15.215],[117.71646,15.19713],[117.72088,15.133],[117.82483,15.11003],[117.72251,15.1072],[117.70838,15.12007],[117.70394,15.18433],[117.71085,15.2244],[117.73178,15.23722]]],[[[111.67798,16.26257],[111.59084,16.19229],[111.60925,16.17958],[111.66346,16.20889],[111.6912,16.21304],[111.69587,16.20033],[111.65179,16.18607],[111.6064,16.15832],[111.58512,16.15571],[111.56359,16.16478],[111.56489,16.19746],[111.57319,16.21042],[111.64478,16.25764],[111.67798,16.26257]]],[[[112.45733,16.04576],[112.6031,16.06882],[112.60763,16.0413],[112.57919,16.01692],[112.47174,16.00309],[112.44136,16.01108],[112.44188,16.02964],[112.45733,16.04576]]],[[[111.80837,16.26369],[111.81725,16.24037],[111.8121,16.22609],[111.77509,16.19937],[111.7477,16.19472],[111.72613,16.20053],[111.72762,16.20817],[111.78555,16.22244],[111.79036,16.23771],[111.78488,16.25182],[111.75949,16.25763],[111.71169,16.25066],[111.67916,16.26244],[111.7853,16.27647],[111.80837,16.26369]]],[[[113.88946,19.15984],[113.84914,19.15407],[113.80637,19.17282],[113.79464,19.20079],[113.80189,19.22494],[113.87119,19.23885],[113.91566,19.22539],[113.92494,19.20699],[113.9185,19.18936],[113.88946,19.15984]]],[[[112.53411,16.29102],[112.47099,16.29066],[112.40629,16.26522],[112.37427,16.27087],[112.38108,16.28762],[112.39746,16.29524],[112.50455,16.31925],[112.53225,16.3144],[112.53411,16.29102]]],[[[111.55468,17.11035],[111.55443,17.08948],[111.48887,17.0603],[111.47745,17.0626],[111.47711,17.07869],[111.49666,17.07597],[111.51234,17.09104],[111.53352,17.09588],[111.53185,17.10646],[111.48177,17.09396],[111.45264,17.07687],[111.44441,17.08256],[111.44708,17.09467],[111.50387,17.11828],[111.53723,17.12172],[111.55468,17.11035]]],[[[112.50277,16.4679],[112.49147,16.47702],[112.49481,16.49541],[112.57072,16.53926],[112.57942,16.53346],[112.57432,16.51506],[112.52772,16.49309],[112.50277,16.4679]]],[[[112.05664,16.31621],[111.9909,16.30892],[111.97259,16.32084],[111.97311,16.33546],[111.99808,16.35262],[112.04231,16.36211],[112.0734,16.34807],[112.07634,16.3331],[112.05664,16.31621]]],[[[114.80284,16.19579],[114.69898,16.17207],[114.70038,16.20117],[114.79864,16.21676],[114.81505,16.20953],[114.80284,16.19579]]],[[[111.74723,16.45756],[111.7345,16.45479],[111.73548,16.47066],[111.75503,16.48377],[111.7607,16.50362],[111.75787,16.52096],[111.73614,16.54037],[111.73962,16.5537],[111.75442,16.54753],[111.78357,16.51457],[111.74723,16.45756]]],[[[113.02247,19.47582],[112.99562,19.47138],[112.98014,19.48271],[112.9755,19.49788],[112.9886,19.52783],[113.01137,19.53325],[113.03602,19.52033],[113.04301,19.49513],[113.02247,19.47582]]],[[[116.73179,16.3025],[116.70401,16.30168],[116.69387,16.31746],[116.69074,16.34744],[116.72049,16.37652],[116.74355,16.36237],[116.74343,16.32352],[116.73179,16.3025]]],[[[115.41745,13.93122],[115.39315,13.92636],[115.35742,13.95036],[115.37289,13.97031],[115.41898,13.9788],[115.43429,13.96241],[115.43417,13.94496],[115.41745,13.93122]]],[[[112.28844,16.96947],[112.21045,16.963],[112.19825,16.96938],[112.19556,16.98033],[112.21802,16.99471],[112.25012,16.9987],[112.29114,16.98134],[112.28844,16.96947]]],[[[112.34724,16.91371],[112.33523,16.91784],[112.32606,16.93756],[112.299,16.96196],[112.3001,16.97516],[112.32908,16.96416],[112.34523,16.946],[112.35559,16.92692],[112.34724,16.91371]]],[[[111.78657,16.03069],[111.7562,16.04356],[111.75304,16.06117],[111.82484,16.07291],[111.82371,16.05124],[111.78657,16.03069]]],[[[114.48076,16.0365],[114.44813,16.03253],[114.4444,16.04837],[114.46096,16.06909],[114.47731,16.07301],[114.51916,16.06624],[114.51735,16.05836],[114.48076,16.0365]]],[[[114.31465,16.04189],[114.30332,16.0359],[114.20849,16.04244],[114.27859,16.06226],[114.30197,16.0594],[114.31465,16.04189]]],[[[112.22632,15.69647],[112.20398,15.69714],[112.19879,15.71588],[112.24704,15.74477],[112.2551,15.73666],[112.24937,15.71336],[112.22632,15.69647]]],[[[112.24922,16.75372],[112.23113,16.75505],[112.19935,16.77588],[112.20597,16.79769],[112.25732,16.7799],[112.26039,16.77194],[112.24922,16.75372]]],[[[111.60393,16.44053],[111.57374,16.44941],[111.56831,16.472],[111.57903,16.49287],[111.58781,16.4928],[111.607,16.46586],[111.61106,16.44926],[111.60393,16.44053]]],[[[112.67281,16.39031],[112.65988,16.38273],[112.64168,16.38765],[112.63986,16.40518],[112.6553,16.42864],[112.67441,16.41537],[112.67281,16.39031]]],[[[114.91614,16.0051],[114.90688,16.00401],[114.89139,16.03818],[114.90476,16.05716],[114.91401,16.05545],[114.92319,16.03528],[114.91614,16.0051]]],[[[111.545,16.44376],[111.53235,16.43433],[111.49027,16.43915],[111.48922,16.44492],[111.49515,16.45374],[111.53401,16.46348],[111.54392,16.45938],[111.545,16.44376]]],[[[111.72662,16.56243],[111.69995,16.57571],[111.687,16.59396],[111.70438,16.59824],[111.71816,16.59155],[111.72662,16.56243]]],[[[113.96869,15.80747],[113.94871,15.8075],[113.93409,15.82038],[113.9341,15.83722],[113.96613,15.8411],[113.97547,15.82817],[113.96869,15.80747]]],[[[112.8787,16.75566],[112.86652,16.75756],[112.86935,16.77475],[112.89839,16.78932],[112.89937,16.76892],[112.8787,16.75566]]],[[[114.61464,15.63468],[114.60686,15.61718],[114.59006,15.61722],[114.57718,15.62726],[114.58626,15.64351],[114.60306,15.65223],[114.61464,15.63468]]],[[[114.12949,15.98347],[114.10052,15.98458],[114.10069,16.00565],[114.109,16.01283],[114.12727,16.00895],[114.13322,15.99569],[114.12949,15.98347]]],[[[113.88958,15.46582],[113.86925,15.46362],[113.85667,15.48145],[113.86813,15.49334],[113.88806,15.49205],[113.89477,15.48037],[113.88958,15.46582]]],[[[111.20537,15.77361],[111.19101,15.77502],[111.1916,15.7915],[111.22079,15.80256],[111.22491,15.78868],[111.20537,15.77361]]],[[[112.69648,16.33364],[112.66707,16.33349],[112.67298,16.36108],[112.69289,16.35868],[112.69648,16.33364]]],[[[114.01733,15.41175],[114.00736,15.41046],[113.9772,15.42295],[113.98568,15.4343],[114.00727,15.43179],[114.0199,15.42421],[114.01733,15.41175]]],[[[113.757,15.60133],[113.71983,15.59467],[113.71039,15.60205],[113.71302,15.60995],[113.73697,15.61645],[113.75488,15.61092],[113.757,15.60133]]],[[[113.91588,15.66128],[113.89041,15.65394],[113.88941,15.67581],[113.89587,15.68586],[113.91573,15.68715],[113.91588,15.66128]]],[[[114.47532,15.57725],[114.46238,15.57812],[114.45325,15.60117],[114.47354,15.6034],[114.48752,15.59514],[114.47532,15.57725]]],[[[114.78596,15.90074],[114.78328,15.86947],[114.76389,15.87078],[114.75749,15.89082],[114.76787,15.9033],[114.78596,15.90074]]],[[[114.24655,15.43101],[114.23059,15.43408],[114.24213,15.45936],[114.26015,15.44652],[114.24655,15.43101]]],[[[112.74134,16.65496],[112.72327,16.65774],[112.71718,16.67786],[112.7311,16.68024],[112.74374,16.67141],[112.74134,16.65496]]],[[[112.35544,16.84165],[112.33569,16.82288],[112.3243,16.8363],[112.34607,16.84753],[112.35544,16.84165]]],[[[111.60657,16.5289],[111.59523,16.53071],[111.59681,16.53788],[111.62908,16.54772],[111.60657,16.5289]]],[[[114.26786,15.52552],[114.25339,15.52832],[114.2609,15.55202],[114.27877,15.53936],[114.26786,15.52552]]],[[[111.66467,16.55855],[111.65066,16.5606],[111.65089,16.56737],[111.67475,16.57886],[111.67774,16.56989],[111.66467,16.55855]]],[[[111.47048,17.06137],[111.46375,17.06036],[111.45403,17.07455],[111.46934,17.07447],[111.47048,17.06137]]],[[[111.7189,16.20363],[111.70068,16.20423],[111.69905,16.21114],[111.71711,16.21397],[111.7189,16.20363]]],[[[111.69364,16.44804],[111.71172,16.45568],[111.71721,16.44865],[111.69364,16.44804]]],[[[112.64043,16.57108],[112.63233,16.56725],[112.63188,16.57214],[112.64043,16.57108]]],[[[117.82595,15.13991],[117.82664,15.13405],[117.82104,15.13648],[117.82595,15.13991]]],[[[117.80951,15.12438],[117.8102,15.11852],[117.8046,15.12095],[117.80951,15.12438]]],[[[111.58873,16.50766],[111.58233,16.50287],[111.58485,16.50962],[111.58873,16.50766]]],[[[111.71878,16.54598],[111.71805,16.54307],[111.71579,16.54487],[111.71878,16.54598]]],[[[111.68681,16.5673],[111.6857,16.56569],[111.68559,16.56719],[111.68681,16.5673]]]]}},{"type":"Feature","id":"CTAMAP-2023-COUNTY-0001","properties":{"map_level":"county","source_name":"南沙区","source_code":"460302","county_type":"市辖区","prefecture_name":"三沙市","prefecture_code":"460300","prefecture_type":"地级市","parent_entity_id":"CNUR-000233","parent_year_end_name":"三沙市","province_name":"海南省","province_code":"460000","snapshot_year":2023,"panel_year":2022,"link_status":"parent_linked","former_name":"","note":"2020年新设南沙区"},"geometry":{"type":"MultiPolygon","coordinates":[[[[114.05458,7.53911],[113.98295,7.53767],[113.92657,7.56012],[113.89394,7.60069],[113.8944,7.61922],[113.91738,7.64057],[114.02473,7.67125],[114.09068,7.72228],[114.20339,7.78397],[114.26412,7.87228],[114.41044,7.95422],[114.46848,7.97063],[114.50738,7.96823],[114.52923,7.95674],[114.55055,7.88094],[114.5366,7.86362],[114.46001,7.81638],[114.42966,7.78896],[114.41588,7.76703],[114.40359,7.68462],[114.36425,7.63989],[114.28605,7.61867],[114.15331,7.56269],[114.05458,7.53911]]],[[[109.93372,7.53553],[109.94669,7.51471],[109.9355,7.50598],[109.80234,7.52615],[109.70567,7.51228],[109.65051,7.48089],[109.56795,7.375],[109.50957,7.32156],[109.47559,7.30752],[109.46042,7.31619],[109.46292,7.35488],[109.53227,7.45015],[109.6494,7.56101],[109.71862,7.5772],[109.81277,7.57406],[109.90123,7.55317],[109.93372,7.53553]]],[[[116.51111,10.35136],[116.63426,10.36706],[116.64409,10.34488],[116.61753,10.32284],[116.56282,10.30651],[116.50771,10.29973],[116.46309,10.31076],[116.45791,10.35102],[116.48473,10.39781],[116.5226,10.42911],[116.5386,10.42209],[116.53597,10.40336],[116.51034,10.36054],[116.51111,10.35136]]],[[[113.38084,8.23803],[113.34514,8.17405],[113.31181,8.13474],[113.28578,8.11488],[113.28537,8.12358],[113.33822,8.19536],[113.33307,8.20143],[113.30622,8.17937],[113.27041,8.1245],[113.2638,8.12526],[113.28957,8.17794],[113.34702,8.23571],[113.3516,8.26503],[113.34514,8.28021],[113.35291,8.30987],[113.37068,8.31099],[113.38005,8.29725],[113.38084,8.23803]]],[[[109.98458,7.81419],[109.94443,7.81733],[109.93305,7.82556],[109.9433,7.88315],[110.02918,7.94599],[110.0529,7.95475],[110.07403,7.95088],[110.07891,7.89799],[110.07242,7.87942],[110.04632,7.84787],[109.98458,7.81419]]],[[[110.48532,8.07091],[110.46731,8.07373],[110.45767,8.12987],[110.5645,8.17445],[110.59117,8.17492],[110.59211,8.14532],[110.55062,8.09547],[110.48532,8.07091]]],[[[115.8803,9.65049],[115.86353,9.65214],[115.85741,9.6963],[115.83464,9.70291],[115.83363,9.71156],[115.86076,9.77375],[115.90371,9.79802],[115.9218,9.78354],[115.91953,9.75046],[115.89723,9.67299],[115.8803,9.65049]]],[[[114.58948,10.85847],[114.5792,10.8413],[114.56125,10.83848],[114.5344,10.85545],[114.50912,10.85045],[114.47335,10.81437],[114.46511,10.83768],[114.55073,10.90295],[114.57787,10.91075],[114.59467,10.89767],[114.58948,10.85847]]],[[[114.7043,11.00271],[114.69314,11.00622],[114.70651,11.04145],[114.76243,11.11183],[114.7955,11.10667],[114.78928,11.07802],[114.7043,11.00271]]],[[[117.41243,10.67847],[117.34446,10.67444],[117.27268,10.68702],[117.26278,10.69344],[117.26352,10.70225],[117.29768,10.74172],[117.36495,10.74416],[117.39897,10.72709],[117.41417,10.70421],[117.41243,10.67847]]],[[[114.047,8.77905],[114.03276,8.78279],[114.01048,8.83759],[113.97468,8.86931],[113.97559,8.87982],[114.00973,8.86881],[114.04723,8.83343],[114.05936,8.80156],[114.047,8.77905]]],[[[111.69799,7.64677],[111.67177,7.6453],[111.66616,7.65273],[111.67248,7.69643],[111.70463,7.72656],[111.72204,7.7317],[111.73977,7.72519],[111.7452,7.70559],[111.73383,7.68314],[111.69799,7.64677]]],[[[112.61673,5.46386],[112.61023,5.46666],[112.60239,5.5187],[112.57904,5.56273],[112.58901,5.57746],[112.61209,5.56998],[112.63544,5.51635],[112.63522,5.48123],[112.61673,5.46386]]],[[[114.52622,8.10515],[114.50564,8.11347],[114.50843,8.13138],[114.5922,8.16007],[114.62069,8.15136],[114.61479,8.1347],[114.59189,8.12262],[114.52622,8.10515]]],[[[111.5511,7.5261],[111.5387,7.52602],[111.53477,7.54569],[111.55915,7.60408],[111.60263,7.60891],[111.60809,7.59382],[111.59013,7.56083],[111.5511,7.5261]]],[[[113.96642,7.94645],[113.93147,7.94578],[113.90093,7.96544],[113.89057,8.00679],[113.89692,8.01954],[113.9358,8.02009],[113.96552,7.97666],[113.96642,7.94645]]],[[[117.7946,10.75516],[117.76747,10.75546],[117.76931,10.80771],[117.80142,10.84425],[117.82277,10.84247],[117.83183,10.80562],[117.81868,10.77551],[117.7946,10.75516]]],[[[111.57614,7.77102],[111.55082,7.81498],[111.57895,7.85077],[111.60513,7.86346],[111.61539,7.84225],[111.57614,7.77102]]],[[[114.50967,10.72412],[114.48956,10.71667],[114.49395,10.73888],[114.53235,10.79239],[114.55066,10.79741],[114.55882,10.78018],[114.54908,10.75882],[114.50967,10.72412]]],[[[111.99057,8.04906],[111.96083,8.04921],[111.93032,8.05998],[111.92114,8.07266],[111.92261,8.09068],[111.95023,8.10812],[111.97372,8.10831],[112.0087,8.09492],[112.01344,8.064],[111.99057,8.04906]]],[[[115.51375,9.93566],[115.56902,9.92444],[115.58095,9.91218],[115.58127,9.89848],[115.55032,9.8722],[115.50905,9.87898],[115.4984,9.89259],[115.50242,9.92615],[115.51375,9.93566]]],[[[114.25648,10.2403],[114.23826,10.24379],[114.23981,10.25681],[114.26082,10.27726],[114.30826,10.30267],[114.31885,10.29783],[114.32205,10.28652],[114.25648,10.2403]]],[[[113.68158,8.97525],[113.65005,8.96398],[113.63375,8.97883],[113.64043,8.99151],[113.72144,9.01934],[113.72623,9.00577],[113.68158,8.97525]]],[[[114.64173,8.84678],[114.61067,8.83827],[114.59495,8.84816],[114.61338,8.88325],[114.63337,8.89734],[114.66145,8.90192],[114.67828,8.88311],[114.66637,8.86394],[114.64173,8.84678]]],[[[112.65383,5.35534],[112.61708,5.35105],[112.6077,5.36901],[112.60862,5.38949],[112.61983,5.40291],[112.64122,5.4107],[112.68664,5.40787],[112.6808,5.37289],[112.65383,5.35534]]],[[[112.71455,5.06367],[112.6784,5.04997],[112.65186,5.05681],[112.65053,5.11432],[112.67981,5.11959],[112.71462,5.07691],[112.71455,5.06367]]],[[[112.5998,8.85919],[112.6318,8.83984],[112.6387,8.82222],[112.56647,8.81748],[112.5451,8.82653],[112.53355,8.84392],[112.53987,8.85644],[112.5998,8.85919]]],[[[115.20982,8.37259],[115.26338,8.36859],[115.27684,8.35671],[115.25871,8.34526],[115.19793,8.35481],[115.18139,8.36638],[115.17599,8.38326],[115.19602,8.39121],[115.20982,8.37259]]],[[[114.66626,9.92724],[114.63492,9.92059],[114.62835,9.93508],[114.63127,9.95595],[114.61418,9.96417],[114.61501,9.97681],[114.64897,9.98495],[114.68186,9.98105],[114.68049,9.95524],[114.66626,9.92724]]],[[[114.63947,11.42526],[114.61675,11.42968],[114.61591,11.5174],[114.64129,11.53243],[114.65788,11.52416],[114.64857,11.43862],[114.63947,11.42526]]],[[[115.97345,9.32409],[115.9954,9.29554],[115.99189,9.2795],[115.97264,9.26994],[115.93919,9.27169],[115.91832,9.29426],[115.91917,9.30807],[115.93052,9.3177],[115.97345,9.32409]]],[[[113.85645,9.99412],[113.83941,9.99643],[113.84109,10.06312],[113.85729,10.12897],[113.87138,10.11571],[113.85645,9.99412]]],[[[114.2317,8.76839],[114.24471,8.72634],[114.23127,8.72017],[114.21961,8.75839],[114.21058,8.76247],[114.22204,8.71524],[114.21141,8.71065],[114.19684,8.72974],[114.19053,8.77444],[114.20787,8.78945],[114.2317,8.76839]]],[[[111.70298,7.88789],[111.66082,7.88852],[111.6368,7.90531],[111.64746,7.93423],[111.6829,7.93744],[111.71197,7.92671],[111.72062,7.91031],[111.70298,7.88789]]],[[[114.72462,10.32378],[114.69825,10.31474],[114.68687,10.32874],[114.68897,10.3593],[114.7133,10.38211],[114.74314,10.37391],[114.72462,10.32378]]],[[[111.67993,8.62714],[111.66133,8.62489],[111.64858,8.63525],[111.64552,8.65318],[111.65774,8.67895],[111.69294,8.68094],[111.70875,8.67337],[111.7134,8.65185],[111.67993,8.62714]]],[[[115.55693,8.46804],[115.51794,8.46231],[115.5065,8.48812],[115.50833,8.5198],[115.555,8.52508],[115.56509,8.49222],[115.55693,8.46804]]],[[[116.76128,11.43165],[116.72942,11.47779],[116.723,11.50316],[116.72953,11.51581],[116.75349,11.48475],[116.76821,11.44697],[116.76128,11.43165]]],[[[114.98579,7.47785],[114.95672,7.4865],[114.94692,7.51579],[114.98261,7.53083],[115.00986,7.52741],[115.01088,7.49047],[114.98579,7.47785]]],[[[116.31329,8.88705],[116.29772,8.88571],[116.30023,8.86842],[116.29045,8.86001],[116.2732,8.8704],[116.26968,8.88156],[116.2856,8.90516],[116.30865,8.92022],[116.31712,8.91982],[116.32819,8.90287],[116.31329,8.88705]]],[[[113.81077,7.60439],[113.76436,7.60865],[113.76502,7.63835],[113.78795,7.64872],[113.82725,7.64621],[113.82966,7.61771],[113.81077,7.60439]]],[[[114.90053,7.95141],[114.87989,7.95663],[114.86599,7.97645],[114.86599,7.99466],[114.87948,8.01366],[114.91046,8.0094],[114.9171,7.99328],[114.91631,7.97449],[114.90053,7.95141]]],[[[114.92698,10.84369],[114.91262,10.8461],[114.90732,10.86945],[114.93013,10.90483],[114.94973,10.90912],[114.95704,10.89948],[114.94635,10.86684],[114.92698,10.84369]]],[[[116.07121,10.06696],[116.06316,10.06789],[116.04146,10.09727],[116.06929,10.13288],[116.08202,10.12416],[116.09194,10.09535],[116.07121,10.06696]]],[[[112.5617,5.63168],[112.54076,5.61757],[112.52049,5.64548],[112.52748,5.6921],[112.54287,5.69384],[112.55735,5.67823],[112.5617,5.63168]]],[[[112.66966,4.99834],[112.63723,5.00645],[112.61288,5.02933],[112.61014,5.04379],[112.6223,5.04841],[112.64376,5.0387],[112.66964,5.01465],[112.66966,4.99834]]],[[[113.2284,8.06869],[113.21767,8.07789],[113.23369,8.09925],[113.2588,8.11952],[113.27664,8.11884],[113.27894,8.11264],[113.2284,8.06869]]],[[[112.61705,4.94397],[112.59909,4.94122],[112.58188,4.95424],[112.58004,4.97698],[112.59952,4.99523],[112.63728,4.98783],[112.63623,4.96335],[112.61705,4.94397]]],[[[112.56438,9.51892],[112.52063,9.51994],[112.50386,9.52751],[112.5076,9.54669],[112.52425,9.56083],[112.54483,9.5635],[112.56288,9.55594],[112.57328,9.53685],[112.56438,9.51892]]],[[[114.8509,7.18782],[114.82971,7.18476],[114.81563,7.19733],[114.82907,7.22941],[114.85031,7.24579],[114.86344,7.24338],[114.86726,7.2325],[114.86584,7.2003],[114.8509,7.18782]]],[[[112.93945,4.99292],[112.90306,4.99414],[112.90687,5.03949],[112.92485,5.05147],[112.94836,5.04926],[112.95429,5.03949],[112.95473,5.02178],[112.93945,4.99292]]],[[[114.67911,7.56424],[114.66161,7.57313],[114.67022,7.60921],[114.71439,7.61354],[114.72031,7.60829],[114.71759,7.59332],[114.67911,7.56424]]],[[[114.73004,11.43378],[114.7108,11.43347],[114.6914,11.44863],[114.68479,11.47066],[114.69254,11.48986],[114.71648,11.49331],[114.72727,11.48363],[114.7338,11.4651],[114.73004,11.43378]]],[[[113.99957,8.7921],[113.97092,8.79482],[113.95059,8.83197],[113.9528,8.84396],[113.9733,8.84337],[114.00756,8.80051],[113.99957,8.7921]]],[[[115.45182,9.34844],[115.43074,9.35363],[115.42329,9.37672],[115.44906,9.41956],[115.46588,9.36082],[115.45182,9.34844]]],[[[112.55868,5.76032],[112.53265,5.76172],[112.52434,5.77913],[112.52487,5.80223],[112.5484,5.82317],[112.55765,5.8219],[112.5669,5.798],[112.55868,5.76032]]],[[[112.58483,5.07432],[112.56223,5.07598],[112.5551,5.11522],[112.59742,5.12102],[112.60715,5.11159],[112.6067,5.09301],[112.58483,5.07432]]],[[[114.68424,8.22015],[114.72656,8.21043],[114.73768,8.19131],[114.68731,8.18687],[114.66614,8.21217],[114.68424,8.22015]]],[[[110.47776,7.78271],[110.4613,7.7846],[110.45818,7.8071],[110.48115,7.82924],[110.50606,7.8216],[110.50778,7.80732],[110.47776,7.78271]]],[[[114.08621,10.90428],[114.05981,10.90589],[114.05497,10.91416],[114.07452,10.94156],[114.09205,10.94922],[114.10797,10.93169],[114.10535,10.9198],[114.08621,10.90428]]],[[[117.30024,11.02899],[117.28028,11.0269],[117.26297,11.0429],[117.26015,11.06443],[117.27719,11.0804],[117.29521,11.07923],[117.30579,11.05283],[117.30024,11.02899]]],[[[117.29513,10.316],[117.26646,10.30523],[117.25378,10.32257],[117.25692,10.34704],[117.27056,10.36016],[117.28994,10.35431],[117.29559,10.34505],[117.29513,10.316]]],[[[113.93232,8.85038],[113.91221,8.84011],[113.88939,8.86469],[113.90786,8.89118],[113.93612,8.87416],[113.9281,8.8626],[113.93232,8.85038]]],[[[114.81448,8.1431],[114.80805,8.11224],[114.77313,8.11582],[114.77456,8.15389],[114.78249,8.16105],[114.80644,8.15971],[114.81448,8.1431]]],[[[116.48064,9.13971],[116.4668,9.14209],[116.4496,9.17028],[116.4825,9.1868],[116.49669,9.16589],[116.48064,9.13971]]],[[[116.64867,10.51993],[116.69538,10.51944],[116.70883,10.50713],[116.70015,10.49197],[116.6493,10.4934],[116.63458,10.50623],[116.64867,10.51993]]],[[[112.24503,3.86074],[112.22888,3.86591],[112.21768,3.88147],[112.2262,3.90133],[112.23897,3.9077],[112.2612,3.89536],[112.26231,3.87345],[112.24503,3.86074]]],[[[112.04381,3.83812],[112.01006,3.8395],[112.00916,3.86894],[112.03257,3.8798],[112.04815,3.87719],[112.05692,3.85816],[112.04381,3.83812]]],[[[115.29898,10.20393],[115.32917,10.20219],[115.3121,10.18213],[115.28664,10.17326],[115.27767,10.20788],[115.2849,10.21338],[115.29898,10.20393]]],[[[117.68621,11.01832],[117.66598,11.01708],[117.65214,11.02649],[117.64934,11.04802],[117.66657,11.05699],[117.68668,11.05056],[117.70042,11.03347],[117.68621,11.01832]]],[[[113.60666,6.9229],[113.57221,6.92425],[113.57479,6.95039],[113.59185,6.96318],[113.60852,6.95914],[113.61911,6.94377],[113.60666,6.9229]]],[[[116.73674,9.03056],[116.70506,9.02603],[116.69554,9.05083],[116.71338,9.06487],[116.74569,9.05853],[116.73674,9.03056]]],[[[117.38096,10.06533],[117.35004,10.06488],[117.34398,10.09219],[117.3496,10.10646],[117.36956,10.10839],[117.38576,10.10044],[117.38096,10.06533]]],[[[110.63696,7.98707],[110.60602,7.99291],[110.60659,8.01971],[110.61897,8.04297],[110.63684,8.03726],[110.63696,7.98707]]],[[[112.50223,5.00627],[112.47183,5.00251],[112.46104,5.01349],[112.45834,5.03081],[112.46701,5.04222],[112.48895,5.04269],[112.49476,5.03554],[112.50223,5.00627]]],[[[112.36879,8.9101],[112.34709,8.91282],[112.34146,8.92792],[112.35243,8.9427],[112.38036,8.94878],[112.39025,8.93778],[112.38809,8.92128],[112.36879,8.9101]]],[[[114.35984,10.73327],[114.33451,10.71295],[114.33584,10.70095],[114.31527,10.69532],[114.34772,10.73235],[114.35984,10.73327]]],[[[114.19156,9.3525],[114.17099,9.34401],[114.16243,9.35933],[114.1625,9.38624],[114.18987,9.39335],[114.19843,9.37632],[114.19156,9.3525]]],[[[112.92526,7.82939],[112.89406,7.82916],[112.88896,7.85573],[112.92763,7.86915],[112.92526,7.82939]]],[[[112.19514,8.85332],[112.17859,8.85984],[112.17749,8.86845],[112.19908,8.88857],[112.2222,8.88857],[112.19514,8.85332]]],[[[112.27315,8.85478],[112.25714,8.85667],[112.24089,8.87824],[112.26089,8.89145],[112.28103,8.89069],[112.28602,8.87071],[112.27315,8.85478]]],[[[115.28106,8.48287],[115.26703,8.47911],[115.25533,8.48807],[115.25806,8.51793],[115.27465,8.52378],[115.292,8.51287],[115.28106,8.48287]]],[[[114.71639,9.71914],[114.70077,9.70234],[114.67675,9.70942],[114.67398,9.72907],[114.68957,9.74307],[114.71078,9.7388],[114.71639,9.71914]]],[[[112.86113,8.89193],[112.83722,8.89591],[112.82053,8.90983],[112.8204,8.92082],[112.84865,8.9222],[112.86864,8.9103],[112.86113,8.89193]]],[[[116.48854,9.78363],[116.47592,9.78721],[116.46602,9.81158],[116.48182,9.82454],[116.50493,9.80356],[116.50481,9.79284],[116.48854,9.78363]]],[[[115.79789,10.44879],[115.77227,10.43676],[115.75831,10.44738],[115.75417,10.46299],[115.75976,10.47222],[115.79801,10.46563],[115.79789,10.44879]]],[[[116.15168,9.59439],[116.18391,9.59735],[116.19319,9.58072],[116.18544,9.56708],[116.15693,9.56445],[116.15072,9.57065],[116.15168,9.59439]]],[[[111.48354,8.52267],[111.45879,8.52675],[111.47335,8.54911],[111.50484,8.55265],[111.50508,8.54159],[111.48354,8.52267]]],[[[113.67257,9.20473],[113.65588,9.23298],[113.67561,9.24599],[113.69273,9.22768],[113.67257,9.20473]]],[[[115.80086,10.50688],[115.79146,10.5019],[115.76742,10.53322],[115.77814,10.54284],[115.78618,10.53857],[115.80099,10.52667],[115.80086,10.50688]]],[[[116.10752,10.7927],[116.08713,10.78781],[116.07666,10.80657],[116.08355,10.83235],[116.09838,10.82926],[116.10753,10.81561],[116.10752,10.7927]]],[[[113.61927,10.22462],[113.59257,10.24309],[113.60635,10.25903],[113.62028,10.2584],[113.63376,10.24536],[113.61927,10.22462]]],[[[112.96527,8.40498],[112.9409,8.41199],[112.94155,8.42797],[112.95121,8.43894],[112.97529,8.43905],[112.98114,8.43098],[112.96527,8.40498]]],[[[112.57136,5.97259],[112.54906,5.94384],[112.53064,5.95243],[112.53462,5.97136],[112.55016,5.97995],[112.57136,5.97259]]],[[[113.78745,7.37301],[113.84747,7.3844],[113.85368,7.37538],[113.8244,7.36374],[113.78745,7.37301]]],[[[112.25931,3.93889],[112.24589,3.94305],[112.24528,3.96533],[112.26528,3.97653],[112.27746,3.97024],[112.28061,3.94875],[112.25931,3.93889]]],[[[117.19948,10.58683],[117.17097,10.59276],[117.1705,10.62253],[117.18035,10.62201],[117.20552,10.59675],[117.19948,10.58683]]],[[[112.38135,5.6165],[112.35792,5.61099],[112.34578,5.62275],[112.35595,5.64134],[112.38084,5.64417],[112.38694,5.62707],[112.38135,5.6165]]],[[[117.21349,10.71542],[117.19131,10.71304],[117.17685,10.73645],[117.18299,10.74368],[117.20974,10.73671],[117.21702,10.72932],[117.21349,10.71542]]],[[[113.24338,6.29714],[113.22606,6.28648],[113.21519,6.29706],[113.21443,6.31481],[113.22668,6.32737],[113.23932,6.32717],[113.24403,6.31911],[113.24338,6.29714]]],[[[114.10934,8.07951],[114.09658,8.08048],[114.09727,8.10265],[114.11865,8.11705],[114.12908,8.11514],[114.12803,8.09237],[114.10934,8.07951]]],[[[115.00926,11.06473],[114.98535,11.06929],[114.98175,11.08845],[114.98878,11.09699],[115.0165,11.09007],[115.00926,11.06473]]],[[[115.43563,8.32346],[115.41534,8.33582],[115.42136,8.35882],[115.43221,8.36398],[115.44547,8.35106],[115.43563,8.32346]]],[[[116.58884,9.72456],[116.56288,9.72069],[116.54765,9.74568],[116.57502,9.74736],[116.58884,9.72456]]],[[[117.63825,10.62425],[117.6284,10.62662],[117.62925,10.64284],[117.64325,10.65373],[117.66063,10.65286],[117.66327,10.64554],[117.63825,10.62425]]],[[[116.8512,10.47058],[116.83026,10.4744],[116.83085,10.48578],[116.84162,10.49508],[116.86639,10.49671],[116.86592,10.47982],[116.8512,10.47058]]],[[[114.28281,9.69946],[114.26954,9.70558],[114.27158,9.73202],[114.28395,9.74053],[114.2962,9.72487],[114.28281,9.69946]]],[[[112.49088,5.73561],[112.46808,5.74045],[112.4735,5.77218],[112.49179,5.77718],[112.49088,5.73561]]],[[[112.22756,8.8277],[112.21111,8.82725],[112.20328,8.83731],[112.22413,8.85867],[112.23654,8.85475],[112.22756,8.8277]]],[[[116.44734,9.76327],[116.42866,9.7703],[116.43178,9.80564],[116.45008,9.79579],[116.44734,9.76327]]],[[[115.74168,10.51212],[115.71855,10.52178],[115.71672,10.53917],[115.74264,10.53787],[115.74168,10.51212]]],[[[117.47717,11.07608],[117.4464,11.06479],[117.44762,11.07994],[117.46438,11.09187],[117.48119,11.08908],[117.47717,11.07608]]],[[[112.88201,9.53624],[112.8744,9.54368],[112.90243,9.56246],[112.90358,9.55163],[112.88201,9.53624]]],[[[114.59183,11.31447],[114.57642,11.30832],[114.56661,11.31991],[114.57684,11.33861],[114.59117,11.32933],[114.59183,11.31447]]],[[[115.71445,10.48072],[115.69645,10.48707],[115.70524,10.51517],[115.72054,10.50343],[115.71445,10.48072]]],[[[111.54934,9.27693],[111.51626,9.26576],[111.52161,9.27708],[111.55135,9.28697],[111.54934,9.27693]]],[[[114.34449,11.0584],[114.34278,11.04994],[114.31298,11.05307],[114.30841,11.05972],[114.32768,11.07099],[114.34449,11.0584]]],[[[115.85859,10.82989],[115.84108,10.84094],[115.83788,10.85274],[115.86013,10.8497],[115.8657,10.83927],[115.85859,10.82989]]],[[[114.55933,9.86934],[114.54288,9.87355],[114.53832,9.88919],[114.55042,9.89489],[114.55687,9.88981],[114.56354,9.87668],[114.55933,9.86934]]],[[[115.73909,10.44158],[115.71871,10.44719],[115.72665,10.47358],[115.73913,10.46544],[115.73909,10.44158]]],[[[113.03743,9.65931],[113.02443,9.66041],[113.01318,9.67917],[113.03177,9.67989],[113.03743,9.65931]]],[[[114.46673,9.89126],[114.45417,9.8964],[114.45552,9.91342],[114.47701,9.90213],[114.46673,9.89126]]],[[[114.86372,10.81532],[114.84876,10.81896],[114.85244,10.83925],[114.86778,10.82747],[114.86372,10.81532]]],[[[116.16619,10.61029],[116.15943,10.61581],[116.16589,10.64948],[116.17153,10.61631],[116.16619,10.61029]]],[[[114.56919,9.93706],[114.5477,9.93346],[114.54649,9.94192],[114.5673,9.94751],[114.56919,9.93706]]],[[[114.37641,10.18068],[114.36859,10.17232],[114.343,10.17983],[114.36231,10.18589],[114.37641,10.18068]]],[[[114.49805,9.90386],[114.48507,9.91077],[114.49695,9.92467],[114.50563,9.92046],[114.49805,9.90386]]],[[[116.60615,9.71754],[116.59942,9.71627],[116.5876,9.73742],[116.59643,9.73596],[116.60615,9.71754]]],[[[114.26336,9.81765],[114.25188,9.82616],[114.26539,9.83976],[114.26965,9.82367],[114.26336,9.81765]]],[[[114.40013,11.45238],[114.38549,11.45829],[114.38123,11.46605],[114.39936,11.4686],[114.40013,11.45238]]],[[[114.80298,11.14138],[114.78414,11.14913],[114.7834,11.15367],[114.80459,11.1547],[114.80298,11.14138]]],[[[114.4707,9.83217],[114.45198,9.82388],[114.45451,9.84111],[114.4707,9.83217]]],[[[114.52986,9.9229],[114.51402,9.93394],[114.51756,9.94228],[114.53113,9.93731],[114.52986,9.9229]]],[[[116.92745,9.4482],[116.91746,9.45695],[116.93074,9.46802],[116.93571,9.46325],[116.92745,9.4482]]],[[[114.59064,9.87059],[114.57675,9.87456],[114.57936,9.88604],[114.59673,9.87999],[114.59064,9.87059]]],[[[112.89859,9.57122],[112.88917,9.57113],[112.89089,9.5925],[112.90302,9.58793],[112.89859,9.57122]]],[[[114.37256,11.07963],[114.36414,11.09345],[114.37918,11.09704],[114.38295,11.09135],[114.37256,11.07963]]],[[[114.31031,11.38132],[114.29504,11.37674],[114.29609,11.39096],[114.30726,11.39733],[114.31031,11.38132]]],[[[114.26061,9.76073],[114.25012,9.77043],[114.25404,9.78139],[114.26591,9.76737],[114.26061,9.76073]]],[[[114.35152,9.74359],[114.34041,9.74495],[114.34048,9.75742],[114.34853,9.76204],[114.35535,9.75475],[114.35152,9.74359]]],[[[114.02618,10.02557],[114.04313,10.02966],[114.04704,10.01816],[114.02986,10.01499],[114.02618,10.02557]]],[[[115.36542,10.24357],[115.35771,10.24477],[115.36183,10.25709],[115.37681,10.25652],[115.36542,10.24357]]],[[[114.40081,9.78925],[114.39168,9.79703],[114.39444,9.80525],[114.40941,9.79744],[114.40081,9.78925]]],[[[114.36552,11.46001],[114.34634,11.44793],[114.34866,11.45575],[114.36552,11.46001]]],[[[114.23095,11.05551],[114.22008,11.05521],[114.21423,11.06542],[114.2322,11.06667],[114.23095,11.05551]]],[[[114.29448,11.0511],[114.27652,11.04987],[114.28062,11.06099],[114.29154,11.06057],[114.29448,11.0511]]],[[[114.36399,11.39457],[114.35466,11.40184],[114.36879,11.40808],[114.37169,11.39975],[114.36399,11.39457]]],[[[114.57645,10.40786],[114.56706,10.40815],[114.56373,10.41421],[114.58302,10.41962],[114.57645,10.40786]]],[[[114.37348,10.38331],[114.35999,10.37244],[114.35375,10.37558],[114.37348,10.38331]]],[[[112.96431,9.64452],[112.94916,9.63188],[112.9503,9.6394],[112.96431,9.64452]]],[[[114.39838,9.89087],[114.38848,9.89489],[114.38932,9.90414],[114.40301,9.89708],[114.39838,9.89087]]],[[[116.53655,9.7415],[116.51496,9.74633],[116.53782,9.74406],[116.53655,9.7415]]],[[[112.98474,9.64605],[112.97497,9.64714],[112.97283,9.65287],[112.98643,9.65653],[112.98474,9.64605]]],[[[114.58759,9.95404],[114.57412,9.95111],[114.57695,9.96075],[114.58759,9.95404]]],[[[114.51135,9.86177],[114.50451,9.86951],[114.51091,9.87488],[114.51795,9.86871],[114.51135,9.86177]]],[[[114.4848,10.37024],[114.4739,10.37415],[114.47634,10.38287],[114.48608,10.37784],[114.4848,10.37024]]],[[[114.33647,9.88175],[114.32663,9.88148],[114.32231,9.8889],[114.33188,9.89112],[114.33647,9.88175]]],[[[114.53565,10.70423],[114.52801,10.70846],[114.53201,10.71717],[114.54023,10.71306],[114.53565,10.70423]]],[[[114.30917,9.8738],[114.30135,9.87693],[114.30094,9.88461],[114.31114,9.88223],[114.30917,9.8738]]],[[[114.22929,10.21209],[114.21575,10.21089],[114.22559,10.21801],[114.22929,10.21209]]],[[[114.33206,11.42454],[114.32544,11.42613],[114.33276,11.43695],[114.33689,11.4344],[114.33206,11.42454]]],[[[113.00588,9.64916],[112.99702,9.65083],[112.99738,9.66035],[113.00708,9.65997],[113.00588,9.64916]]],[[[114.37096,11.46361],[114.36883,11.44896],[114.36694,11.46428],[114.37096,11.46361]]],[[[114.39924,11.42901],[114.39143,11.42995],[114.3928,11.44162],[114.40003,11.44045],[114.39924,11.42901]]],[[[114.42771,10.66325],[114.4183,10.66553],[114.42186,10.6753],[114.42847,10.67182],[114.42771,10.66325]]],[[[116.16786,10.71158],[116.16053,10.71607],[116.16424,10.72306],[116.17241,10.71821],[116.16786,10.71158]]],[[[115.82975,10.81905],[115.81729,10.81577],[115.82804,10.82287],[115.82975,10.81905]]],[[[114.18953,11.0246],[114.18334,11.03033],[114.18871,11.03695],[114.19319,11.03298],[114.18953,11.0246]]],[[[114.26318,11.07405],[114.2532,11.0703],[114.25457,11.07939],[114.26318,11.07405]]],[[[112.87923,9.57877],[112.87155,9.57088],[112.86977,9.57798],[112.87923,9.57877]]],[[[114.56638,10.75438],[114.5578,10.74997],[114.56004,10.75727],[114.56638,10.75438]]],[[[112.94255,9.63793],[112.93135,9.63481],[112.93946,9.63968],[112.94255,9.63793]]],[[[113.0229,9.65931],[113.01566,9.65747],[113.01396,9.66418],[113.01989,9.66555],[113.0229,9.65931]]],[[[115.80669,10.73696],[115.7987,10.7296],[115.80269,10.73927],[115.80669,10.73696]]],[[[114.20719,11.0505],[114.20309,11.05512],[114.20911,11.06005],[114.21103,11.05602],[114.20719,11.0505]]],[[[112.93001,9.62855],[112.92649,9.62162],[112.92286,9.6258],[112.93001,9.62855]]],[[[114.4949,9.85201],[114.49056,9.84741],[114.48751,9.85486],[114.4949,9.85201]]],[[[116.65056,9.03722],[116.6426,9.03533],[116.64589,9.03953],[116.65056,9.03722]]],[[[114.56575,10.78221],[114.57223,10.77529],[114.56572,10.7767],[114.56575,10.78221]]],[[[111.92148,8.64392],[111.91867,8.64623],[111.9226,8.64644],[111.92148,8.64392]]]]}},{"type":"Feature","id":"CTAMAP-2023-COUNTY-0074","properties":{"map_level":"county","source_name":"白沙黎族自治县","source_code":"469025","county_type":"自治县","prefecture_name":"不统计","prefecture_code":"0","prefecture_type":"不统计","parent_entity_id":"","parent_year_end_name":"","province_name":"海南省","province_code":"460000","snapshot_year":2023,"panel_year":2022,"link_status":"province_direct_or_out_of_scope","former_name":"","note":"省直辖县,省直管,是县级单位"},"geometry":{"type":"Polygon","coordinates":[[[109.66644,19.21183],[109.68407,19.16516],[109.69954,19.1554],[109.69819,19.13588],[109.68411,19.11998],[109.65862,19.12966],[109.64755,19.10273],[109.60675,19.0896],[109.60776,19.05722],[109.59602,19.05605],[109.55587,19.07606],[109.5412,19.06855],[109.53589,19.04082],[109.51981,19.03179],[109.47184,19.02849],[109.46589,19.03486],[109.45597,18.99897],[109.421,18.99334],[109.40319,18.96569],[109.36167,18.93787],[109.33287,18.95471],[109.27927,18.96302],[109.27249,18.98711],[109.28369,19.00095],[109.27532,19.01106],[109.2723,19.06466],[109.25376,19.06582],[109.23778,19.07792],[109.21665,19.07713],[109.19991,19.092],[109.17299,19.08492],[109.15423,19.13121],[109.16275,19.15282],[109.13325,19.16768],[109.11302,19.19793],[109.13838,19.25998],[109.13739,19.27953],[109.11761,19.29027],[109.11661,19.30216],[109.10116,19.2973],[109.09307,19.30278],[109.08237,19.3201],[109.08739,19.33047],[109.05277,19.33346],[109.03412,19.34625],[109.03395,19.3603],[109.05001,19.37426],[109.04099,19.41071],[109.05318,19.44664],[109.03972,19.46424],[109.046,19.48424],[109.06909,19.48806],[109.11384,19.46916],[109.13011,19.4847],[109.14065,19.4607],[109.15431,19.45443],[109.162,19.43049],[109.1984,19.42938],[109.17445,19.40066],[109.18391,19.39306],[109.19972,19.39852],[109.21264,19.38617],[109.24054,19.39311],[109.26316,19.37903],[109.28664,19.38944],[109.28776,19.40126],[109.29579,19.39071],[109.31376,19.40032],[109.33144,19.38997],[109.33914,19.37428],[109.35244,19.37084],[109.35636,19.38022],[109.37612,19.3727],[109.37994,19.35646],[109.42235,19.35513],[109.4499,19.38122],[109.44553,19.39006],[109.45132,19.40004],[109.47757,19.40275],[109.50262,19.36281],[109.49366,19.3563],[109.49422,19.33563],[109.4641,19.30256],[109.5063,19.30649],[109.50648,19.29906],[109.53683,19.31365],[109.58234,19.24588],[109.60496,19.25687],[109.60966,19.22671],[109.6303,19.20349],[109.66644,19.21183]]]}},{"type":"Feature","id":"CTAMAP-2023-COUNTY-0097","properties":{"map_level":"county","source_name":"保亭黎族苗族自治县","source_code":"469029","county_type":"自治县","prefecture_name":"不统计","prefecture_code":"0","prefecture_type":"不统计","parent_entity_id":"","parent_year_end_name":"","province_name":"海南省","province_code":"460000","snapshot_year":2023,"panel_year":2022,"link_status":"province_direct_or_out_of_scope","former_name":"","note":"省直辖县,省直管,是县级单位"},"geometry":{"type":"Polygon","coordinates":[[[109.76934,18.81044],[109.75108,18.7886],[109.75174,18.76599],[109.76901,18.7621],[109.76531,18.74406],[109.77298,18.7374],[109.76713,18.72364],[109.77649,18.71847],[109.79983,18.727],[109.80112,18.70923],[109.81866,18.70833],[109.81799,18.6996],[109.8361,18.67962],[109.81847,18.65847],[109.82924,18.63537],[109.81191,18.63797],[109.80459,18.63072],[109.80027,18.59564],[109.81965,18.58231],[109.82153,18.57184],[109.84253,18.57292],[109.84806,18.56177],[109.84601,18.5519],[109.83081,18.54289],[109.82942,18.5198],[109.80595,18.50884],[109.80076,18.51983],[109.77626,18.51222],[109.77223,18.526],[109.75779,18.52657],[109.75562,18.50447],[109.72086,18.49474],[109.72255,18.47488],[109.71493,18.4745],[109.7037,18.45271],[109.70594,18.4271],[109.69187,18.43725],[109.67355,18.39582],[109.64468,18.39405],[109.63429,18.40306],[109.59781,18.3894],[109.5849,18.39779],[109.57366,18.39043],[109.53627,18.3982],[109.53397,18.41089],[109.5104,18.43754],[109.51683,18.43581],[109.52331,18.4465],[109.51621,18.45986],[109.53393,18.49227],[109.53235,18.53163],[109.50335,18.54343],[109.49958,18.55689],[109.45195,18.5585],[109.43236,18.57059],[109.41892,18.5645],[109.40135,18.62717],[109.42678,18.62941],[109.44455,18.6566],[109.48156,18.64745],[109.53545,18.65994],[109.52527,18.67514],[109.5314,18.68012],[109.52421,18.69989],[109.55242,18.69909],[109.56641,18.70712],[109.56653,18.71732],[109.58005,18.71342],[109.59021,18.69582],[109.61529,18.68046],[109.63788,18.72342],[109.67009,18.72884],[109.69847,18.72336],[109.69819,18.75031],[109.67969,18.78606],[109.68896,18.81381],[109.67995,18.82389],[109.68398,18.83327],[109.7166,18.83445],[109.73943,18.81813],[109.76195,18.82221],[109.76934,18.81044]]]}},{"type":"Feature","id":"CTAMAP-2023-COUNTY-0165","properties":{"map_level":"county","source_name":"昌江黎族自治县","source_code":"469026","county_type":"自治县","prefecture_name":"不统计","prefecture_code":"0","prefecture_type":"不统计","parent_entity_id":"","parent_year_end_name":"","province_name":"海南省","province_code":"460000","snapshot_year":2023,"panel_year":2022,"link_status":"province_direct_or_out_of_scope","former_name":"","note":"省直辖县,省直管,是县级单位"},"geometry":{"type":"MultiPolygon","coordinates":[[[[109.04276,19.42539],[109.05001,19.37426],[109.03395,19.3603],[109.03424,19.34601],[109.05277,19.33346],[109.08739,19.33047],[109.08237,19.3201],[109.09307,19.30278],[109.10116,19.2973],[109.11661,19.30216],[109.11761,19.29027],[109.13811,19.27784],[109.13248,19.24185],[109.11229,19.2002],[109.1291,19.17157],[109.16275,19.15282],[109.15423,19.13121],[109.17299,19.08492],[109.20021,19.09193],[109.21665,19.07713],[109.24062,19.07717],[109.25472,19.06559],[109.26737,19.06877],[109.27509,19.05846],[109.27532,19.01106],[109.28369,19.00095],[109.27251,18.98699],[109.27917,18.96312],[109.29373,18.96224],[109.29115,18.95297],[109.26444,18.93504],[109.25883,18.90655],[109.21615,18.89484],[109.16357,18.9121],[109.13681,18.90536],[109.12174,18.88006],[109.10693,18.88783],[109.08514,18.91015],[109.10852,18.9683],[109.09516,19.0298],[109.0508,19.04543],[109.03033,19.03946],[109.00536,19.04703],[109.00391,19.07714],[109.01715,19.11876],[109.01076,19.12871],[108.98789,19.13267],[108.98523,19.14154],[109.00163,19.15009],[108.97442,19.16394],[108.96683,19.20056],[108.95517,19.21841],[108.93049,19.22438],[108.91027,19.2198],[108.84377,19.24867],[108.83095,19.26194],[108.78096,19.24595],[108.73616,19.2622],[108.70859,19.26172],[108.69304,19.26989],[108.66506,19.30854],[108.67395,19.32064],[108.68806,19.30666],[108.66383,19.34722],[108.68477,19.37312],[108.75313,19.38134],[108.79636,19.41104],[108.82096,19.44047],[108.87697,19.46227],[108.93375,19.51061],[108.93962,19.49675],[108.95653,19.49421],[108.98009,19.47638],[108.9943,19.44248],[108.99218,19.42904],[109.02595,19.43595],[109.04276,19.42539]]],[[[108.66905,19.32272],[108.66135,19.31704],[108.66893,19.32529],[108.66905,19.32272]]]]}},{"type":"Feature","id":"CTAMAP-2023-COUNTY-0205","properties":{"map_level":"county","source_name":"澄迈县","source_code":"469023","county_type":"县","prefecture_name":"不统计","prefecture_code":"0","prefecture_type":"不统计","parent_entity_id":"","parent_year_end_name":"","province_name":"海南省","province_code":"460000","snapshot_year":2023,"panel_year":2022,"link_status":"province_direct_or_out_of_scope","former_name":"","note":"省直辖县,省直管,是县级单位"},"geometry":{"type":"Polygon","coordinates":[[[110.25799,19.68973],[110.25722,19.68439],[110.25322,19.67959],[110.25347,19.6711],[110.23568,19.66212],[110.23544,19.64438],[110.2177,19.63227],[110.22132,19.61637],[110.18112,19.63847],[110.16603,19.67043],[110.14716,19.67513],[110.14171,19.65718],[110.12609,19.65694],[110.12431,19.6426],[110.13714,19.63063],[110.13708,19.6142],[110.11659,19.5988],[110.12272,19.58942],[110.1316,19.59618],[110.13848,19.58319],[110.12894,19.57958],[110.13059,19.56061],[110.09716,19.55099],[110.11784,19.50734],[110.10278,19.4962],[110.07272,19.50089],[110.07077,19.47527],[110.06227,19.46482],[110.0387,19.46001],[110.02973,19.483],[110.00222,19.48576],[109.99859,19.49264],[109.98735,19.48518],[109.96649,19.49227],[109.93382,19.48951],[109.93304,19.47732],[109.94379,19.46848],[109.92196,19.43928],[109.93791,19.42959],[109.9111,19.42881],[109.91073,19.41446],[109.90023,19.41197],[109.90973,19.40711],[109.90243,19.39777],[109.90893,19.39433],[109.88606,19.37991],[109.86416,19.39538],[109.85282,19.42209],[109.83506,19.40286],[109.84945,19.3909],[109.83866,19.3864],[109.8224,19.39765],[109.79178,19.38405],[109.78762,19.37486],[109.76871,19.38778],[109.76391,19.40144],[109.73301,19.40974],[109.73159,19.42023],[109.74608,19.41948],[109.75217,19.428],[109.73765,19.44884],[109.73991,19.47594],[109.72142,19.48673],[109.72729,19.50823],[109.73866,19.50733],[109.75498,19.52973],[109.74889,19.54244],[109.75296,19.57038],[109.76937,19.5835],[109.78497,19.61369],[109.79675,19.60388],[109.8263,19.60407],[109.80978,19.62387],[109.82252,19.63135],[109.82937,19.64895],[109.85335,19.66126],[109.85742,19.69705],[109.8758,19.72161],[109.87395,19.74374],[109.88904,19.76482],[109.89206,19.78408],[109.87047,19.80173],[109.88109,19.82275],[109.86861,19.83798],[109.87845,19.84237],[109.88011,19.8557],[109.83791,19.87342],[109.84714,19.88236],[109.84012,19.89535],[109.85632,19.90124],[109.87412,19.88586],[109.88737,19.89799],[109.88229,19.90952],[109.88849,19.92156],[109.86474,19.94189],[109.87859,19.95649],[109.87415,19.96675],[109.88485,19.96558],[109.88941,19.97339],[109.87852,19.98929],[109.92741,19.98441],[109.9406,19.99321],[109.96651,19.95351],[109.99333,19.9393],[110.01348,19.94069],[110.00576,19.93435],[109.98951,19.93843],[109.95876,19.91773],[109.96512,19.90976],[109.98759,19.90796],[109.99674,19.89689],[109.99244,19.91544],[110.01003,19.91737],[109.98825,19.92397],[109.98894,19.93366],[110.00394,19.9301],[110.02467,19.93952],[110.00929,19.95979],[110.01942,19.95513],[110.06574,19.98271],[110.08316,19.97235],[110.11593,19.97627],[110.11776,19.96154],[110.12538,19.9834],[110.07916,19.98444],[110.12559,20.00121],[110.13914,19.97889],[110.15768,19.97922],[110.15962,19.96266],[110.14707,19.93685],[110.1608,19.93328],[110.15152,19.93177],[110.15714,19.92838],[110.15854,19.92446],[110.14916,19.93298],[110.13368,19.92306],[110.15134,19.90672],[110.13738,19.8949],[110.14966,19.88549],[110.15054,19.86817],[110.13386,19.86403],[110.14046,19.8579],[110.15681,19.8676],[110.18317,19.86609],[110.18512,19.85522],[110.17043,19.84811],[110.19687,19.83784],[110.19843,19.80114],[110.20652,19.78068],[110.22018,19.77412],[110.22587,19.75367],[110.20924,19.74427],[110.20257,19.7261],[110.22265,19.7097],[110.2128,19.68805],[110.22323,19.67993],[110.25799,19.68973]]]}},{"type":"Feature","id":"CTAMAP-2023-COUNTY-0286","properties":{"map_level":"county","source_name":"儋州市","source_code":"460400","county_type":"不统计","prefecture_name":"儋州市","prefecture_code":"460400","prefecture_type":"地级市","parent_entity_id":"CNUR-000234","parent_year_end_name":"儋州市","province_name":"海南省","province_code":"460000","snapshot_year":2023,"panel_year":2022,"link_status":"parent_linked","former_name":"","note":"2015年撤销县级儋州市，设立地级儋州市"},"geometry":{"type":"MultiPolygon","coordinates":[[[[109.55241,19.85572],[109.57593,19.83182],[109.56484,19.812],[109.56608,19.79358],[109.57611,19.77204],[109.59801,19.76261],[109.58979,19.72149],[109.56543,19.70584],[109.55297,19.71205],[109.55415,19.69312],[109.56375,19.69231],[109.5696,19.66703],[109.58392,19.64984],[109.5794,19.63918],[109.59636,19.6433],[109.60775,19.63061],[109.67031,19.63089],[109.65973,19.62699],[109.65536,19.61297],[109.70376,19.58019],[109.71898,19.58883],[109.73315,19.58485],[109.72722,19.58897],[109.72892,19.59102],[109.73582,19.58556],[109.7407,19.59262],[109.73735,19.5851],[109.73204,19.58386],[109.73891,19.57786],[109.76512,19.58041],[109.75296,19.57038],[109.74889,19.54244],[109.75498,19.52973],[109.73866,19.50733],[109.72729,19.50823],[109.72142,19.48673],[109.73991,19.47594],[109.73765,19.44884],[109.75122,19.42532],[109.73159,19.42023],[109.73301,19.40974],[109.71479,19.40492],[109.69273,19.41746],[109.63811,19.39993],[109.64524,19.39],[109.64444,19.35431],[109.69653,19.3508],[109.70992,19.33163],[109.70853,19.30809],[109.69258,19.27551],[109.70403,19.24608],[109.70372,19.22345],[109.68205,19.18181],[109.66644,19.21183],[109.6303,19.20349],[109.60966,19.22671],[109.60496,19.25687],[109.58234,19.24588],[109.53683,19.31365],[109.50648,19.29906],[109.5063,19.30649],[109.4641,19.30256],[109.49422,19.33563],[109.49366,19.3563],[109.50262,19.36281],[109.47757,19.40275],[109.45132,19.40004],[109.44553,19.39006],[109.4499,19.38122],[109.42235,19.35513],[109.37994,19.35646],[109.37612,19.3727],[109.35636,19.38022],[109.35244,19.37084],[109.33914,19.37428],[109.33144,19.38997],[109.31376,19.40032],[109.29579,19.39071],[109.28776,19.40126],[109.28664,19.38944],[109.26316,19.37903],[109.24054,19.39311],[109.21264,19.38617],[109.19972,19.39852],[109.18391,19.39306],[109.17445,19.40066],[109.1984,19.42938],[109.162,19.43049],[109.15431,19.45443],[109.14065,19.4607],[109.13011,19.4847],[109.11351,19.46917],[109.06909,19.48806],[109.04913,19.48673],[109.03935,19.46689],[109.05318,19.44664],[109.04276,19.42539],[109.02595,19.43595],[108.99794,19.42642],[108.98009,19.47638],[108.93575,19.50152],[108.93454,19.51184],[108.97684,19.54299],[109.00885,19.58337],[109.08048,19.60573],[109.15017,19.64325],[109.16573,19.64447],[109.19813,19.66744],[109.211,19.68513],[109.21137,19.72135],[109.22675,19.71065],[109.23926,19.72577],[109.27901,19.72339],[109.30322,19.69575],[109.30414,19.72084],[109.27274,19.7389],[109.29247,19.75553],[109.30463,19.74519],[109.29798,19.76666],[109.31163,19.76949],[109.30815,19.7835],[109.29601,19.78262],[109.28709,19.794],[109.26717,19.77927],[109.26603,19.76087],[109.26302,19.77394],[109.24963,19.75841],[109.22952,19.76244],[109.22558,19.74312],[109.21454,19.74373],[109.21371,19.72649],[109.18872,19.73332],[109.18036,19.72021],[109.1511,19.70757],[109.15108,19.72217],[109.16909,19.72517],[109.16906,19.73424],[109.17874,19.73755],[109.15924,19.77636],[109.16167,19.8002],[109.18809,19.82828],[109.20714,19.82504],[109.21035,19.84056],[109.22825,19.85687],[109.25895,19.8623],[109.26183,19.90112],[109.28886,19.89562],[109.28953,19.90649],[109.30621,19.91773],[109.32695,19.90682],[109.319,19.90046],[109.3266,19.88281],[109.35964,19.89255],[109.37414,19.88899],[109.38007,19.87605],[109.37921,19.89052],[109.40633,19.86208],[109.42038,19.85821],[109.43672,19.86408],[109.4407,19.8739],[109.4508,19.86029],[109.45329,19.86915],[109.46215,19.86945],[109.47434,19.82439],[109.48208,19.8392],[109.52425,19.85004],[109.53451,19.8685],[109.53614,19.84569],[109.5188,19.83384],[109.53625,19.83697],[109.55241,19.85572]]],[[[109.17601,19.6744],[109.18504,19.66453],[109.17038,19.6548],[109.16175,19.6601],[109.16461,19.67346],[109.17601,19.6744]]],[[[109.19981,19.68918],[109.2007,19.67802],[109.18579,19.6679],[109.19632,19.68014],[109.18871,19.68832],[109.19981,19.68918]]],[[[109.16395,19.6539],[109.15827,19.64761],[109.14832,19.65584],[109.15576,19.65999],[109.16395,19.6539]]]]}},{"type":"Feature","id":"CTAMAP-2023-COUNTY-0326","properties":{"map_level":"county","source_name":"定安县","source_code":"469021","county_type":"县","prefecture_name":"不统计","prefecture_code":"0","prefecture_type":"不统计","parent_entity_id":"","parent_year_end_name":"","province_name":"海南省","province_code":"460000","snapshot_year":2023,"panel_year":2022,"link_status":"province_direct_or_out_of_scope","former_name":"","note":"省直辖县,省直管,是县级单位"},"geometry":{"type":"Polygon","coordinates":[[[110.51519,19.56528],[110.49958,19.56538],[110.46236,19.5326],[110.46658,19.50939],[110.47607,19.50374],[110.48027,19.51277],[110.48733,19.5081],[110.51332,19.51439],[110.54235,19.49406],[110.54967,19.4769],[110.52129,19.46684],[110.49573,19.4716],[110.48586,19.44682],[110.43804,19.44967],[110.43706,19.43748],[110.42825,19.43406],[110.43229,19.42],[110.41806,19.41712],[110.41035,19.42459],[110.38586,19.39586],[110.36256,19.38627],[110.3541,19.35889],[110.33869,19.35579],[110.32831,19.32855],[110.31921,19.32308],[110.36232,19.30024],[110.3556,19.28313],[110.33961,19.27452],[110.33469,19.25307],[110.34264,19.24165],[110.33565,19.22789],[110.31664,19.2343],[110.28866,19.21845],[110.27204,19.22841],[110.25758,19.21375],[110.24603,19.22783],[110.21602,19.22925],[110.22222,19.24204],[110.21389,19.24836],[110.22469,19.25779],[110.21624,19.27165],[110.22888,19.28282],[110.22947,19.29743],[110.20714,19.31409],[110.18691,19.30811],[110.17935,19.31298],[110.18341,19.31984],[110.17226,19.32676],[110.18524,19.33823],[110.17972,19.34928],[110.18479,19.35397],[110.17199,19.35162],[110.16214,19.36195],[110.15343,19.3928],[110.15922,19.43082],[110.19503,19.46121],[110.2095,19.44608],[110.22557,19.44852],[110.22873,19.48679],[110.24465,19.49239],[110.24849,19.49999],[110.23897,19.52011],[110.19175,19.53774],[110.19685,19.56154],[110.18626,19.59329],[110.15341,19.5756],[110.15378,19.56737],[110.13059,19.56061],[110.12894,19.57958],[110.13889,19.58642],[110.1316,19.59618],[110.12265,19.58944],[110.11658,19.59889],[110.13708,19.6142],[110.13714,19.63063],[110.12431,19.6426],[110.12609,19.65694],[110.14171,19.65718],[110.14716,19.67513],[110.16603,19.67043],[110.18112,19.63847],[110.22132,19.61637],[110.2177,19.63227],[110.23544,19.64438],[110.23568,19.66212],[110.25347,19.6711],[110.25803,19.6962],[110.28155,19.70219],[110.30466,19.6973],[110.32015,19.71559],[110.33545,19.72173],[110.36949,19.71733],[110.37859,19.73081],[110.38966,19.7016],[110.37371,19.68782],[110.36888,19.64917],[110.37817,19.6427],[110.38839,19.61383],[110.42004,19.60912],[110.4183,19.58745],[110.44514,19.57299],[110.45291,19.58793],[110.47246,19.58452],[110.48469,19.5953],[110.50119,19.58747],[110.50382,19.57359],[110.51519,19.56528]]]}},{"type":"Feature","id":"CTAMAP-2023-COUNTY-0345","properties":{"map_level":"county","source_name":"东方市","source_code":"469007","county_type":"县级市","prefecture_name":"不统计","prefecture_code":"0","prefecture_type":"不统计","parent_entity_id":"","parent_year_end_name":"","province_name":"海南省","province_code":"460000","snapshot_year":2023,"panel_year":2022,"link_status":"province_direct_or_out_of_scope","former_name":"","note":"省直辖市,省直管,是县级单位"},"geometry":{"type":"Polygon","coordinates":[[[108.65503,19.31519],[108.69304,19.26989],[108.70859,19.26172],[108.73616,19.2622],[108.78096,19.24595],[108.83095,19.26194],[108.84377,19.24867],[108.91027,19.2198],[108.93049,19.22438],[108.95517,19.21841],[108.96683,19.20056],[108.97442,19.16394],[109.00163,19.15009],[108.98523,19.14154],[108.98789,19.13267],[109.01076,19.12871],[109.01715,19.11876],[109.00391,19.07714],[109.00536,19.04703],[109.03033,19.03946],[109.0508,19.04543],[109.09289,19.0322],[109.10605,18.99683],[109.10852,18.9683],[109.08514,18.91015],[109.12151,18.88001],[109.12029,18.86424],[109.09064,18.85903],[109.07692,18.84659],[109.06536,18.80728],[109.0467,18.80937],[109.03908,18.8021],[109.01124,18.81079],[108.99438,18.80616],[108.98234,18.78845],[108.91434,18.79772],[108.91219,18.78956],[108.8868,18.78694],[108.86837,18.76543],[108.8148,18.73949],[108.80995,18.72064],[108.78671,18.72484],[108.77284,18.71852],[108.75537,18.73983],[108.73801,18.73124],[108.70894,18.73593],[108.69575,18.72427],[108.66737,18.79966],[108.65243,18.81508],[108.62543,18.82384],[108.62331,18.8401],[108.65206,18.89614],[108.65899,18.93123],[108.61466,19.09963],[108.65057,19.1228],[108.678,19.17047],[108.67559,19.1896],[108.66464,19.20189],[108.63165,19.21779],[108.63504,19.28804],[108.65503,19.31519]]]}},{"type":"Feature","id":"CTAMAP-2023-COUNTY-0633","properties":{"map_level":"county","source_name":"海棠区","source_code":"460202","county_type":"市辖区","prefecture_name":"三亚市","prefecture_code":"460200","prefecture_type":"地级市","parent_entity_id":"CNUR-000232","parent_year_end_name":"三亚市","province_name":"海南省","province_code":"460000","snapshot_year":2023,"panel_year":2022,"link_status":"parent_linked","former_name":"海棠湾镇","note":"2014年撤销海棠湾镇，新设海棠区"},"geometry":{"type":"MultiPolygon","coordinates":[[[[109.77626,18.51222],[109.77398,18.49347],[109.79609,18.48802],[109.8082,18.46427],[109.79874,18.44116],[109.78088,18.43639],[109.78649,18.40652],[109.75485,18.37782],[109.72085,18.29727],[109.72116,18.27823],[109.73741,18.27234],[109.70921,18.26386],[109.70045,18.28732],[109.69373,18.27709],[109.67394,18.2759],[109.68626,18.2589],[109.69995,18.28473],[109.70305,18.2613],[109.73272,18.26116],[109.74188,18.24459],[109.70457,18.24061],[109.68351,18.25166],[109.6577,18.2513],[109.64657,18.276],[109.66415,18.3315],[109.6558,18.34305],[109.6607,18.3607],[109.65252,18.36792],[109.67233,18.37623],[109.6609,18.39584],[109.67938,18.39837],[109.67546,18.40756],[109.68621,18.41522],[109.69213,18.43749],[109.70587,18.42696],[109.7037,18.45271],[109.71493,18.4745],[109.72255,18.47488],[109.72086,18.49474],[109.75556,18.50443],[109.75779,18.52657],[109.76528,18.52914],[109.77626,18.51222]]],[[[109.76223,18.30598],[109.75571,18.31142],[109.75545,18.31527],[109.76842,18.31517],[109.76223,18.30598]]]]}},{"type":"Feature","id":"CTAMAP-2023-COUNTY-0831","properties":{"map_level":"county","source_name":"吉阳区","source_code":"460203","county_type":"市辖区","prefecture_name":"三亚市","prefecture_code":"460200","prefecture_type":"地级市","parent_entity_id":"CNUR-000232","parent_year_end_name":"三亚市","province_name":"海南省","province_code":"460000","snapshot_year":2023,"panel_year":2022,"link_status":"parent_linked","former_name":"吉阳镇","note":"2014年撤销吉阳镇，新设吉阳区"},"geometry":{"type":"MultiPolygon","coordinates":[[[[109.66133,18.39265],[109.67233,18.37623],[109.65252,18.36792],[109.6607,18.3607],[109.6558,18.34305],[109.66415,18.3315],[109.66092,18.30783],[109.64987,18.29822],[109.652,18.2575],[109.70457,18.24061],[109.74188,18.24459],[109.72632,18.23228],[109.72736,18.21265],[109.70694,18.21862],[109.70186,18.21061],[109.71152,18.19704],[109.69965,18.19718],[109.68888,18.2087],[109.69606,18.22391],[109.68617,18.23538],[109.63228,18.22862],[109.60979,18.21434],[109.60668,18.19402],[109.62196,18.17393],[109.60621,18.18217],[109.60088,18.17488],[109.58222,18.18017],[109.57402,18.15939],[109.55807,18.17247],[109.56789,18.18055],[109.56528,18.19101],[109.57528,18.20697],[109.5437,18.22143],[109.57425,18.24002],[109.56574,18.25749],[109.5634,18.24007],[109.53261,18.22918],[109.5402,18.22052],[109.53784,18.20524],[109.5242,18.22204],[109.51334,18.22186],[109.50539,18.2085],[109.49656,18.2113],[109.48839,18.18943],[109.47849,18.19039],[109.47172,18.21084],[109.48652,18.21478],[109.49317,18.23136],[109.50563,18.22191],[109.51561,18.2278],[109.5046,18.2305],[109.5056,18.2589],[109.4926,18.2711],[109.50455,18.29386],[109.47746,18.29766],[109.50227,18.3197],[109.49848,18.35237],[109.51089,18.37769],[109.5351,18.40034],[109.57366,18.39043],[109.5849,18.39779],[109.60005,18.38937],[109.63429,18.40306],[109.64104,18.39485],[109.66133,18.39265]]],[[[109.66751,18.21739],[109.65859,18.21596],[109.65967,18.22242],[109.66751,18.21739]]],[[[109.69781,18.18887],[109.69283,18.18202],[109.69084,18.18534],[109.69781,18.18887]]]]}},{"type":"Feature","id":"CTAMAP-2023-COUNTY-1083","properties":{"map_level":"county","source_name":"乐东黎族自治县","source_code":"469027","county_type":"自治县","prefecture_name":"不统计","prefecture_code":"0","prefecture_type":"不统计","parent_entity_id":"","parent_year_end_name":"","province_name":"海南省","province_code":"460000","snapshot_year":2023,"panel_year":2022,"link_status":"province_direct_or_out_of_scope","former_name":"","note":"省直辖县,省直管,是县级单位"},"geometry":{"type":"Polygon","coordinates":[[[109.34296,18.94821],[109.31947,18.92118],[109.339,18.90068],[109.33913,18.87881],[109.35808,18.87237],[109.37002,18.85533],[109.34852,18.81124],[109.352,18.71292],[109.39265,18.6743],[109.39008,18.64513],[109.40318,18.62884],[109.35494,18.58798],[109.32519,18.57384],[109.30976,18.55118],[109.31571,18.5307],[109.30922,18.51915],[109.29082,18.51473],[109.28791,18.53157],[109.27513,18.53363],[109.24497,18.56104],[109.22804,18.55331],[109.20101,18.55597],[109.18191,18.51755],[109.19112,18.48439],[109.1836,18.45682],[109.16299,18.45304],[109.14659,18.46746],[109.11366,18.45964],[109.10422,18.46425],[109.08179,18.44782],[109.06792,18.45388],[109.05885,18.43599],[109.04653,18.43893],[109.01133,18.4244],[109.00052,18.40168],[108.98146,18.39252],[108.97501,18.38038],[108.96011,18.40213],[108.86232,18.43113],[108.86653,18.43821],[108.85589,18.43575],[108.85161,18.44677],[108.81561,18.4727],[108.68766,18.50608],[108.6746,18.55201],[108.70053,18.62074],[108.70309,18.66739],[108.69271,18.68256],[108.69924,18.69658],[108.69575,18.72427],[108.70894,18.73593],[108.73801,18.73124],[108.75537,18.73983],[108.77284,18.71852],[108.78671,18.72484],[108.81038,18.72076],[108.8148,18.73949],[108.86837,18.76543],[108.8868,18.78694],[108.91219,18.78956],[108.91434,18.79772],[108.98234,18.78845],[108.99438,18.80616],[109.01124,18.81079],[109.03908,18.8021],[109.0467,18.80937],[109.06536,18.80728],[109.07692,18.84659],[109.09064,18.85903],[109.12029,18.86424],[109.13704,18.90553],[109.17415,18.91254],[109.21967,18.89516],[109.26069,18.90739],[109.26444,18.93504],[109.29115,18.95297],[109.29501,18.96449],[109.34296,18.94821]]]}},{"type":"Feature","id":"CTAMAP-2023-COUNTY-1164","properties":{"map_level":"county","source_name":"临高县","source_code":"469024","county_type":"县","prefecture_name":"不统计","prefecture_code":"0","prefecture_type":"不统计","parent_entity_id":"","parent_year_end_name":"","province_name":"海南省","province_code":"460000","snapshot_year":2023,"panel_year":2022,"link_status":"province_direct_or_out_of_scope","former_name":"","note":"省直辖县,省直管,是县级单位"},"geometry":{"type":"Polygon","coordinates":[[[109.86474,19.94189],[109.88849,19.92156],[109.88229,19.90952],[109.88737,19.89799],[109.87412,19.88586],[109.85632,19.90124],[109.84012,19.89535],[109.84714,19.88236],[109.83792,19.87336],[109.88006,19.85579],[109.87845,19.84237],[109.86861,19.83798],[109.88109,19.82275],[109.87047,19.80173],[109.89238,19.78187],[109.87395,19.74374],[109.87594,19.72192],[109.85733,19.69674],[109.85349,19.66152],[109.82937,19.64895],[109.82252,19.63135],[109.80978,19.62387],[109.8263,19.60407],[109.79675,19.60388],[109.78932,19.61498],[109.76678,19.58054],[109.73891,19.57786],[109.73204,19.58386],[109.73735,19.5851],[109.7407,19.59262],[109.7059,19.57943],[109.65536,19.61297],[109.65973,19.62699],[109.67043,19.63083],[109.60775,19.63061],[109.59636,19.6433],[109.5794,19.63918],[109.58392,19.64984],[109.5696,19.66703],[109.56375,19.69231],[109.55415,19.69312],[109.55297,19.71205],[109.56543,19.70584],[109.58979,19.72149],[109.59801,19.76261],[109.57611,19.77204],[109.56608,19.79358],[109.56484,19.812],[109.57593,19.83182],[109.56542,19.8411],[109.5663,19.86221],[109.51892,19.87411],[109.52359,19.89011],[109.51648,19.89784],[109.52449,19.91324],[109.55973,19.9141],[109.53328,19.91565],[109.53631,19.94484],[109.55602,19.9519],[109.57993,19.98051],[109.61377,19.99423],[109.64427,19.99443],[109.71077,20.01276],[109.72822,19.99907],[109.73269,19.97274],[109.73438,19.98764],[109.76078,19.96527],[109.80226,19.96497],[109.80379,19.93936],[109.82172,19.95158],[109.81587,19.98516],[109.83434,19.97884],[109.84085,19.9485],[109.85389,19.93924],[109.86474,19.94189]]]}},{"type":"Feature","id":"CTAMAP-2023-COUNTY-1207","properties":{"map_level":"county","source_name":"陵水黎族自治县","source_code":"469028","county_type":"自治县","prefecture_name":"不统计","prefecture_code":"0","prefecture_type":"不统计","parent_entity_id":"","parent_year_end_name":"","province_name":"海南省","province_code":"460000","snapshot_year":2023,"panel_year":2022,"link_status":"province_direct_or_out_of_scope","former_name":"","note":"省直辖县,省直管,是县级单位"},"geometry":{"type":"MultiPolygon","coordinates":[[[[110.01038,18.73465],[110.01257,18.67214],[110.03306,18.63486],[110.06135,18.63421],[110.11236,18.59399],[110.13851,18.60764],[110.17599,18.58994],[110.15693,18.5823],[110.13983,18.55397],[110.12411,18.55107],[110.1036,18.53112],[110.06764,18.41173],[110.0581,18.41151],[110.06435,18.43111],[110.05515,18.44449],[110.03975,18.4316],[110.04853,18.42067],[110.04207,18.41056],[110.06042,18.40732],[110.05466,18.391],[110.00026,18.37457],[109.99174,18.38619],[109.96839,18.38833],[109.96609,18.40892],[110.00056,18.39622],[110.01847,18.40949],[110.03195,18.43587],[110.02362,18.44668],[110.01633,18.43155],[109.98675,18.43533],[109.96731,18.41116],[109.90191,18.41395],[109.8225,18.37785],[109.81133,18.39905],[109.78343,18.40045],[109.7808,18.43622],[109.79874,18.44116],[109.8082,18.46451],[109.79609,18.48802],[109.77748,18.48909],[109.77201,18.50663],[109.79956,18.52005],[109.80259,18.50949],[109.81191,18.51586],[109.82339,18.51188],[109.83331,18.52734],[109.83087,18.54301],[109.84601,18.5519],[109.84806,18.56177],[109.84253,18.57292],[109.82153,18.57184],[109.81965,18.58231],[109.80028,18.59544],[109.80459,18.63072],[109.81191,18.63797],[109.82924,18.63537],[109.81847,18.65847],[109.8361,18.67962],[109.81799,18.6996],[109.81866,18.70833],[109.80112,18.70923],[109.79983,18.727],[109.77649,18.71847],[109.76728,18.72341],[109.77298,18.7374],[109.76531,18.74406],[109.76901,18.7621],[109.75174,18.76599],[109.7518,18.79161],[109.76934,18.81044],[109.77755,18.79493],[109.80112,18.78215],[109.80935,18.74368],[109.82678,18.72969],[109.85271,18.72932],[109.88311,18.75778],[109.89848,18.74059],[109.91768,18.76122],[109.94867,18.77446],[109.97642,18.76884],[109.99001,18.74616],[110.01038,18.73465]]],[[[110.19756,18.58213],[110.19464,18.5746],[110.19287,18.57513],[110.19756,18.58213]]]]}},{"type":"Feature","id":"CTAMAP-2023-COUNTY-1228","properties":{"map_level":"county","source_name":"龙华区","source_code":"460106","county_type":"市辖区","prefecture_name":"海口市","prefecture_code":"460100","prefecture_type":"地级市","parent_entity_id":"CNUR-000231","parent_year_end_name":"海口市","province_name":"海南省","province_code":"460000","snapshot_year":2023,"panel_year":2022,"link_status":"parent_linked","former_name":"新华区","note":"2002年撤销新华区，设立龙华区"},"geometry":{"type":"Polygon","coordinates":[[[110.3128,20.04975],[110.34309,20.03811],[110.32828,20.02495],[110.33539,20.00687],[110.32925,20.00235],[110.33757,19.98797],[110.34615,19.98894],[110.33806,19.96972],[110.35777,19.96583],[110.35684,19.95186],[110.38746,19.93173],[110.38195,19.92288],[110.39013,19.91395],[110.37363,19.88119],[110.37896,19.86013],[110.39563,19.84603],[110.41285,19.85217],[110.40781,19.81899],[110.38823,19.82031],[110.38179,19.79304],[110.38963,19.76837],[110.37125,19.74191],[110.36949,19.71733],[110.33509,19.72149],[110.33098,19.7564],[110.29356,19.7616],[110.28359,19.7756],[110.27759,19.77187],[110.26823,19.78592],[110.24831,19.7949],[110.25681,19.82017],[110.27184,19.82828],[110.27142,19.84116],[110.29712,19.86519],[110.30987,19.92857],[110.3091,19.95654],[110.26411,19.95272],[110.27758,19.97668],[110.29906,19.98523],[110.29007,19.99414],[110.28708,20.03501],[110.30083,20.03469],[110.3128,20.04975]]]}},{"type":"Feature","id":"CTAMAP-2023-COUNTY-1360","properties":{"map_level":"county","source_name":"美兰区","source_code":"460108","county_type":"市辖区","prefecture_name":"海口市","prefecture_code":"460100","prefecture_type":"地级市","parent_entity_id":"CNUR-000231","parent_year_end_name":"海口市","province_name":"海南省","province_code":"460000","snapshot_year":2023,"panel_year":2022,"link_status":"parent_linked","former_name":"振东区","note":"2002年撤销振东区，设立美兰区"},"geometry":{"type":"MultiPolygon","coordinates":[[[[110.61951,19.97293],[110.63735,19.95535],[110.64023,19.93152],[110.64979,19.93194],[110.67088,19.9105],[110.67131,19.86327],[110.69531,19.8634],[110.70912,19.84837],[110.6946,19.83661],[110.70152,19.80909],[110.68406,19.8002],[110.66852,19.81346],[110.65555,19.80962],[110.63405,19.79136],[110.64956,19.78226],[110.60619,19.75367],[110.60746,19.76716],[110.56785,19.77091],[110.5702,19.78704],[110.55589,19.80478],[110.56084,19.81408],[110.55153,19.83233],[110.56911,19.8459],[110.5513,19.85624],[110.5447,19.87749],[110.53466,19.88003],[110.5318,19.89145],[110.53874,19.89315],[110.51244,19.89996],[110.50123,19.91837],[110.47742,19.91424],[110.45742,19.93012],[110.45072,19.92731],[110.45209,19.90926],[110.43741,19.91778],[110.42907,19.91397],[110.41004,19.9552],[110.40985,19.97719],[110.37359,20.00735],[110.38238,20.01854],[110.33084,20.01934],[110.32828,20.02495],[110.34283,20.03601],[110.34054,20.04592],[110.30091,20.06363],[110.30762,20.07481],[110.36688,20.09144],[110.37461,20.07881],[110.48991,20.02376],[110.54696,20.01903],[110.5369,20.00105],[110.54871,19.96396],[110.5669,19.9792],[110.57147,20.0004],[110.58589,19.99617],[110.57897,19.97273],[110.59017,19.95774],[110.58063,19.95713],[110.57589,19.94317],[110.59059,19.94888],[110.58945,19.93954],[110.58233,19.94181],[110.57921,19.93695],[110.5944,19.92833],[110.59874,19.90902],[110.60442,19.9226],[110.63255,19.92084],[110.61951,19.97293]]],[[[110.55625,20.02318],[110.56509,20.01897],[110.55296,20.01453],[110.55625,20.02318]]]]}},{"type":"Feature","id":"CTAMAP-2023-COUNTY-1657","properties":{"map_level":"county","source_name":"琼海市","source_code":"469002","county_type":"县级市","prefecture_name":"不统计","prefecture_code":"0","prefecture_type":"不统计","parent_entity_id":"","parent_year_end_name":"","province_name":"海南省","province_code":"460000","snapshot_year":2023,"panel_year":2022,"link_status":"province_direct_or_out_of_scope","former_name":"","note":"省直辖市,省直管,是县级单位"},"geometry":{"type":"MultiPolygon","coordinates":[[[[110.54823,19.47433],[110.56038,19.4439],[110.57847,19.43449],[110.57342,19.40358],[110.58741,19.38686],[110.58316,19.36111],[110.6184,19.3573],[110.62831,19.39455],[110.64326,19.39039],[110.65586,19.40269],[110.67836,19.39249],[110.66931,19.36348],[110.68451,19.33626],[110.67771,19.31993],[110.65927,19.30709],[110.64832,19.31392],[110.63556,19.30582],[110.63755,19.26567],[110.6193,19.23639],[110.62419,19.23223],[110.61664,19.22241],[110.6132,19.20698],[110.59707,19.19464],[110.58651,19.15851],[110.57435,19.15618],[110.5556,19.14214],[110.56474,19.11798],[110.55357,19.10825],[110.55994,19.09475],[110.56775,19.11708],[110.56442,19.1325],[110.57633,19.13164],[110.57164,19.09077],[110.54657,19.09634],[110.54139,19.09032],[110.5311,19.10456],[110.51853,19.10337],[110.51047,19.09733],[110.51145,19.07918],[110.50368,19.07993],[110.47427,19.10452],[110.45667,19.09301],[110.46545,19.07584],[110.45378,19.06555],[110.42724,19.0548],[110.4211,19.05956],[110.41007,19.0428],[110.37785,19.03917],[110.34239,19.02328],[110.34178,19.00802],[110.30368,19.00371],[110.28614,18.98521],[110.27497,18.98916],[110.24374,18.97774],[110.22475,19.00393],[110.19717,18.99824],[110.19343,19.01469],[110.18611,19.01238],[110.18798,18.9931],[110.1759,18.99399],[110.16167,19.00981],[110.1518,19.00423],[110.15133,19.02524],[110.13991,19.02734],[110.11686,19.05846],[110.12623,19.08105],[110.11536,19.13274],[110.14009,19.16819],[110.13197,19.17942],[110.14319,19.18639],[110.14106,19.20784],[110.15489,19.2063],[110.15945,19.19618],[110.17828,19.19597],[110.22904,19.2157],[110.22556,19.2239],[110.23722,19.23057],[110.25758,19.21375],[110.27204,19.22841],[110.28866,19.21845],[110.31664,19.2343],[110.33348,19.22615],[110.34185,19.23498],[110.33469,19.25307],[110.33961,19.27452],[110.3556,19.28313],[110.36235,19.30007],[110.31921,19.32308],[110.32831,19.32855],[110.33869,19.35579],[110.3541,19.35889],[110.36256,19.38627],[110.38586,19.39586],[110.41035,19.42459],[110.41806,19.41712],[110.43229,19.42],[110.42825,19.43406],[110.43706,19.43748],[110.43804,19.44967],[110.48586,19.44682],[110.49573,19.4716],[110.52129,19.46684],[110.54823,19.47433]]],[[[110.56526,19.13504],[110.56035,19.1436],[110.57495,19.15088],[110.57472,19.14097],[110.56526,19.13504]]],[[[110.624,19.2167],[110.6183,19.2108],[110.6187,19.2193],[110.624,19.2167]]]]}},{"type":"Feature","id":"CTAMAP-2023-COUNTY-1659","properties":{"map_level":"county","source_name":"琼山区","source_code":"460107","county_type":"市辖区","prefecture_name":"海口市","prefecture_code":"460100","prefecture_type":"地级市","parent_entity_id":"CNUR-000231","parent_year_end_name":"海口市","province_name":"海南省","province_code":"460000","snapshot_year":2023,"panel_year":2022,"link_status":"parent_linked","former_name":"琼山市","note":"2002年撤销琼山市，设立琼山区"},"geometry":{"type":"Polygon","coordinates":[[[110.6357,19.77006],[110.61955,19.735],[110.62463,19.72427],[110.64217,19.71663],[110.64205,19.7085],[110.60434,19.69778],[110.62021,19.69722],[110.62177,19.66127],[110.66828,19.64935],[110.65071,19.64057],[110.65092,19.62028],[110.63118,19.59539],[110.63784,19.54994],[110.62886,19.53678],[110.56202,19.52607],[110.54046,19.54001],[110.54505,19.56496],[110.52168,19.55871],[110.50382,19.57359],[110.50119,19.58747],[110.48469,19.5953],[110.47246,19.58452],[110.45291,19.58793],[110.44514,19.57299],[110.41851,19.58721],[110.42004,19.60912],[110.39094,19.61089],[110.36859,19.65459],[110.37371,19.68782],[110.38966,19.7016],[110.37125,19.74191],[110.38963,19.76837],[110.38198,19.7953],[110.38904,19.8218],[110.40781,19.81899],[110.41285,19.85217],[110.39563,19.84603],[110.37896,19.86013],[110.37363,19.88119],[110.39013,19.91395],[110.38195,19.92288],[110.38746,19.93173],[110.35684,19.95186],[110.35777,19.96583],[110.33806,19.96972],[110.34615,19.98894],[110.33757,19.98797],[110.32925,20.00235],[110.33539,20.00687],[110.33084,20.01934],[110.38238,20.01854],[110.37359,20.00735],[110.40985,19.97719],[110.41004,19.9552],[110.42907,19.91397],[110.43741,19.91778],[110.45209,19.90926],[110.45072,19.92731],[110.45742,19.93012],[110.47742,19.91424],[110.50123,19.91837],[110.51244,19.89996],[110.53874,19.89315],[110.5318,19.89145],[110.53466,19.88003],[110.5447,19.87749],[110.5513,19.85624],[110.56911,19.8459],[110.55153,19.83233],[110.56084,19.81408],[110.55589,19.80478],[110.5702,19.78704],[110.56829,19.77009],[110.60746,19.76716],[110.60619,19.75367],[110.62779,19.77184],[110.6357,19.77006]]]}},{"type":"Feature","id":"CTAMAP-2023-COUNTY-1660","properties":{"map_level":"county","source_name":"琼中黎族苗族自治县","source_code":"469030","county_type":"自治县","prefecture_name":"不统计","prefecture_code":"0","prefecture_type":"不统计","parent_entity_id":"","parent_year_end_name":"","province_name":"海南省","province_code":"460000","snapshot_year":2023,"panel_year":2022,"link_status":"province_direct_or_out_of_scope","former_name":"","note":"省直辖县,省直管,是县级单位"},"geometry":{"type":"Polygon","coordinates":[[[109.87171,19.38942],[109.84801,19.37978],[109.81988,19.3425],[109.81663,19.29167],[109.84299,19.27533],[109.86383,19.27664],[109.88424,19.25987],[109.88833,19.24297],[109.91093,19.24582],[109.93361,19.23375],[109.94924,19.21093],[109.94467,19.19677],[109.98787,19.19628],[110.00156,19.18041],[110.02495,19.17554],[110.05298,19.14849],[110.0537,19.13382],[110.09495,19.13931],[110.11538,19.13258],[110.12623,19.08105],[110.11693,19.05794],[110.13991,19.02734],[110.15351,19.0212],[110.14749,19.01082],[110.15283,18.99673],[110.14414,18.98637],[110.15115,18.97823],[110.11387,18.94836],[110.10142,18.94815],[110.10307,18.91768],[110.04198,18.88408],[110.07608,18.85229],[110.09537,18.80995],[110.06644,18.78713],[110.06821,18.77368],[110.05943,18.77234],[110.05489,18.76064],[110.03804,18.76287],[110.0268,18.7394],[110.01255,18.73455],[109.99001,18.74616],[109.97642,18.76884],[109.94867,18.77446],[109.91768,18.76122],[109.89848,18.74059],[109.88311,18.75778],[109.85271,18.72932],[109.82645,18.72982],[109.80935,18.74368],[109.80112,18.78215],[109.77755,18.79493],[109.76245,18.82191],[109.73943,18.81813],[109.70998,18.83572],[109.71113,18.86555],[109.69388,18.88812],[109.70418,18.89947],[109.71961,18.9021],[109.72597,18.91539],[109.68361,18.92877],[109.65787,18.91572],[109.62391,18.92239],[109.59884,18.9115],[109.5921,18.92277],[109.57219,18.92812],[109.56963,18.94228],[109.5473,18.95062],[109.54031,18.98029],[109.5236,19.00202],[109.52711,19.01711],[109.51874,19.03179],[109.53589,19.04082],[109.54157,19.06893],[109.55597,19.07606],[109.60726,19.05697],[109.60675,19.0896],[109.64755,19.10273],[109.65862,19.12966],[109.68411,19.11998],[109.6984,19.13646],[109.69954,19.1554],[109.68407,19.16516],[109.68181,19.18409],[109.70372,19.22345],[109.70403,19.24608],[109.69258,19.27551],[109.70853,19.30809],[109.70992,19.33163],[109.69653,19.3508],[109.64444,19.35431],[109.63938,19.40238],[109.69273,19.41746],[109.71268,19.40512],[109.73113,19.41078],[109.76391,19.40144],[109.76871,19.38778],[109.78762,19.37486],[109.79178,19.38405],[109.8224,19.39765],[109.83866,19.3864],[109.84945,19.3909],[109.83506,19.40286],[109.85282,19.42209],[109.87171,19.38942]]]}},{"type":"Feature","id":"CTAMAP-2023-COUNTY-1959","properties":{"map_level":"county","source_name":"天涯区","source_code":"460204","county_type":"市辖区","prefecture_name":"三亚市","prefecture_code":"460200","prefecture_type":"地级市","parent_entity_id":"CNUR-000232","parent_year_end_name":"三亚市","province_name":"海南省","province_code":"460000","snapshot_year":2023,"panel_year":2022,"link_status":"parent_linked","former_name":"","note":"2014年新设天涯区"},"geometry":{"type":"MultiPolygon","coordinates":[[[[109.40047,18.62484],[109.41892,18.5645],[109.43236,18.57059],[109.45195,18.5585],[109.49958,18.55689],[109.50335,18.54343],[109.53235,18.53163],[109.53393,18.49227],[109.51621,18.45986],[109.52331,18.4465],[109.51683,18.43581],[109.5104,18.43754],[109.5351,18.40034],[109.5005,18.36503],[109.50227,18.3197],[109.47746,18.29766],[109.50455,18.29386],[109.4925,18.2719],[109.5056,18.2589],[109.5046,18.2305],[109.5071,18.2282],[109.51492,18.22969],[109.51558,18.22807],[109.50637,18.22198],[109.49962,18.23202],[109.4835,18.22894],[109.49824,18.23857],[109.49183,18.25869],[109.44874,18.28544],[109.35468,18.29014],[109.32253,18.30568],[109.2275,18.30094],[109.22518,18.34582],[109.25977,18.3593],[109.2603,18.40329],[109.26899,18.41074],[109.2587,18.4181],[109.2567,18.43154],[109.2452,18.43092],[109.24699,18.45467],[109.21217,18.45089],[109.2001,18.4728],[109.19053,18.46991],[109.18183,18.51631],[109.1871,18.53489],[109.20101,18.55597],[109.22804,18.55331],[109.24445,18.56116],[109.27513,18.53363],[109.28791,18.53157],[109.29082,18.51473],[109.30896,18.51901],[109.31571,18.5307],[109.30976,18.55118],[109.32519,18.57384],[109.40047,18.62484]]],[[[109.49384,18.24511],[109.48292,18.23586],[109.47324,18.23067],[109.49384,18.24511]]],[[[109.37775,18.2311],[109.36341,18.22959],[109.36816,18.24597],[109.37775,18.2311]]],[[[109.41804,18.21711],[109.41222,18.21347],[109.41332,18.22264],[109.41804,18.21711]]],[[[109.27596,18.291],[109.27395,18.28362],[109.27156,18.29065],[109.27596,18.291]]],[[[109.27568,18.29718],[109.28136,18.29165],[109.27604,18.2927],[109.27568,18.29718]]]]}},{"type":"Feature","id":"CTAMAP-2023-COUNTY-2010","properties":{"map_level":"county","source_name":"屯昌县","source_code":"469022","county_type":"县","prefecture_name":"不统计","prefecture_code":"0","prefecture_type":"不统计","parent_entity_id":"","parent_year_end_name":"","province_name":"海南省","province_code":"460000","snapshot_year":2023,"panel_year":2022,"link_status":"province_direct_or_out_of_scope","former_name":"","note":"省直辖县,省直管,是县级单位"},"geometry":{"type":"Polygon","coordinates":[[[110.21587,19.22941],[110.22904,19.2157],[110.17848,19.19599],[110.15945,19.19618],[110.15489,19.2063],[110.14114,19.20792],[110.14319,19.18639],[110.13197,19.17942],[110.14009,19.16819],[110.11538,19.13258],[110.09495,19.13931],[110.0537,19.13382],[110.05298,19.14849],[110.02495,19.17554],[110.00156,19.18041],[109.98787,19.19628],[109.94498,19.1966],[109.94924,19.21093],[109.93361,19.23375],[109.91093,19.24582],[109.88833,19.24297],[109.88424,19.25987],[109.86383,19.27664],[109.84299,19.27533],[109.82255,19.28594],[109.81663,19.29167],[109.81975,19.34224],[109.85838,19.38853],[109.88531,19.37983],[109.90725,19.39145],[109.90243,19.39777],[109.90973,19.40711],[109.90023,19.41197],[109.91073,19.41446],[109.9111,19.42881],[109.93791,19.42959],[109.92196,19.43928],[109.94379,19.46848],[109.93304,19.47732],[109.93382,19.48951],[109.96649,19.49227],[109.98735,19.48518],[109.99859,19.49264],[110.00222,19.48576],[110.02587,19.48576],[110.04623,19.45738],[110.07072,19.47514],[110.07272,19.50089],[110.10278,19.4962],[110.11698,19.5054],[110.09716,19.55099],[110.15378,19.56737],[110.15341,19.5756],[110.18626,19.59329],[110.19685,19.56154],[110.19175,19.53774],[110.23897,19.52011],[110.24839,19.49736],[110.22873,19.48679],[110.22557,19.44852],[110.2095,19.44608],[110.19503,19.46121],[110.15922,19.43082],[110.15343,19.39273],[110.16214,19.36195],[110.17199,19.35162],[110.18479,19.35397],[110.17972,19.34928],[110.18524,19.33823],[110.17226,19.32676],[110.18341,19.31984],[110.17935,19.31298],[110.18691,19.30811],[110.20714,19.31409],[110.22947,19.29743],[110.22888,19.28282],[110.21622,19.27155],[110.22469,19.25779],[110.21385,19.24753],[110.22222,19.24204],[110.21587,19.22941]]]}},{"type":"Feature","id":"CTAMAP-2023-COUNTY-2021","properties":{"map_level":"county","source_name":"万宁市","source_code":"469006","county_type":"县级市","prefecture_name":"不统计","prefecture_code":"0","prefecture_type":"不统计","parent_entity_id":"","parent_year_end_name":"","province_name":"海南省","province_code":"460000","snapshot_year":2023,"panel_year":2022,"link_status":"province_direct_or_out_of_scope","former_name":"","note":"省直辖市,省直管,是县级单位"},"geometry":{"type":"MultiPolygon","coordinates":[[[[110.57164,19.09077],[110.5675,19.04762],[110.53714,19.03839],[110.51648,18.98923],[110.51454,18.89148],[110.50808,18.89455],[110.49163,18.88884],[110.47185,18.86977],[110.46886,18.87877],[110.46506,18.87654],[110.46276,18.87449],[110.46932,18.84945],[110.46022,18.83777],[110.43491,18.83568],[110.43464,18.82031],[110.44712,18.80881],[110.48335,18.80159],[110.48934,18.79212],[110.51254,18.80177],[110.4984,18.8202],[110.50503,18.82885],[110.49125,18.86936],[110.49669,18.88788],[110.50778,18.89177],[110.51943,18.8286],[110.53924,18.78185],[110.52853,18.78913],[110.51371,18.77335],[110.5024,18.78136],[110.4877,18.76589],[110.48318,18.77585],[110.46441,18.76933],[110.44848,18.7322],[110.43479,18.72698],[110.42725,18.68109],[110.41349,18.66037],[110.39294,18.67611],[110.37114,18.67235],[110.35934,18.66156],[110.3471,18.6731],[110.32728,18.6676],[110.35921,18.68919],[110.37798,18.68621],[110.38393,18.68862],[110.39897,18.68487],[110.41007,18.69567],[110.41366,18.68319],[110.41549,18.69631],[110.39292,18.70361],[110.39764,18.68745],[110.38266,18.6922],[110.34909,18.68973],[110.31208,18.65993],[110.28377,18.66931],[110.25617,18.65881],[110.2272,18.63025],[110.21733,18.63158],[110.19211,18.61303],[110.17601,18.58811],[110.17047,18.59706],[110.15226,18.59704],[110.13851,18.60764],[110.10884,18.59532],[110.09249,18.61568],[110.076,18.61709],[110.06135,18.63421],[110.03769,18.63218],[110.022,18.64719],[110.00998,18.68545],[110.01038,18.73465],[110.0268,18.7394],[110.03804,18.76287],[110.05489,18.76064],[110.05943,18.77234],[110.06821,18.77368],[110.06644,18.78713],[110.09537,18.80995],[110.07608,18.85229],[110.04198,18.88408],[110.10307,18.91768],[110.10142,18.94815],[110.11386,18.94835],[110.14928,18.97563],[110.14429,18.9884],[110.15648,19.00709],[110.18798,18.9931],[110.18611,19.01238],[110.19563,19.01407],[110.19717,18.99824],[110.22475,19.00393],[110.24374,18.97774],[110.27497,18.98916],[110.28614,18.98521],[110.30368,19.00371],[110.34178,19.00802],[110.34239,19.02328],[110.37785,19.03917],[110.41007,19.0428],[110.4211,19.05956],[110.42724,19.0548],[110.45378,19.06555],[110.46545,19.07584],[110.45667,19.09301],[110.47427,19.10452],[110.50368,19.07993],[110.51145,19.07918],[110.51047,19.09733],[110.51853,19.10337],[110.5311,19.10456],[110.54139,19.09032],[110.54657,19.09634],[110.57164,19.09077]]],[[[110.48132,18.65552],[110.47478,18.66773],[110.48601,18.67467],[110.49459,18.66704],[110.48132,18.65552]]],[[[110.4833,18.68055],[110.47299,18.67563],[110.47142,18.69016],[110.4833,18.68055]]],[[[110.20001,18.60756],[110.19152,18.60668],[110.19791,18.61219],[110.20001,18.60756]]],[[[110.36306,18.64025],[110.35299,18.64116],[110.36072,18.64353],[110.36306,18.64025]]],[[[110.20847,18.61476],[110.20113,18.61161],[110.20313,18.61747],[110.20847,18.61476]]],[[[110.46335,18.87456],[110.4647,18.87457],[110.46701,18.87143],[110.46335,18.87456]]]]}},{"type":"Feature","id":"CTAMAP-2023-COUNTY-2065","properties":{"map_level":"county","source_name":"文昌市","source_code":"469005","county_type":"县级市","prefecture_name":"不统计","prefecture_code":"0","prefecture_type":"不统计","parent_entity_id":"","parent_year_end_name":"","province_name":"海南省","province_code":"460000","snapshot_year":2023,"panel_year":2022,"link_status":"province_direct_or_out_of_scope","former_name":"","note":"省直辖市,省直管,是县级单位"},"geometry":{"type":"MultiPolygon","coordinates":[[[[110.67836,19.39249],[110.65586,19.40269],[110.64326,19.39039],[110.6311,19.39691],[110.61853,19.3574],[110.58575,19.35895],[110.58154,19.37334],[110.58741,19.38686],[110.57342,19.40358],[110.57847,19.43449],[110.55167,19.45599],[110.54235,19.49406],[110.51332,19.51439],[110.48733,19.5081],[110.48027,19.51277],[110.47447,19.50369],[110.46194,19.53117],[110.49958,19.56538],[110.52246,19.55854],[110.54505,19.56496],[110.54046,19.54001],[110.56244,19.526],[110.60718,19.52843],[110.62873,19.53667],[110.63768,19.54929],[110.63061,19.59374],[110.65092,19.62028],[110.65071,19.64057],[110.66828,19.64935],[110.62177,19.66127],[110.62021,19.69722],[110.60435,19.69782],[110.64219,19.70889],[110.64217,19.71663],[110.62463,19.72427],[110.61955,19.735],[110.64228,19.78165],[110.65028,19.78494],[110.63411,19.79153],[110.66569,19.81421],[110.68406,19.8002],[110.70123,19.80883],[110.6946,19.83661],[110.70905,19.8496],[110.69479,19.8636],[110.67131,19.86327],[110.67088,19.9105],[110.64979,19.93194],[110.64023,19.93152],[110.63735,19.95535],[110.61143,19.98187],[110.60877,20.00872],[110.60239,20.00624],[110.60192,20.01308],[110.61316,20.01161],[110.61173,20.02374],[110.60466,20.01753],[110.59136,20.02551],[110.57521,20.02086],[110.56645,20.04637],[110.57941,20.07966],[110.57362,20.09413],[110.59061,20.09995],[110.59721,20.11089],[110.64619,20.10704],[110.67297,20.13215],[110.67167,20.15165],[110.68456,20.16146],[110.72096,20.06963],[110.74458,20.04773],[110.76378,20.04316],[110.78124,20.01193],[110.85394,19.99162],[110.90592,19.99854],[110.9235,20.01393],[110.93273,20.01171],[110.95259,19.97541],[110.95321,19.95285],[110.99518,19.82315],[111.00589,19.69526],[111.00985,19.68342],[111.02602,19.68358],[111.03077,19.64421],[111.04219,19.64306],[111.0284,19.63591],[110.97975,19.64138],[110.95612,19.60778],[110.91773,19.58635],[110.86443,19.52422],[110.84455,19.53228],[110.84364,19.54602],[110.83063,19.5577],[110.84207,19.55524],[110.83868,19.5627],[110.82677,19.56621],[110.83224,19.58675],[110.8231,19.59706],[110.84215,19.61255],[110.87379,19.60967],[110.86835,19.61708],[110.87986,19.62414],[110.88232,19.64088],[110.90262,19.64906],[110.87971,19.64547],[110.87148,19.62045],[110.85818,19.62683],[110.81498,19.6258],[110.80844,19.6126],[110.80475,19.61197],[110.78531,19.62807],[110.78077,19.61721],[110.79357,19.60936],[110.79936,19.58992],[110.81695,19.57924],[110.83654,19.54298],[110.8364,19.52961],[110.82702,19.54238],[110.80895,19.53204],[110.80515,19.48522],[110.78153,19.46164],[110.76047,19.45534],[110.76382,19.44882],[110.77416,19.4507],[110.75978,19.42543],[110.73056,19.40689],[110.72121,19.41393],[110.69967,19.41053],[110.67836,19.39249]]],[[[111.20404,19.90801],[111.19697,19.91021],[111.19829,19.91425],[111.20404,19.90801]]]]}},{"type":"Feature","id":"CTAMAP-2023-COUNTY-2119","properties":{"map_level":"county","source_name":"五指山市","source_code":"469001","county_type":"县级市","prefecture_name":"不统计","prefecture_code":"0","prefecture_type":"不统计","parent_entity_id":"","parent_year_end_name":"","province_name":"海南省","province_code":"460000","snapshot_year":2023,"panel_year":2022,"link_status":"province_direct_or_out_of_scope","former_name":"","note":"省直辖市,省直管,是县级单位"},"geometry":{"type":"Polygon","coordinates":[[[109.51874,19.03179],[109.52711,19.01711],[109.5236,19.00202],[109.54031,18.98029],[109.5473,18.95062],[109.56963,18.94228],[109.57219,18.92812],[109.5921,18.92277],[109.59875,18.91155],[109.62391,18.92239],[109.65787,18.91572],[109.68361,18.92877],[109.72604,18.91532],[109.71961,18.9021],[109.70418,18.89947],[109.69388,18.88812],[109.71113,18.86555],[109.71119,18.83405],[109.68398,18.83327],[109.67994,18.82458],[109.68896,18.81381],[109.67969,18.78606],[109.69819,18.75031],[109.69991,18.72582],[109.63788,18.72342],[109.61529,18.68046],[109.59021,18.69582],[109.58005,18.71342],[109.56653,18.71732],[109.56641,18.70712],[109.55242,18.69909],[109.52421,18.69989],[109.5314,18.68012],[109.52527,18.67514],[109.53574,18.66064],[109.51932,18.65119],[109.48125,18.64745],[109.44526,18.65674],[109.42678,18.62941],[109.40318,18.62884],[109.39008,18.64513],[109.39265,18.6743],[109.35197,18.71309],[109.34852,18.81124],[109.37002,18.85533],[109.35808,18.87237],[109.33913,18.87881],[109.339,18.90068],[109.31947,18.92118],[109.34296,18.94821],[109.36152,18.93788],[109.37296,18.94305],[109.37686,18.95242],[109.40319,18.96569],[109.421,18.99334],[109.45577,18.99881],[109.46589,19.03486],[109.47184,19.02849],[109.51874,19.03179]]]}},{"type":"Feature","id":"CTAMAP-2023-COUNTY-2321","properties":{"map_level":"county","source_name":"秀英区","source_code":"460105","county_type":"市辖区","prefecture_name":"海口市","prefecture_code":"460100","prefecture_type":"地级市","parent_entity_id":"CNUR-000231","parent_year_end_name":"海口市","province_name":"海南省","province_code":"460000","snapshot_year":2023,"panel_year":2022,"link_status":"parent_linked","former_name":"","note":"2002年新设立秀英区"},"geometry":{"type":"MultiPolygon","coordinates":[[[[110.29036,20.036],[110.29007,19.99414],[110.29906,19.98523],[110.27758,19.97668],[110.26411,19.95272],[110.3091,19.95654],[110.30987,19.92857],[110.29712,19.86519],[110.27142,19.84116],[110.27184,19.82828],[110.25681,19.82017],[110.24831,19.7949],[110.26823,19.78592],[110.27759,19.77187],[110.28359,19.7756],[110.29356,19.7616],[110.33098,19.7564],[110.33509,19.72149],[110.30466,19.6973],[110.28155,19.70219],[110.2172,19.68063],[110.2128,19.68805],[110.22238,19.71056],[110.20257,19.7261],[110.20924,19.74427],[110.22587,19.75367],[110.22018,19.77412],[110.20652,19.78068],[110.19843,19.80114],[110.19687,19.83784],[110.17055,19.84788],[110.18522,19.85535],[110.18293,19.86636],[110.1717,19.86186],[110.15681,19.8676],[110.14046,19.8579],[110.13386,19.86403],[110.15054,19.86817],[110.14966,19.88549],[110.13738,19.8949],[110.15134,19.90672],[110.13368,19.92306],[110.14916,19.93298],[110.15854,19.92446],[110.15152,19.93177],[110.1608,19.93328],[110.14707,19.93685],[110.15963,19.97329],[110.15531,19.98086],[110.13914,19.97889],[110.12915,19.9861],[110.12559,20.00121],[110.14442,20.02767],[110.15166,20.05895],[110.15919,20.06177],[110.19745,20.06329],[110.25658,20.0274],[110.28242,20.02277],[110.27549,20.0278],[110.28243,20.03087],[110.27654,20.04511],[110.29036,20.036]]],[[[110.22817,20.07691],[110.24031,20.06987],[110.24631,20.0763],[110.24572,20.06764],[110.23079,20.06262],[110.22817,20.07691]]]]}},{"type":"Feature","id":"CTAMAP-2023-COUNTY-2347","properties":{"map_level":"county","source_name":"崖州区","source_code":"460205","county_type":"市辖区","prefecture_name":"三亚市","prefecture_code":"460200","prefecture_type":"地级市","parent_entity_id":"CNUR-000232","parent_year_end_name":"三亚市","province_name":"海南省","province_code":"460000","snapshot_year":2023,"panel_year":2022,"link_status":"parent_linked","former_name":"崖城镇","note":"2014年撤销崖城镇，新设崖州区"},"geometry":{"type":"MultiPolygon","coordinates":[[[[109.2275,18.30094],[109.176,18.28663],[109.15449,18.29484],[109.14199,18.31628],[109.1493,18.31859],[109.14679,18.33149],[109.10702,18.36168],[109.06598,18.37025],[108.99227,18.35789],[108.97501,18.38038],[108.98146,18.39252],[109.00052,18.40168],[109.01133,18.4244],[109.04653,18.43893],[109.05885,18.43599],[109.06792,18.45388],[109.08179,18.44782],[109.10422,18.46425],[109.11366,18.45964],[109.14675,18.46746],[109.17261,18.45142],[109.1998,18.473],[109.21217,18.45089],[109.24699,18.45467],[109.2452,18.43092],[109.2567,18.43154],[109.2587,18.4181],[109.26899,18.41074],[109.2603,18.40329],[109.25977,18.3593],[109.22518,18.34582],[109.2275,18.30094]]],[[[109.11638,18.34414],[109.10986,18.34539],[109.10742,18.35134],[109.1111,18.35239],[109.11638,18.34414]]]]}}]}