{"type":"FeatureCollection","features":[{"type":"Feature","id":"CTAMAP-2009-COUNTY-0162","properties":{"map_level":"county","source_name":"昌平区","source_code":"110114","county_type":"市辖区","prefecture_name":"不统计","prefecture_code":"0","prefecture_type":"不统计","parent_entity_id":"CNUR-000001","parent_year_end_name":"北京市","province_name":"北京市","province_code":"110000","snapshot_year":2009,"panel_year":2008,"link_status":"parent_linked","former_name":"","note":""},"geometry":{"type":"Polygon","coordinates":[[[116.49991,40.26009],[116.47639,40.24514],[116.46464,40.2111],[116.48204,40.19031],[116.47063,40.15772],[116.4819,40.15658],[116.48404,40.10123],[116.45935,40.09249],[116.4535,40.05872],[116.4177,40.06478],[116.38926,40.03538],[116.36093,40.04976],[116.37565,40.0649],[116.29675,40.05872],[116.2843,40.08191],[116.23406,40.10741],[116.24099,40.13496],[116.20327,40.13949],[116.19612,40.15974],[116.16146,40.1413],[116.16122,40.12321],[116.07608,40.117],[116.04259,40.08395],[115.96255,40.07437],[115.91692,40.13262],[115.84748,40.14817],[115.83852,40.16427],[115.8925,40.23345],[115.97271,40.27195],[115.97659,40.32299],[116.01096,40.33304],[116.03228,40.31076],[116.06589,40.33726],[116.12703,40.31065],[116.13288,40.34503],[116.14896,40.34083],[116.14196,40.36044],[116.20848,40.381],[116.31821,40.38517],[116.35378,40.36544],[116.34258,40.35505],[116.36337,40.35504],[116.3615,40.33483],[116.4344,40.32615],[116.4495,40.31327],[116.4441,40.28801],[116.49991,40.26009]]]}},{"type":"Feature","id":"CTAMAP-2009-COUNTY-0255","properties":{"map_level":"county","source_name":"大兴区","source_code":"110115","county_type":"市辖区","prefecture_name":"不统计","prefecture_code":"0","prefecture_type":"不统计","parent_entity_id":"CNUR-000001","parent_year_end_name":"北京市","province_name":"北京市","province_code":"110000","snapshot_year":2009,"panel_year":2008,"link_status":"parent_linked","former_name":"大兴县","note":"2001年撤销大兴县，设立大兴区"},"geometry":{"type":"Polygon","coordinates":[[[116.52907,39.82348],[116.53474,39.75997],[116.51468,39.76457],[116.53393,39.73985],[116.52102,39.71576],[116.57094,39.70853],[116.63165,39.72302],[116.66041,39.67518],[116.69794,39.67144],[116.6969,39.64854],[116.71953,39.62288],[116.69465,39.61987],[116.69723,39.60907],[116.72107,39.59187],[116.62259,39.59853],[116.60194,39.62385],[116.56017,39.61874],[116.55773,39.6026],[116.51987,39.5956],[116.50241,39.54958],[116.46715,39.55189],[116.47168,39.53497],[116.43065,39.52501],[116.43767,39.50852],[116.39648,39.52553],[116.4171,39.49527],[116.40574,39.4806],[116.43801,39.48089],[116.4499,39.45811],[116.42864,39.44208],[116.32784,39.45467],[116.29932,39.48823],[116.25293,39.49893],[116.20975,39.62358],[116.24548,39.79213],[116.2814,39.79804],[116.30378,39.76789],[116.31718,39.79719],[116.34973,39.80495],[116.3921,39.76428],[116.39017,39.78557],[116.42322,39.79315],[116.40371,39.81002],[116.40951,39.8281],[116.46824,39.80852],[116.52907,39.82348]]]}},{"type":"Feature","id":"CTAMAP-2009-COUNTY-0331","properties":{"map_level":"county","source_name":"东城区","source_code":"110101","county_type":"市辖区","prefecture_name":"不统计","prefecture_code":"0","prefecture_type":"不统计","parent_entity_id":"CNUR-000001","parent_year_end_name":"北京市","province_name":"北京市","province_code":"110000","snapshot_year":2009,"panel_year":2008,"link_status":"parent_linked","former_name":"","note":""},"geometry":{"type":"Polygon","coordinates":[[[116.44113,39.94373],[116.42929,39.89987],[116.39106,39.89876],[116.38556,39.90929],[116.38139,39.96006],[116.40164,39.96065],[116.40127,39.97261],[116.44113,39.94373]]]}},{"type":"Feature","id":"CTAMAP-2009-COUNTY-0408","properties":{"map_level":"county","source_name":"房山区","source_code":"110111","county_type":"市辖区","prefecture_name":"不统计","prefecture_code":"0","prefecture_type":"不统计","parent_entity_id":"CNUR-000001","parent_year_end_name":"北京市","province_name":"北京市","province_code":"110000","snapshot_year":2009,"panel_year":2008,"link_status":"parent_linked","former_name":"","note":""},"geometry":{"type":"Polygon","coordinates":[[[116.0484,39.84461],[116.08038,39.82993],[116.08556,39.78106],[116.12544,39.7824],[116.11586,39.76114],[116.15418,39.76586],[116.16337,39.78314],[116.19434,39.77713],[116.20811,39.82239],[116.24155,39.80505],[116.24203,39.73368],[116.20956,39.63315],[116.21532,39.57734],[116.17851,39.58965],[116.13046,39.56718],[116.09511,39.57865],[116.0292,39.57037],[116.02008,39.58618],[115.98916,39.57593],[115.9721,39.59315],[115.97217,39.57175],[115.95162,39.55989],[115.90445,39.59972],[115.90696,39.57201],[115.88454,39.56762],[115.88162,39.54978],[115.84952,39.55396],[115.81312,39.52978],[115.82264,39.50599],[115.76257,39.50774],[115.73234,39.54518],[115.68626,39.56542],[115.68193,39.59988],[115.66125,39.61449],[115.65096,39.5987],[115.57512,39.5884],[115.53959,39.61771],[115.5082,39.59081],[115.51622,39.63885],[115.47182,39.65104],[115.49261,39.68856],[115.48625,39.73724],[115.43392,39.7504],[115.41833,39.77298],[115.47704,39.79749],[115.50061,39.78237],[115.54876,39.79447],[115.58964,39.81955],[115.62489,39.87092],[115.76262,39.92393],[115.83953,39.89606],[115.87396,39.91537],[115.93502,39.91655],[115.91937,39.8765],[115.99085,39.87424],[115.98322,39.8393],[116.0484,39.84461]]]}},{"type":"Feature","id":"CTAMAP-2009-COUNTY-0425","properties":{"map_level":"county","source_name":"丰台区","source_code":"110106","county_type":"市辖区","prefecture_name":"不统计","prefecture_code":"0","prefecture_type":"不统计","parent_entity_id":"CNUR-000001","parent_year_end_name":"北京市","province_name":"北京市","province_code":"110000","snapshot_year":2009,"panel_year":2008,"link_status":"parent_linked","former_name":"","note":""},"geometry":{"type":"Polygon","coordinates":[[[116.31978,39.89578],[116.31527,39.87396],[116.40317,39.85751],[116.43683,39.87053],[116.46175,39.85439],[116.40951,39.8281],[116.40371,39.81002],[116.42322,39.79315],[116.39017,39.78557],[116.3921,39.76428],[116.34037,39.80654],[116.30177,39.7685],[116.28609,39.79607],[116.24656,39.79214],[116.22214,39.82465],[116.20805,39.82236],[116.19434,39.77713],[116.16337,39.78314],[116.15418,39.76586],[116.11586,39.76114],[116.12544,39.7824],[116.08556,39.78106],[116.08038,39.82993],[116.0484,39.84461],[116.06428,39.86712],[116.14773,39.88629],[116.20141,39.87408],[116.23379,39.8939],[116.31978,39.89578]]]}},{"type":"Feature","id":"CTAMAP-2009-COUNTY-0605","properties":{"map_level":"county","source_name":"海淀区","source_code":"110108","county_type":"市辖区","prefecture_name":"不统计","prefecture_code":"0","prefecture_type":"不统计","parent_entity_id":"CNUR-000001","parent_year_end_name":"北京市","province_name":"北京市","province_code":"110000","snapshot_year":2009,"panel_year":2008,"link_status":"parent_linked","former_name":"","note":""},"geometry":{"type":"Polygon","coordinates":[[[116.38452,40.03989],[116.3446,40.02545],[116.37508,39.97613],[116.36574,39.94726],[116.32229,39.94068],[116.33206,39.89616],[116.28814,39.88541],[116.24696,39.89603],[116.24611,39.91977],[116.20068,39.91667],[116.21381,39.94225],[116.17894,39.98461],[116.16518,39.97563],[116.14477,39.99247],[116.16565,40.00745],[116.12846,40.02921],[116.07184,40.03135],[116.04263,40.08492],[116.07608,40.117],[116.16122,40.12321],[116.16146,40.1413],[116.19612,40.15974],[116.20327,40.13949],[116.24099,40.13496],[116.23406,40.10741],[116.2843,40.08191],[116.29675,40.05872],[116.36391,40.06751],[116.37633,40.06003],[116.36335,40.04546],[116.38452,40.03989]]]}},{"type":"Feature","id":"CTAMAP-2009-COUNTY-0737","properties":{"map_level":"county","source_name":"怀柔区","source_code":"110116","county_type":"市辖区","prefecture_name":"不统计","prefecture_code":"0","prefecture_type":"不统计","parent_entity_id":"CNUR-000001","parent_year_end_name":"北京市","province_name":"北京市","province_code":"110000","snapshot_year":2009,"panel_year":2008,"link_status":"parent_linked","former_name":"怀柔县","note":"2001年撤销怀柔县，设立怀柔区"},"geometry":{"type":"Polygon","coordinates":[[[116.69269,41.01962],[116.67166,40.96962],[116.71453,40.92445],[116.70729,40.90871],[116.77421,40.87453],[116.79879,40.8389],[116.85043,40.83356],[116.88095,40.79969],[116.83004,40.77057],[116.82336,40.74849],[116.77764,40.75619],[116.77916,40.70014],[116.75016,40.70429],[116.70713,40.6762],[116.69542,40.61971],[116.70877,40.56964],[116.65984,40.5515],[116.69587,40.54427],[116.70936,40.52264],[116.68738,40.47484],[116.71602,40.45531],[116.71919,40.41692],[116.73544,40.41493],[116.70046,40.37254],[116.72054,40.35988],[116.71694,40.33816],[116.7525,40.33279],[116.76736,40.3144],[116.67486,40.23314],[116.65888,40.26079],[116.60182,40.25029],[116.53187,40.27584],[116.51785,40.2563],[116.48253,40.26298],[116.4441,40.28801],[116.4495,40.31327],[116.4344,40.32615],[116.3615,40.33483],[116.36337,40.35504],[116.34255,40.35514],[116.34918,40.36992],[116.28025,40.39518],[116.30034,40.46475],[116.28551,40.48399],[116.31704,40.49874],[116.36858,40.4971],[116.38723,40.47104],[116.51277,40.48982],[116.49253,40.51361],[116.45486,40.52299],[116.51913,40.58167],[116.53319,40.62075],[116.56853,40.6308],[116.48027,40.67363],[116.50465,40.7248],[116.49472,40.75852],[116.45919,40.77111],[116.43108,40.81867],[116.32819,40.90292],[116.3281,40.91977],[116.364,40.94186],[116.39257,40.90415],[116.46781,40.8943],[116.44923,40.97806],[116.5102,40.97355],[116.55737,40.99209],[116.59589,40.97425],[116.61698,41.01921],[116.60802,41.0415],[116.62553,41.05896],[116.68353,41.04283],[116.69269,41.01962]]]}},{"type":"Feature","id":"CTAMAP-2009-COUNTY-1337","properties":{"map_level":"county","source_name":"门头沟区","source_code":"110109","county_type":"市辖区","prefecture_name":"不统计","prefecture_code":"0","prefecture_type":"不统计","parent_entity_id":"CNUR-000001","parent_year_end_name":"北京市","province_name":"北京市","province_code":"110000","snapshot_year":2009,"panel_year":2008,"link_status":"parent_linked","former_name":"","note":""},"geometry":{"type":"Polygon","coordinates":[[[115.80037,40.15208],[115.91608,40.13317],[115.96255,40.07437],[116.04259,40.08395],[116.07184,40.03135],[116.15766,40.01552],[116.16659,39.99966],[116.10836,39.98124],[116.10562,39.9416],[116.16373,39.88597],[116.06607,39.8678],[116.0484,39.84461],[115.98401,39.83911],[115.99085,39.87424],[115.91937,39.8765],[115.93502,39.91655],[115.87396,39.91537],[115.83953,39.89606],[115.76262,39.92393],[115.62489,39.87092],[115.56959,39.811],[115.50711,39.84066],[115.52246,39.87106],[115.50276,39.883],[115.51429,39.90103],[115.47458,39.93436],[115.41736,39.9539],[115.44811,40.02845],[115.55779,40.09711],[115.58462,40.09536],[115.59224,40.11814],[115.72906,40.12846],[115.77141,40.17662],[115.80037,40.15208]]]}},{"type":"Feature","id":"CTAMAP-2009-COUNTY-1358","properties":{"map_level":"county","source_name":"密云县","source_code":"110228","county_type":"县","prefecture_name":"不统计","prefecture_code":"0","prefecture_type":"不统计","parent_entity_id":"CNUR-000001","parent_year_end_name":"北京市","province_name":"北京市","province_code":"110000","snapshot_year":2009,"panel_year":2008,"link_status":"parent_linked","former_name":"","note":""},"geometry":{"type":"Polygon","coordinates":[[[117.40256,40.68567],[117.50782,40.65466],[117.49387,40.63476],[117.45532,40.65151],[117.44219,40.64989],[117.44035,40.62666],[117.41443,40.63382],[117.41493,40.56775],[117.38092,40.55922],[117.34022,40.58034],[117.30833,40.57694],[117.2431,40.54681],[117.25696,40.51183],[117.21227,40.51296],[117.20156,40.4985],[117.25559,40.43904],[117.22872,40.41595],[117.21764,40.37409],[117.14956,40.37148],[117.01589,40.33566],[116.99768,40.29327],[116.94501,40.26003],[116.96947,40.24834],[116.95396,40.23156],[116.89025,40.23075],[116.84281,40.31024],[116.81102,40.28073],[116.78321,40.28796],[116.76036,40.26661],[116.73422,40.2781],[116.76735,40.31451],[116.7525,40.33279],[116.71694,40.33816],[116.72054,40.35988],[116.70046,40.37254],[116.73544,40.41493],[116.71919,40.41692],[116.71602,40.45531],[116.68738,40.47484],[116.70936,40.52264],[116.69587,40.54427],[116.6598,40.55126],[116.70877,40.56964],[116.69542,40.61971],[116.70713,40.6762],[116.75016,40.70429],[116.77916,40.70014],[116.77764,40.75619],[116.82336,40.74849],[116.83004,40.77057],[116.88095,40.79969],[116.88643,40.77897],[116.9191,40.7715],[116.93663,40.72852],[116.99618,40.69589],[117.10242,40.70557],[117.31255,40.65644],[117.40256,40.68567]]]}},{"type":"Feature","id":"CTAMAP-2009-COUNTY-1498","properties":{"map_level":"county","source_name":"平谷区","source_code":"110117","county_type":"市辖区","prefecture_name":"不统计","prefecture_code":"0","prefecture_type":"不统计","parent_entity_id":"CNUR-000001","parent_year_end_name":"北京市","province_name":"北京市","province_code":"110000","snapshot_year":2009,"panel_year":2008,"link_status":"parent_linked","former_name":"平谷县","note":"2001年撤销平谷县，设立平谷区"},"geometry":{"type":"Polygon","coordinates":[[[117.21764,40.37409],[117.26844,40.33131],[117.28924,40.27692],[117.32534,40.28831],[117.33904,40.23499],[117.38335,40.22647],[117.37086,40.21713],[117.38659,40.20243],[117.37317,40.20051],[117.37718,40.18653],[117.40027,40.18469],[117.34494,40.17171],[117.35399,40.15556],[117.34122,40.13454],[117.30708,40.13862],[117.29113,40.11768],[117.23323,40.1115],[117.20492,40.09478],[117.19792,40.06853],[117.17927,40.0836],[117.1743,40.06863],[117.13269,40.06265],[117.07908,40.07371],[117.01859,40.02883],[116.96961,40.03647],[116.95485,40.05777],[116.98013,40.07715],[116.96354,40.09918],[116.96993,40.14826],[116.92336,40.20944],[116.93084,40.23121],[116.96805,40.24344],[116.94503,40.26006],[116.99768,40.29327],[117.01589,40.33566],[117.14956,40.37148],[117.21764,40.37409]]]}},{"type":"Feature","id":"CTAMAP-2009-COUNTY-1780","properties":{"map_level":"county","source_name":"石景山区","source_code":"110107","county_type":"市辖区","prefecture_name":"不统计","prefecture_code":"0","prefecture_type":"不统计","parent_entity_id":"CNUR-000001","parent_year_end_name":"北京市","province_name":"北京市","province_code":"110000","snapshot_year":2009,"panel_year":2008,"link_status":"parent_linked","former_name":"","note":""},"geometry":{"type":"Polygon","coordinates":[[[116.14485,39.99233],[116.16518,39.97563],[116.17894,39.98461],[116.21381,39.94225],[116.20068,39.91667],[116.24611,39.91977],[116.25227,39.89431],[116.20141,39.87408],[116.16373,39.88597],[116.11316,39.93158],[116.10771,39.98007],[116.14485,39.99233]]]}},{"type":"Feature","id":"CTAMAP-2009-COUNTY-1829","properties":{"map_level":"county","source_name":"顺义区","source_code":"110113","county_type":"市辖区","prefecture_name":"不统计","prefecture_code":"0","prefecture_type":"不统计","parent_entity_id":"CNUR-000001","parent_year_end_name":"北京市","province_name":"北京市","province_code":"110000","snapshot_year":2009,"panel_year":2008,"link_status":"parent_linked","former_name":"","note":""},"geometry":{"type":"Polygon","coordinates":[[[116.92919,40.22874],[116.92496,40.20563],[116.96993,40.14826],[116.96354,40.09918],[116.98013,40.07715],[116.93927,40.04032],[116.90808,40.05153],[116.86499,40.03922],[116.84418,40.05389],[116.80925,40.02972],[116.77344,40.03334],[116.76628,40.01228],[116.73572,40.02637],[116.68121,40.01245],[116.60842,40.03068],[116.58963,40.01627],[116.54507,40.05805],[116.45908,40.09125],[116.48649,40.10739],[116.4819,40.15658],[116.47063,40.15772],[116.48204,40.19031],[116.46468,40.2081],[116.47639,40.24514],[116.52983,40.26043],[116.53187,40.27584],[116.60182,40.25029],[116.65888,40.26079],[116.66431,40.2337],[116.67804,40.23309],[116.73285,40.28282],[116.76577,40.26755],[116.78321,40.28796],[116.8165,40.28337],[116.84281,40.31024],[116.89025,40.23075],[116.92919,40.22874]],[[116.57458,40.08904],[116.56889,40.10678],[116.57296,40.07119],[116.59205,40.04043],[116.6026,40.05385],[116.59258,40.10281],[116.57458,40.08904]]]}},{"type":"Feature","id":"CTAMAP-2009-COUNTY-2115","properties":{"map_level":"county","source_name":"西城区","source_code":"110102","county_type":"市辖区","prefecture_name":"不统计","prefecture_code":"0","prefecture_type":"不统计","parent_entity_id":"CNUR-000001","parent_year_end_name":"北京市","province_name":"北京市","province_code":"110000","snapshot_year":2009,"panel_year":2008,"link_status":"parent_linked","former_name":"","note":""},"geometry":{"type":"Polygon","coordinates":[[[116.39168,39.89742],[116.33204,39.89616],[116.32229,39.94068],[116.36574,39.94726],[116.36389,39.96657],[116.38784,39.97167],[116.39168,39.89742]]]}},{"type":"Feature","id":"CTAMAP-2009-COUNTY-2316","properties":{"map_level":"county","source_name":"延庆县","source_code":"110229","county_type":"县","prefecture_name":"不统计","prefecture_code":"0","prefecture_type":"不统计","parent_entity_id":"CNUR-000001","parent_year_end_name":"北京市","province_name":"北京市","province_code":"110000","snapshot_year":2009,"panel_year":2008,"link_status":"parent_linked","former_name":"","note":""},"geometry":{"type":"Polygon","coordinates":[[[116.31138,40.7706],[116.49414,40.75928],[116.50345,40.73417],[116.47805,40.6764],[116.56824,40.63447],[116.53319,40.62075],[116.51913,40.58167],[116.45486,40.52299],[116.49253,40.51361],[116.51277,40.48982],[116.38723,40.47104],[116.36322,40.49892],[116.28662,40.48464],[116.30034,40.46475],[116.28463,40.44002],[116.28358,40.37854],[116.20848,40.381],[116.14218,40.36056],[116.14959,40.34307],[116.13211,40.34391],[116.12852,40.31114],[116.06589,40.33726],[116.0275,40.31018],[116.00155,40.33191],[115.96824,40.31696],[115.9839,40.29848],[115.95968,40.26482],[115.91232,40.35281],[115.85196,40.36224],[115.85435,40.37454],[115.76454,40.44131],[115.77551,40.49206],[115.72954,40.50266],[115.77841,40.55704],[115.81383,40.55821],[115.82156,40.58606],[115.87994,40.59476],[115.90179,40.61609],[115.96073,40.60502],[115.97731,40.57746],[116.02206,40.60582],[116.02487,40.59602],[116.11532,40.62757],[116.1049,40.64566],[116.12848,40.66549],[116.15833,40.66183],[116.17293,40.7075],[116.2415,40.79028],[116.30246,40.75043],[116.31138,40.7706]]]}},{"type":"Feature","id":"CTAMAP-2009-COUNTY-2752","properties":{"map_level":"county","source_name":"朝阳区","source_code":"110105","county_type":"市辖区","prefecture_name":"不统计","prefecture_code":"0","prefecture_type":"不统计","parent_entity_id":"CNUR-000001","parent_year_end_name":"北京市","province_name":"北京市","province_code":"110000","snapshot_year":2009,"panel_year":2008,"link_status":"parent_linked","former_name":"","note":""},"geometry":{"type":"MultiPolygon","coordinates":[[[[116.54507,40.05805],[116.63797,39.99053],[116.63942,39.9447],[116.62617,39.94907],[116.60969,39.89514],[116.62222,39.88935],[116.62083,39.85937],[116.59866,39.84911],[116.5965,39.83063],[116.53937,39.83493],[116.46824,39.80852],[116.41892,39.8309],[116.46161,39.85143],[116.4368,39.86486],[116.44471,39.89225],[116.42807,39.92817],[116.44113,39.94373],[116.40311,39.97266],[116.38139,39.96006],[116.38784,39.97167],[116.37473,39.97137],[116.3446,40.02545],[116.38882,40.03142],[116.4177,40.06478],[116.4535,40.05872],[116.46077,40.08888],[116.54507,40.05805]]],[[[116.57458,40.08904],[116.59258,40.10281],[116.6026,40.05385],[116.59205,40.04043],[116.57296,40.07119],[116.56889,40.10678],[116.57458,40.08904]]]]}},{"type":"Feature","id":"CTAMAP-2009-COUNTY-2754","properties":{"map_level":"county","source_name":"通州区","source_code":"110112","county_type":"市辖区","prefecture_name":"不统计","prefecture_code":"0","prefecture_type":"不统计","parent_entity_id":"CNUR-000001","parent_year_end_name":"北京市","province_name":"北京市","province_code":"110000","snapshot_year":2009,"panel_year":2008,"link_status":"parent_linked","former_name":"","note":""},"geometry":{"type":"Polygon","coordinates":[[[116.76628,40.01228],[116.75125,39.96],[116.77757,39.94258],[116.78004,39.88515],[116.79809,39.87691],[116.80625,39.88853],[116.8411,39.85391],[116.89653,39.83001],[116.89836,39.85007],[116.91354,39.84583],[116.94006,39.78105],[116.89572,39.76229],[116.90953,39.73031],[116.87671,39.71753],[116.90065,39.67661],[116.84397,39.6665],[116.84538,39.65138],[116.81793,39.63401],[116.83256,39.62111],[116.784,39.60935],[116.77537,39.59192],[116.70432,39.63669],[116.69794,39.67144],[116.64505,39.68718],[116.63165,39.72302],[116.52452,39.71246],[116.53388,39.7404],[116.51468,39.76457],[116.53474,39.75997],[116.5274,39.83174],[116.586,39.82275],[116.62083,39.85937],[116.62222,39.88935],[116.60969,39.89514],[116.62617,39.94907],[116.63942,39.9447],[116.63767,39.9927],[116.58963,40.01627],[116.59698,40.02745],[116.68121,40.01245],[116.73572,40.02637],[116.76628,40.01228]]]}},{"type":"Feature","id":"CTAMAP-2009-COUNTY-2863","properties":{"map_level":"county","source_name":"宣武区","source_code":"110104","county_type":"市辖区","prefecture_name":"不统计","prefecture_code":"0","prefecture_type":"不统计","parent_entity_id":"CNUR-000001","parent_year_end_name":"北京市","province_name":"北京市","province_code":"110000","snapshot_year":2009,"panel_year":2008,"link_status":"parent_linked","former_name":"","note":""},"geometry":{"type":"Polygon","coordinates":[[[116.39168,39.89742],[116.39317,39.8707],[116.31527,39.87396],[116.31978,39.89578],[116.39168,39.89742]]]}},{"type":"Feature","id":"CTAMAP-2009-COUNTY-2864","properties":{"map_level":"county","source_name":"崇文区","source_code":"110103","county_type":"市辖区","prefecture_name":"不统计","prefecture_code":"0","prefecture_type":"不统计","parent_entity_id":"CNUR-000001","parent_year_end_name":"北京市","province_name":"北京市","province_code":"110000","snapshot_year":2009,"panel_year":2008,"link_status":"parent_linked","former_name":"","note":""},"geometry":{"type":"Polygon","coordinates":[[[116.39106,39.89876],[116.44234,39.90204],[116.44469,39.88887],[116.43683,39.87053],[116.38919,39.85834],[116.37496,39.86662],[116.39317,39.8707],[116.39106,39.89876]]]}}]}