{"type":"FeatureCollection","features":[{"type":"Feature","id":"CTAMAP-2014-COUNTY-0069","properties":{"map_level":"county","source_name":"白沙黎族自治县","source_code":"469025","county_type":"自治县","prefecture_name":"不统计","prefecture_code":"0","prefecture_type":"不统计","parent_entity_id":"","parent_year_end_name":"","province_name":"海南省","province_code":"460000","snapshot_year":2014,"panel_year":2013,"link_status":"province_direct_or_out_of_scope","former_name":"","note":"省直辖县,省直管,是县级单位"},"geometry":{"type":"Polygon","coordinates":[[[109.66644,19.21183],[109.69819,19.13588],[109.68411,19.11998],[109.65862,19.12966],[109.64755,19.10273],[109.60675,19.0896],[109.60776,19.05722],[109.55587,19.07606],[109.51981,19.03179],[109.46589,19.03486],[109.45597,18.99897],[109.421,18.99334],[109.36167,18.93787],[109.27927,18.96302],[109.2723,19.06466],[109.19991,19.092],[109.17299,19.08492],[109.15423,19.13121],[109.16275,19.15282],[109.11302,19.19793],[109.13739,19.27953],[109.11661,19.30216],[109.09307,19.30278],[109.08739,19.33047],[109.03412,19.34625],[109.05001,19.37426],[109.046,19.48424],[109.11384,19.46916],[109.13011,19.4847],[109.162,19.43049],[109.1984,19.42938],[109.17445,19.40066],[109.21264,19.38617],[109.24054,19.39311],[109.26316,19.37903],[109.28776,19.40126],[109.29579,19.39071],[109.31376,19.40032],[109.33914,19.37428],[109.37612,19.3727],[109.37994,19.35646],[109.42235,19.35513],[109.45132,19.40004],[109.47757,19.40275],[109.50262,19.36281],[109.4641,19.30256],[109.53683,19.31365],[109.58234,19.24588],[109.60496,19.25687],[109.6303,19.20349],[109.66644,19.21183]]]}},{"type":"Feature","id":"CTAMAP-2014-COUNTY-0092","properties":{"map_level":"county","source_name":"保亭黎族苗族自治县","source_code":"469029","county_type":"自治县","prefecture_name":"不统计","prefecture_code":"0","prefecture_type":"不统计","parent_entity_id":"","parent_year_end_name":"","province_name":"海南省","province_code":"460000","snapshot_year":2014,"panel_year":2013,"link_status":"province_direct_or_out_of_scope","former_name":"","note":"省直辖县,省直管,是县级单位"},"geometry":{"type":"Polygon","coordinates":[[[109.76934,18.81044],[109.75108,18.7886],[109.75174,18.76599],[109.76901,18.7621],[109.76713,18.72364],[109.79983,18.727],[109.8361,18.67962],[109.81847,18.65847],[109.82924,18.63537],[109.80459,18.63072],[109.80027,18.59564],[109.84806,18.56177],[109.82942,18.5198],[109.80595,18.50884],[109.75779,18.52657],[109.75562,18.50447],[109.72086,18.49474],[109.70594,18.4271],[109.69187,18.43725],[109.67355,18.39582],[109.53627,18.3982],[109.5104,18.43754],[109.52331,18.4465],[109.53235,18.53163],[109.49958,18.55689],[109.41892,18.5645],[109.40135,18.62717],[109.42678,18.62941],[109.44455,18.6566],[109.48156,18.64745],[109.53545,18.65994],[109.52421,18.69989],[109.55242,18.69909],[109.56653,18.71732],[109.61529,18.68046],[109.63788,18.72342],[109.69847,18.72336],[109.67969,18.78606],[109.68398,18.83327],[109.76934,18.81044]]]}},{"type":"Feature","id":"CTAMAP-2014-COUNTY-0160","properties":{"map_level":"county","source_name":"昌江黎族自治县","source_code":"469026","county_type":"自治县","prefecture_name":"不统计","prefecture_code":"0","prefecture_type":"不统计","parent_entity_id":"","parent_year_end_name":"","province_name":"海南省","province_code":"460000","snapshot_year":2014,"panel_year":2013,"link_status":"province_direct_or_out_of_scope","former_name":"","note":"省直辖县,省直管,是县级单位"},"geometry":{"type":"MultiPolygon","coordinates":[[[[109.04276,19.42539],[109.05001,19.37426],[109.03424,19.34601],[109.08739,19.33047],[109.09307,19.30278],[109.11661,19.30216],[109.13811,19.27784],[109.11229,19.2002],[109.16275,19.15282],[109.15423,19.13121],[109.17299,19.08492],[109.20021,19.09193],[109.27509,19.05846],[109.28369,19.00095],[109.27251,18.98699],[109.27917,18.96312],[109.29373,18.96224],[109.26444,18.93504],[109.25883,18.90655],[109.21615,18.89484],[109.16357,18.9121],[109.13681,18.90536],[109.12174,18.88006],[109.10693,18.88783],[109.08514,18.91015],[109.10852,18.9683],[109.09516,19.0298],[109.00536,19.04703],[109.01715,19.11876],[108.98789,19.13267],[109.00163,19.15009],[108.97442,19.16394],[108.95517,19.21841],[108.91027,19.2198],[108.83095,19.26194],[108.78096,19.24595],[108.70859,19.26172],[108.66506,19.30854],[108.67395,19.32064],[108.68806,19.30666],[108.66383,19.34722],[108.68477,19.37312],[108.75313,19.38134],[108.93375,19.51061],[108.98009,19.47638],[108.99218,19.42904],[109.04276,19.42539]]],[[[108.66905,19.32272],[108.66135,19.31704],[108.66893,19.32529],[108.66905,19.32272]]]]}},{"type":"Feature","id":"CTAMAP-2014-COUNTY-0199","properties":{"map_level":"county","source_name":"澄迈县","source_code":"469023","county_type":"县","prefecture_name":"不统计","prefecture_code":"0","prefecture_type":"不统计","parent_entity_id":"","parent_year_end_name":"","province_name":"海南省","province_code":"460000","snapshot_year":2014,"panel_year":2013,"link_status":"province_direct_or_out_of_scope","former_name":"","note":"省直辖县,省直管,是县级单位"},"geometry":{"type":"Polygon","coordinates":[[[110.2128,19.68805],[110.25722,19.68439],[110.25322,19.67959],[110.25347,19.6711],[110.23568,19.66212],[110.23544,19.64438],[110.2177,19.63227],[110.22132,19.61637],[110.18112,19.63847],[110.16603,19.67043],[110.14716,19.67513],[110.14171,19.65718],[110.12609,19.65694],[110.13708,19.6142],[110.11659,19.5988],[110.13848,19.58319],[110.13059,19.56061],[110.09716,19.55099],[110.11784,19.50734],[110.07272,19.50089],[110.06227,19.46482],[110.0387,19.46001],[110.02973,19.483],[109.99859,19.49264],[109.93382,19.48951],[109.94379,19.46848],[109.92196,19.43928],[109.93791,19.42959],[109.9111,19.42881],[109.90893,19.39433],[109.88606,19.37991],[109.85282,19.42209],[109.83506,19.40286],[109.84945,19.3909],[109.8224,19.39765],[109.78762,19.37486],[109.73301,19.40974],[109.75217,19.428],[109.73991,19.47594],[109.72142,19.48673],[109.75498,19.52973],[109.75296,19.57038],[109.78497,19.61369],[109.8263,19.60407],[109.80978,19.62387],[109.85335,19.66126],[109.88904,19.76482],[109.89206,19.78408],[109.87047,19.80173],[109.88011,19.8557],[109.83791,19.87342],[109.84012,19.89535],[109.85632,19.90124],[109.87412,19.88586],[109.88737,19.89799],[109.88849,19.92156],[109.86474,19.94189],[109.88941,19.97339],[109.87852,19.98929],[109.9406,19.99321],[109.96651,19.95351],[110.01348,19.94069],[109.98951,19.93843],[109.95876,19.91773],[109.99674,19.89689],[109.99244,19.91544],[110.01003,19.91737],[109.98894,19.93366],[110.02467,19.93952],[110.00929,19.95979],[110.06574,19.98271],[110.11593,19.97627],[110.11776,19.96154],[110.12538,19.9834],[110.07916,19.98444],[110.12559,20.00121],[110.13914,19.97889],[110.15768,19.97922],[110.14707,19.93685],[110.1608,19.93328],[110.15854,19.92446],[110.13368,19.92306],[110.15134,19.90672],[110.13738,19.8949],[110.15054,19.86817],[110.13386,19.86403],[110.18317,19.86609],[110.17043,19.84811],[110.19687,19.83784],[110.19843,19.80114],[110.22587,19.75367],[110.20257,19.7261],[110.22265,19.7097],[110.2128,19.68805]]]}},{"type":"Feature","id":"CTAMAP-2014-COUNTY-0278","properties":{"map_level":"county","source_name":"儋州市","source_code":"469003","county_type":"县级市","prefecture_name":"不统计","prefecture_code":"0","prefecture_type":"不统计","parent_entity_id":"","parent_year_end_name":"","province_name":"海南省","province_code":"460000","snapshot_year":2014,"panel_year":2013,"link_status":"province_direct_or_out_of_scope","former_name":"","note":"省直辖市,省直管,是县级单位"},"geometry":{"type":"MultiPolygon","coordinates":[[[[109.55241,19.85572],[109.57593,19.83182],[109.56608,19.79358],[109.59801,19.76261],[109.58979,19.72149],[109.55297,19.71205],[109.5794,19.63918],[109.67031,19.63089],[109.65973,19.62699],[109.65536,19.61297],[109.70376,19.58019],[109.7407,19.59262],[109.73891,19.57786],[109.76512,19.58041],[109.75498,19.52973],[109.72142,19.48673],[109.73991,19.47594],[109.75122,19.42532],[109.71479,19.40492],[109.69273,19.41746],[109.63811,19.39993],[109.64444,19.35431],[109.69653,19.3508],[109.70992,19.33163],[109.69258,19.27551],[109.70372,19.22345],[109.68205,19.18181],[109.66644,19.21183],[109.6303,19.20349],[109.60496,19.25687],[109.58234,19.24588],[109.53683,19.31365],[109.4641,19.30256],[109.50262,19.36281],[109.47757,19.40275],[109.45132,19.40004],[109.42235,19.35513],[109.37994,19.35646],[109.37612,19.3727],[109.33914,19.37428],[109.31376,19.40032],[109.29579,19.39071],[109.28776,19.40126],[109.26316,19.37903],[109.24054,19.39311],[109.21264,19.38617],[109.17445,19.40066],[109.1984,19.42938],[109.162,19.43049],[109.13011,19.4847],[109.11351,19.46917],[109.04913,19.48673],[109.04276,19.42539],[109.02595,19.43595],[108.99794,19.42642],[108.98009,19.47638],[108.93575,19.50152],[109.00885,19.58337],[109.08048,19.60573],[109.16573,19.64447],[109.19813,19.66744],[109.211,19.68513],[109.21137,19.72135],[109.22675,19.71065],[109.23926,19.72577],[109.27901,19.72339],[109.30322,19.69575],[109.30414,19.72084],[109.27274,19.7389],[109.29247,19.75553],[109.30463,19.74519],[109.29798,19.76666],[109.31163,19.76949],[109.28709,19.794],[109.26603,19.76087],[109.26302,19.77394],[109.24963,19.75841],[109.22952,19.76244],[109.21371,19.72649],[109.18872,19.73332],[109.1511,19.70757],[109.17874,19.73755],[109.16167,19.8002],[109.18809,19.82828],[109.20714,19.82504],[109.22825,19.85687],[109.25895,19.8623],[109.26183,19.90112],[109.28886,19.89562],[109.30621,19.91773],[109.32695,19.90682],[109.3266,19.88281],[109.35964,19.89255],[109.38007,19.87605],[109.37921,19.89052],[109.42038,19.85821],[109.46215,19.86945],[109.47434,19.82439],[109.53451,19.8685],[109.53614,19.84569],[109.5188,19.83384],[109.55241,19.85572]]],[[[109.16461,19.67346],[109.18504,19.66453],[109.17038,19.6548],[109.16461,19.67346]]],[[[109.18871,19.68832],[109.2007,19.67802],[109.18579,19.6679],[109.18871,19.68832]]],[[[109.15576,19.65999],[109.15827,19.64761],[109.14832,19.65584],[109.15576,19.65999]]]]}},{"type":"Feature","id":"CTAMAP-2014-COUNTY-0317","properties":{"map_level":"county","source_name":"定安县","source_code":"469021","county_type":"县","prefecture_name":"不统计","prefecture_code":"0","prefecture_type":"不统计","parent_entity_id":"","parent_year_end_name":"","province_name":"海南省","province_code":"460000","snapshot_year":2014,"panel_year":2013,"link_status":"province_direct_or_out_of_scope","former_name":"","note":"省直辖县,省直管,是县级单位"},"geometry":{"type":"Polygon","coordinates":[[[110.51519,19.56528],[110.46236,19.5326],[110.46658,19.50939],[110.51332,19.51439],[110.54967,19.4769],[110.49573,19.4716],[110.48586,19.44682],[110.43804,19.44967],[110.43229,19.42],[110.41035,19.42459],[110.36256,19.38627],[110.31921,19.32308],[110.36232,19.30024],[110.33961,19.27452],[110.33565,19.22789],[110.27204,19.22841],[110.25758,19.21375],[110.21602,19.22925],[110.22947,19.29743],[110.17935,19.31298],[110.18479,19.35397],[110.16214,19.36195],[110.15343,19.3928],[110.15922,19.43082],[110.19503,19.46121],[110.22557,19.44852],[110.22873,19.48679],[110.24465,19.49239],[110.24849,19.49999],[110.23897,19.52011],[110.19175,19.53774],[110.18626,19.59329],[110.13059,19.56061],[110.13889,19.58642],[110.11658,19.59889],[110.13708,19.6142],[110.12609,19.65694],[110.14171,19.65718],[110.14716,19.67513],[110.16603,19.67043],[110.18112,19.63847],[110.22132,19.61637],[110.25803,19.6962],[110.30466,19.6973],[110.32015,19.71559],[110.36949,19.71733],[110.37859,19.73081],[110.38966,19.7016],[110.36888,19.64917],[110.38839,19.61383],[110.42004,19.60912],[110.4183,19.58745],[110.44514,19.57299],[110.48469,19.5953],[110.51519,19.56528]]]}},{"type":"Feature","id":"CTAMAP-2014-COUNTY-0336","properties":{"map_level":"county","source_name":"东方市","source_code":"469007","county_type":"县级市","prefecture_name":"不统计","prefecture_code":"0","prefecture_type":"不统计","parent_entity_id":"","parent_year_end_name":"","province_name":"海南省","province_code":"460000","snapshot_year":2014,"panel_year":2013,"link_status":"province_direct_or_out_of_scope","former_name":"","note":"省直辖市,省直管,是县级单位"},"geometry":{"type":"Polygon","coordinates":[[[108.65503,19.31519],[108.70859,19.26172],[108.78096,19.24595],[108.83095,19.26194],[108.91027,19.2198],[108.95517,19.21841],[108.97442,19.16394],[109.00163,19.15009],[108.98789,19.13267],[109.01715,19.11876],[109.00536,19.04703],[109.09289,19.0322],[109.10605,18.99683],[109.08514,18.91015],[109.12151,18.88001],[109.12029,18.86424],[109.07692,18.84659],[109.06536,18.80728],[109.01124,18.81079],[108.98234,18.78845],[108.91434,18.79772],[108.8148,18.73949],[108.80995,18.72064],[108.77284,18.71852],[108.75537,18.73983],[108.69575,18.72427],[108.66737,18.79966],[108.62543,18.82384],[108.62331,18.8401],[108.65899,18.93123],[108.61466,19.09963],[108.65057,19.1228],[108.678,19.17047],[108.66464,19.20189],[108.63165,19.21779],[108.63504,19.28804],[108.65503,19.31519]]]}},{"type":"Feature","id":"CTAMAP-2014-COUNTY-0623","properties":{"map_level":"county","source_name":"三亚市","source_code":"460200","county_type":"不统计","prefecture_name":"三亚市","prefecture_code":"460200","prefecture_type":"地级市","parent_entity_id":"CNUR-000232","parent_year_end_name":"三亚市","province_name":"海南省","province_code":"460000","snapshot_year":2014,"panel_year":2013,"link_status":"parent_linked","former_name":"","note":""},"geometry":{"type":"MultiPolygon","coordinates":[[[[109.69781,18.18887],[109.69283,18.18202],[109.69084,18.18534],[109.69781,18.18887]]],[[[109.66751,18.21739],[109.65859,18.21596],[109.65967,18.22242],[109.66751,18.21739]]],[[[109.41804,18.21711],[109.41222,18.21347],[109.41332,18.22264],[109.41804,18.21711]]],[[[109.49384,18.24511],[109.48292,18.23586],[109.47324,18.23067],[109.49384,18.24511]]],[[[109.37775,18.2311],[109.36341,18.22959],[109.36816,18.24597],[109.37775,18.2311]]],[[[109.27596,18.291],[109.27395,18.28362],[109.27156,18.29065],[109.27596,18.291]]],[[[109.27568,18.29718],[109.28136,18.29165],[109.27604,18.2927],[109.27568,18.29718]]],[[[109.76842,18.31517],[109.75571,18.31142],[109.75545,18.31527],[109.76842,18.31517]]],[[[109.1111,18.35239],[109.10986,18.34539],[109.10742,18.35134],[109.1111,18.35239]]],[[[109.39687,18.62433],[109.41892,18.5645],[109.49958,18.55689],[109.53218,18.53191],[109.53393,18.49227],[109.5104,18.43754],[109.54089,18.39647],[109.67935,18.39834],[109.69187,18.43725],[109.70594,18.4271],[109.72086,18.49474],[109.7723,18.52591],[109.77326,18.49462],[109.80821,18.46437],[109.78088,18.43639],[109.78649,18.40652],[109.75485,18.37782],[109.72085,18.29727],[109.72116,18.27823],[109.73741,18.27234],[109.70921,18.26386],[109.70045,18.28732],[109.67394,18.2759],[109.68626,18.2589],[109.69995,18.28473],[109.70475,18.25975],[109.74141,18.25495],[109.72736,18.21265],[109.70269,18.21355],[109.71152,18.19704],[109.68888,18.2087],[109.68617,18.23538],[109.64669,18.23265],[109.60979,18.21434],[109.61929,18.17106],[109.58222,18.18017],[109.57402,18.15939],[109.55807,18.17247],[109.57528,18.20697],[109.5437,18.22143],[109.57425,18.24002],[109.56574,18.25749],[109.5634,18.24007],[109.53261,18.22918],[109.53784,18.20524],[109.51334,18.22186],[109.48167,18.1884],[109.47092,18.20925],[109.49048,18.21929],[109.49655,18.25011],[109.46076,18.28111],[109.30933,18.30629],[109.18378,18.28495],[109.15449,18.29484],[109.14679,18.33149],[109.10702,18.36168],[108.99227,18.35789],[108.97501,18.38038],[109.01133,18.4244],[109.05885,18.43599],[109.06792,18.45388],[109.14659,18.46746],[109.1836,18.45682],[109.18191,18.51755],[109.20101,18.55597],[109.24497,18.56104],[109.29082,18.51473],[109.30922,18.51915],[109.32519,18.57384],[109.39687,18.62433]]]]}},{"type":"Feature","id":"CTAMAP-2014-COUNTY-1070","properties":{"map_level":"county","source_name":"乐东黎族自治县","source_code":"469027","county_type":"自治县","prefecture_name":"不统计","prefecture_code":"0","prefecture_type":"不统计","parent_entity_id":"","parent_year_end_name":"","province_name":"海南省","province_code":"460000","snapshot_year":2014,"panel_year":2013,"link_status":"province_direct_or_out_of_scope","former_name":"","note":"省直辖县,省直管,是县级单位"},"geometry":{"type":"Polygon","coordinates":[[[109.34296,18.94821],[109.31947,18.92118],[109.33913,18.87881],[109.37002,18.85533],[109.34852,18.81124],[109.352,18.71292],[109.39265,18.6743],[109.40318,18.62884],[109.32519,18.57384],[109.30922,18.51915],[109.29082,18.51473],[109.24497,18.56104],[109.20101,18.55597],[109.18191,18.51755],[109.1836,18.45682],[109.14659,18.46746],[109.06792,18.45388],[109.05885,18.43599],[109.01133,18.4244],[108.97501,18.38038],[108.96011,18.40213],[108.86232,18.43113],[108.81561,18.4727],[108.68766,18.50608],[108.6746,18.55201],[108.70053,18.62074],[108.69271,18.68256],[108.70894,18.73593],[108.75537,18.73983],[108.77284,18.71852],[108.81038,18.72076],[108.8148,18.73949],[108.91434,18.79772],[108.98234,18.78845],[109.01124,18.81079],[109.06536,18.80728],[109.07692,18.84659],[109.12029,18.86424],[109.13704,18.90553],[109.17415,18.91254],[109.21967,18.89516],[109.26069,18.90739],[109.26444,18.93504],[109.29501,18.96449],[109.34296,18.94821]]]}},{"type":"Feature","id":"CTAMAP-2014-COUNTY-1152","properties":{"map_level":"county","source_name":"临高县","source_code":"469024","county_type":"县","prefecture_name":"不统计","prefecture_code":"0","prefecture_type":"不统计","parent_entity_id":"","parent_year_end_name":"","province_name":"海南省","province_code":"460000","snapshot_year":2014,"panel_year":2013,"link_status":"province_direct_or_out_of_scope","former_name":"","note":"省直辖县,省直管,是县级单位"},"geometry":{"type":"Polygon","coordinates":[[[109.84085,19.9485],[109.88849,19.92156],[109.88737,19.89799],[109.87412,19.88586],[109.85632,19.90124],[109.84012,19.89535],[109.83792,19.87336],[109.88006,19.85579],[109.87047,19.80173],[109.89238,19.78187],[109.85349,19.66152],[109.80978,19.62387],[109.8263,19.60407],[109.78932,19.61498],[109.76678,19.58054],[109.73891,19.57786],[109.7407,19.59262],[109.7059,19.57943],[109.65536,19.61297],[109.67043,19.63083],[109.5794,19.63918],[109.55297,19.71205],[109.58979,19.72149],[109.59801,19.76261],[109.56608,19.79358],[109.5663,19.86221],[109.51892,19.87411],[109.52449,19.91324],[109.55973,19.9141],[109.53328,19.91565],[109.53631,19.94484],[109.61377,19.99423],[109.71077,20.01276],[109.73269,19.97274],[109.73438,19.98764],[109.76078,19.96527],[109.80226,19.96497],[109.80379,19.93936],[109.82172,19.95158],[109.81587,19.98516],[109.83434,19.97884],[109.84085,19.9485]]]}},{"type":"Feature","id":"CTAMAP-2014-COUNTY-1195","properties":{"map_level":"county","source_name":"陵水黎族自治县","source_code":"469028","county_type":"自治县","prefecture_name":"不统计","prefecture_code":"0","prefecture_type":"不统计","parent_entity_id":"","parent_year_end_name":"","province_name":"海南省","province_code":"460000","snapshot_year":2014,"panel_year":2013,"link_status":"province_direct_or_out_of_scope","former_name":"","note":"省直辖县,省直管,是县级单位"},"geometry":{"type":"MultiPolygon","coordinates":[[[[110.01038,18.73465],[110.01257,18.67214],[110.03306,18.63486],[110.06135,18.63421],[110.11236,18.59399],[110.13851,18.60764],[110.17599,18.58994],[110.1036,18.53112],[110.06764,18.41173],[110.05515,18.44449],[110.03975,18.4316],[110.04207,18.41056],[110.06042,18.40732],[110.05466,18.391],[110.00026,18.37457],[109.96839,18.38833],[109.96609,18.40892],[110.00056,18.39622],[110.01847,18.40949],[110.02362,18.44668],[110.01633,18.43155],[109.98675,18.43533],[109.96731,18.41116],[109.90191,18.41395],[109.8225,18.37785],[109.81133,18.39905],[109.78343,18.40045],[109.7808,18.43622],[109.8082,18.46451],[109.77201,18.50663],[109.79956,18.52005],[109.82339,18.51188],[109.84806,18.56177],[109.80028,18.59544],[109.80459,18.63072],[109.82924,18.63537],[109.81847,18.65847],[109.8361,18.67962],[109.79983,18.727],[109.76728,18.72341],[109.76901,18.7621],[109.75174,18.76599],[109.7518,18.79161],[109.76934,18.81044],[109.82678,18.72969],[109.85271,18.72932],[109.88311,18.75778],[109.89848,18.74059],[109.94867,18.77446],[109.97642,18.76884],[110.01038,18.73465]]],[[[110.19756,18.58213],[110.19464,18.5746],[110.19287,18.57513],[110.19756,18.58213]]]]}},{"type":"Feature","id":"CTAMAP-2014-COUNTY-1215","properties":{"map_level":"county","source_name":"龙华区","source_code":"460106","county_type":"市辖区","prefecture_name":"海口市","prefecture_code":"460100","prefecture_type":"地级市","parent_entity_id":"CNUR-000231","parent_year_end_name":"海口市","province_name":"海南省","province_code":"460000","snapshot_year":2014,"panel_year":2013,"link_status":"parent_linked","former_name":"新华区","note":"2002年撤销新华区，设立龙华区"},"geometry":{"type":"Polygon","coordinates":[[[110.3301,20.04745],[110.34309,20.03811],[110.32828,20.02495],[110.34615,19.98894],[110.33806,19.96972],[110.38746,19.93173],[110.37896,19.86013],[110.41285,19.85217],[110.40781,19.81899],[110.38823,19.82031],[110.38963,19.76837],[110.36949,19.71733],[110.33509,19.72149],[110.33098,19.7564],[110.29356,19.7616],[110.24831,19.7949],[110.29712,19.86519],[110.30987,19.92857],[110.3091,19.95654],[110.26411,19.95272],[110.29906,19.98523],[110.28708,20.03501],[110.3301,20.04745]]]}},{"type":"Feature","id":"CTAMAP-2014-COUNTY-1347","properties":{"map_level":"county","source_name":"美兰区","source_code":"460108","county_type":"市辖区","prefecture_name":"海口市","prefecture_code":"460100","prefecture_type":"地级市","parent_entity_id":"CNUR-000231","parent_year_end_name":"海口市","province_name":"海南省","province_code":"460000","snapshot_year":2014,"panel_year":2013,"link_status":"parent_linked","former_name":"振东区","note":"2002年撤销振东区，设立美兰区"},"geometry":{"type":"MultiPolygon","coordinates":[[[[110.61951,19.97293],[110.63735,19.95535],[110.64023,19.93152],[110.67088,19.9105],[110.67131,19.86327],[110.70912,19.84837],[110.6946,19.83661],[110.70152,19.80909],[110.65555,19.80962],[110.63405,19.79136],[110.64956,19.78226],[110.60619,19.75367],[110.60746,19.76716],[110.56785,19.77091],[110.55153,19.83233],[110.56911,19.8459],[110.53466,19.88003],[110.53874,19.89315],[110.45742,19.93012],[110.45209,19.90926],[110.42907,19.91397],[110.40985,19.97719],[110.37359,20.00735],[110.38238,20.01854],[110.33084,20.01934],[110.34054,20.04592],[110.30091,20.06363],[110.36688,20.09144],[110.48991,20.02376],[110.54696,20.01903],[110.5369,20.00105],[110.54871,19.96396],[110.57147,20.0004],[110.58589,19.99617],[110.59017,19.95774],[110.57589,19.94317],[110.59059,19.94888],[110.57921,19.93695],[110.59874,19.90902],[110.60442,19.9226],[110.63255,19.92084],[110.61951,19.97293]]],[[[110.55625,20.02318],[110.56509,20.01897],[110.55296,20.01453],[110.55625,20.02318]]]]}},{"type":"Feature","id":"CTAMAP-2014-COUNTY-1645","properties":{"map_level":"county","source_name":"琼海市","source_code":"469002","county_type":"县级市","prefecture_name":"不统计","prefecture_code":"0","prefecture_type":"不统计","parent_entity_id":"","parent_year_end_name":"","province_name":"海南省","province_code":"460000","snapshot_year":2014,"panel_year":2013,"link_status":"province_direct_or_out_of_scope","former_name":"","note":"省直辖市,省直管,是县级单位"},"geometry":{"type":"MultiPolygon","coordinates":[[[[110.54823,19.47433],[110.57847,19.43449],[110.58316,19.36111],[110.6184,19.3573],[110.62831,19.39455],[110.65586,19.40269],[110.67836,19.39249],[110.66931,19.36348],[110.68451,19.33626],[110.65927,19.30709],[110.63556,19.30582],[110.63755,19.26567],[110.6132,19.20698],[110.58651,19.15851],[110.57435,19.15618],[110.5556,19.14214],[110.55994,19.09475],[110.56442,19.1325],[110.57633,19.13164],[110.57164,19.09077],[110.51853,19.10337],[110.50368,19.07993],[110.47427,19.10452],[110.45667,19.09301],[110.46545,19.07584],[110.45378,19.06555],[110.34239,19.02328],[110.34178,19.00802],[110.30368,19.00371],[110.28614,18.98521],[110.24374,18.97774],[110.22475,19.00393],[110.19717,18.99824],[110.19343,19.01469],[110.18798,18.9931],[110.1518,19.00423],[110.15133,19.02524],[110.11686,19.05846],[110.11536,19.13274],[110.14009,19.16819],[110.14106,19.20784],[110.17828,19.19597],[110.23722,19.23057],[110.25758,19.21375],[110.27204,19.22841],[110.33348,19.22615],[110.33961,19.27452],[110.36235,19.30007],[110.31921,19.32308],[110.36256,19.38627],[110.41035,19.42459],[110.43229,19.42],[110.43804,19.44967],[110.48586,19.44682],[110.49573,19.4716],[110.54823,19.47433]]],[[[110.57472,19.14097],[110.56035,19.1436],[110.57495,19.15088],[110.57472,19.14097]]],[[[110.624,19.2167],[110.6183,19.2108],[110.6187,19.2193],[110.624,19.2167]]]]}},{"type":"Feature","id":"CTAMAP-2014-COUNTY-1647","properties":{"map_level":"county","source_name":"琼山区","source_code":"460107","county_type":"市辖区","prefecture_name":"海口市","prefecture_code":"460100","prefecture_type":"地级市","parent_entity_id":"CNUR-000231","parent_year_end_name":"海口市","province_name":"海南省","province_code":"460000","snapshot_year":2014,"panel_year":2013,"link_status":"parent_linked","former_name":"琼山市","note":"2002年撤销琼山市，设立琼山区"},"geometry":{"type":"Polygon","coordinates":[[[110.6357,19.77006],[110.61955,19.735],[110.64205,19.7085],[110.60434,19.69778],[110.62021,19.69722],[110.62177,19.66127],[110.66828,19.64935],[110.63118,19.59539],[110.62886,19.53678],[110.56202,19.52607],[110.54046,19.54001],[110.54505,19.56496],[110.52168,19.55871],[110.48469,19.5953],[110.44514,19.57299],[110.41851,19.58721],[110.42004,19.60912],[110.39094,19.61089],[110.36859,19.65459],[110.38966,19.7016],[110.37125,19.74191],[110.38963,19.76837],[110.38198,19.7953],[110.38904,19.8218],[110.40781,19.81899],[110.41285,19.85217],[110.37896,19.86013],[110.38746,19.93173],[110.33806,19.96972],[110.34615,19.98894],[110.33084,20.01934],[110.38238,20.01854],[110.37359,20.00735],[110.40985,19.97719],[110.42907,19.91397],[110.45209,19.90926],[110.45742,19.93012],[110.53874,19.89315],[110.53466,19.88003],[110.56911,19.8459],[110.55153,19.83233],[110.56829,19.77009],[110.60746,19.76716],[110.60619,19.75367],[110.6357,19.77006]]]}},{"type":"Feature","id":"CTAMAP-2014-COUNTY-1648","properties":{"map_level":"county","source_name":"琼中黎族苗族自治县","source_code":"469030","county_type":"自治县","prefecture_name":"不统计","prefecture_code":"0","prefecture_type":"不统计","parent_entity_id":"","parent_year_end_name":"","province_name":"海南省","province_code":"460000","snapshot_year":2014,"panel_year":2013,"link_status":"province_direct_or_out_of_scope","former_name":"","note":"省直辖县,省直管,是县级单位"},"geometry":{"type":"Polygon","coordinates":[[[109.87171,19.38942],[109.81988,19.3425],[109.81663,19.29167],[109.86383,19.27664],[109.88833,19.24297],[109.93361,19.23375],[109.94467,19.19677],[109.98787,19.19628],[110.02495,19.17554],[110.0537,19.13382],[110.11538,19.13258],[110.11693,19.05794],[110.15351,19.0212],[110.15115,18.97823],[110.10142,18.94815],[110.10307,18.91768],[110.04198,18.88408],[110.09537,18.80995],[110.01255,18.73455],[109.94867,18.77446],[109.89848,18.74059],[109.88311,18.75778],[109.85271,18.72932],[109.82645,18.72982],[109.76245,18.82191],[109.70998,18.83572],[109.69388,18.88812],[109.72597,18.91539],[109.68361,18.92877],[109.59884,18.9115],[109.5473,18.95062],[109.5236,19.00202],[109.51874,19.03179],[109.54157,19.06893],[109.60726,19.05697],[109.60675,19.0896],[109.64755,19.10273],[109.65862,19.12966],[109.68411,19.11998],[109.6984,19.13646],[109.68181,19.18409],[109.70372,19.22345],[109.69258,19.27551],[109.70992,19.33163],[109.69653,19.3508],[109.64444,19.35431],[109.63938,19.40238],[109.69273,19.41746],[109.73113,19.41078],[109.78762,19.37486],[109.8224,19.39765],[109.84945,19.3909],[109.83506,19.40286],[109.85282,19.42209],[109.87171,19.38942]]]}},{"type":"Feature","id":"CTAMAP-2014-COUNTY-1988","properties":{"map_level":"county","source_name":"屯昌县","source_code":"469022","county_type":"县","prefecture_name":"不统计","prefecture_code":"0","prefecture_type":"不统计","parent_entity_id":"","parent_year_end_name":"","province_name":"海南省","province_code":"460000","snapshot_year":2014,"panel_year":2013,"link_status":"province_direct_or_out_of_scope","former_name":"","note":"省直辖县,省直管,是县级单位"},"geometry":{"type":"Polygon","coordinates":[[[110.22638,19.22407],[110.17848,19.19599],[110.14114,19.20792],[110.14009,19.16819],[110.11538,19.13258],[110.0537,19.13382],[110.02495,19.17554],[109.98787,19.19628],[109.94498,19.1966],[109.93361,19.23375],[109.88833,19.24297],[109.86383,19.27664],[109.82255,19.28594],[109.81975,19.34224],[109.85838,19.38853],[109.88531,19.37983],[109.90725,19.39145],[109.9111,19.42881],[109.93791,19.42959],[109.92196,19.43928],[109.94379,19.46848],[109.93382,19.48951],[110.02587,19.48576],[110.04623,19.45738],[110.07072,19.47514],[110.07272,19.50089],[110.11698,19.5054],[110.09716,19.55099],[110.18626,19.59329],[110.19175,19.53774],[110.23897,19.52011],[110.24839,19.49736],[110.22873,19.48679],[110.22557,19.44852],[110.19503,19.46121],[110.15922,19.43082],[110.15343,19.39273],[110.16214,19.36195],[110.18479,19.35397],[110.17935,19.31298],[110.22947,19.29743],[110.21385,19.24753],[110.22638,19.22407]]]}},{"type":"Feature","id":"CTAMAP-2014-COUNTY-1999","properties":{"map_level":"county","source_name":"万宁市","source_code":"469006","county_type":"县级市","prefecture_name":"不统计","prefecture_code":"0","prefecture_type":"不统计","parent_entity_id":"","parent_year_end_name":"","province_name":"海南省","province_code":"460000","snapshot_year":2014,"panel_year":2013,"link_status":"province_direct_or_out_of_scope","former_name":"","note":"省直辖市,省直管,是县级单位"},"geometry":{"type":"MultiPolygon","coordinates":[[[[110.57164,19.09077],[110.5675,19.04762],[110.53714,19.03839],[110.51648,18.98923],[110.51454,18.89148],[110.50808,18.89455],[110.49163,18.88884],[110.47185,18.86977],[110.46886,18.87877],[110.46506,18.87654],[110.46276,18.87449],[110.46932,18.84945],[110.43491,18.83568],[110.44712,18.80881],[110.48934,18.79212],[110.51254,18.80177],[110.49125,18.86936],[110.50778,18.89177],[110.53924,18.78185],[110.46441,18.76933],[110.41349,18.66037],[110.39294,18.67611],[110.35934,18.66156],[110.32728,18.6676],[110.35921,18.68919],[110.37798,18.68621],[110.38393,18.68862],[110.39897,18.68487],[110.41007,18.69567],[110.41366,18.68319],[110.41549,18.69631],[110.39292,18.70361],[110.39764,18.68745],[110.38266,18.6922],[110.34909,18.68973],[110.31208,18.65993],[110.25617,18.65881],[110.19211,18.61303],[110.17601,18.58811],[110.13851,18.60764],[110.10884,18.59532],[110.022,18.64719],[110.01038,18.73465],[110.03804,18.76287],[110.05489,18.76064],[110.09537,18.80995],[110.04198,18.88408],[110.10307,18.91768],[110.10142,18.94815],[110.14928,18.97563],[110.15648,19.00709],[110.18798,18.9931],[110.19563,19.01407],[110.19717,18.99824],[110.22475,19.00393],[110.24374,18.97774],[110.28614,18.98521],[110.30368,19.00371],[110.34178,19.00802],[110.34239,19.02328],[110.45378,19.06555],[110.46545,19.07584],[110.45667,19.09301],[110.47427,19.10452],[110.50368,19.07993],[110.51853,19.10337],[110.57164,19.09077]]],[[[110.48132,18.65552],[110.47478,18.66773],[110.48601,18.67467],[110.49459,18.66704],[110.48132,18.65552]]],[[[110.4833,18.68055],[110.47299,18.67563],[110.47142,18.69016],[110.4833,18.68055]]],[[[110.20001,18.60756],[110.19152,18.60668],[110.19791,18.61219],[110.20001,18.60756]]],[[[110.36306,18.64025],[110.35299,18.64116],[110.36072,18.64353],[110.36306,18.64025]]],[[[110.20847,18.61476],[110.20113,18.61161],[110.20313,18.61747],[110.20847,18.61476]]],[[[110.46335,18.87456],[110.4647,18.87457],[110.46701,18.87143],[110.46335,18.87456]]]]}},{"type":"Feature","id":"CTAMAP-2014-COUNTY-2042","properties":{"map_level":"county","source_name":"文昌市","source_code":"469005","county_type":"县级市","prefecture_name":"不统计","prefecture_code":"0","prefecture_type":"不统计","parent_entity_id":"","parent_year_end_name":"","province_name":"海南省","province_code":"460000","snapshot_year":2014,"panel_year":2013,"link_status":"province_direct_or_out_of_scope","former_name":"","note":"省直辖市,省直管,是县级单位"},"geometry":{"type":"MultiPolygon","coordinates":[[[[110.67836,19.39249],[110.6311,19.39691],[110.61853,19.3574],[110.58575,19.35895],[110.57847,19.43449],[110.55167,19.45599],[110.54235,19.49406],[110.51332,19.51439],[110.47447,19.50369],[110.46194,19.53117],[110.49958,19.56538],[110.54505,19.56496],[110.54046,19.54001],[110.56244,19.526],[110.60718,19.52843],[110.63768,19.54929],[110.63061,19.59374],[110.66828,19.64935],[110.62177,19.66127],[110.62021,19.69722],[110.60435,19.69782],[110.64219,19.70889],[110.61955,19.735],[110.65028,19.78494],[110.63411,19.79153],[110.66569,19.81421],[110.68406,19.8002],[110.70123,19.80883],[110.6946,19.83661],[110.70905,19.8496],[110.67131,19.86327],[110.67088,19.9105],[110.64023,19.93152],[110.61143,19.98187],[110.61173,20.02374],[110.57521,20.02086],[110.56645,20.04637],[110.57362,20.09413],[110.59721,20.11089],[110.64619,20.10704],[110.68456,20.16146],[110.72096,20.06963],[110.76378,20.04316],[110.78124,20.01193],[110.85394,19.99162],[110.93273,20.01171],[110.99518,19.82315],[111.00589,19.69526],[111.04219,19.64306],[110.97975,19.64138],[110.86443,19.52422],[110.84455,19.53228],[110.8231,19.59706],[110.84215,19.61255],[110.87379,19.60967],[110.86835,19.61708],[110.87986,19.62414],[110.88232,19.64088],[110.90262,19.64906],[110.87971,19.64547],[110.87148,19.62045],[110.81498,19.6258],[110.80844,19.6126],[110.80475,19.61197],[110.78531,19.62807],[110.8364,19.52961],[110.82702,19.54238],[110.80895,19.53204],[110.80515,19.48522],[110.76047,19.45534],[110.77416,19.4507],[110.75978,19.42543],[110.67836,19.39249]]],[[[111.20404,19.90801],[111.19697,19.91021],[111.19829,19.91425],[111.20404,19.90801]]]]}},{"type":"Feature","id":"CTAMAP-2014-COUNTY-2095","properties":{"map_level":"county","source_name":"五指山市","source_code":"469001","county_type":"县级市","prefecture_name":"不统计","prefecture_code":"0","prefecture_type":"不统计","parent_entity_id":"","parent_year_end_name":"","province_name":"海南省","province_code":"460000","snapshot_year":2014,"panel_year":2013,"link_status":"province_direct_or_out_of_scope","former_name":"","note":"省直辖市,省直管,是县级单位"},"geometry":{"type":"Polygon","coordinates":[[[109.51874,19.03179],[109.5473,18.95062],[109.59875,18.91155],[109.68361,18.92877],[109.72604,18.91532],[109.69388,18.88812],[109.71119,18.83405],[109.67994,18.82458],[109.69991,18.72582],[109.63788,18.72342],[109.61529,18.68046],[109.56653,18.71732],[109.55242,18.69909],[109.52421,18.69989],[109.53574,18.66064],[109.51932,18.65119],[109.44526,18.65674],[109.42678,18.62941],[109.40318,18.62884],[109.39265,18.6743],[109.35197,18.71309],[109.34852,18.81124],[109.37002,18.85533],[109.33913,18.87881],[109.31947,18.92118],[109.34296,18.94821],[109.37296,18.94305],[109.421,18.99334],[109.45577,18.99881],[109.46589,19.03486],[109.51874,19.03179]]]}},{"type":"Feature","id":"CTAMAP-2014-COUNTY-2300","properties":{"map_level":"county","source_name":"秀英区","source_code":"460105","county_type":"市辖区","prefecture_name":"海口市","prefecture_code":"460100","prefecture_type":"地级市","parent_entity_id":"CNUR-000231","parent_year_end_name":"海口市","province_name":"海南省","province_code":"460000","snapshot_year":2014,"panel_year":2013,"link_status":"parent_linked","former_name":"","note":"2002年新设立秀英区"},"geometry":{"type":"MultiPolygon","coordinates":[[[[110.27654,20.04511],[110.29906,19.98523],[110.26411,19.95272],[110.3091,19.95654],[110.30987,19.92857],[110.29712,19.86519],[110.24831,19.7949],[110.29356,19.7616],[110.33098,19.7564],[110.33509,19.72149],[110.30466,19.6973],[110.2172,19.68063],[110.22238,19.71056],[110.20257,19.7261],[110.22587,19.75367],[110.19843,19.80114],[110.19687,19.83784],[110.17055,19.84788],[110.18293,19.86636],[110.13386,19.86403],[110.15054,19.86817],[110.13738,19.8949],[110.15134,19.90672],[110.13368,19.92306],[110.15854,19.92446],[110.14707,19.93685],[110.15963,19.97329],[110.12559,20.00121],[110.15919,20.06177],[110.19745,20.06329],[110.25658,20.0274],[110.28242,20.02277],[110.27654,20.04511]]],[[[110.22817,20.07691],[110.24631,20.0763],[110.24572,20.06764],[110.23079,20.06262],[110.22817,20.07691]]]]}},{"type":"Feature","id":"CTAMAP-2014-COUNTY-2844","properties":{"map_level":"county","source_name":"三沙市","source_code":"460300","county_type":"不统计","prefecture_name":"三沙市","prefecture_code":"460300","prefecture_type":"地级市","parent_entity_id":"CNUR-000233","parent_year_end_name":"三沙市","province_name":"海南省","province_code":"460000","snapshot_year":2014,"panel_year":2013,"link_status":"parent_linked","former_name":"","note":""},"geometry":{"type":"MultiPolygon","coordinates":[[[[114.05458,7.53911],[113.98295,7.53767],[113.92657,7.56012],[113.8944,7.61922],[113.91738,7.64057],[114.02473,7.67125],[114.20339,7.78397],[114.26412,7.87228],[114.41044,7.95422],[114.46848,7.97063],[114.52923,7.95674],[114.55055,7.88094],[114.42966,7.78896],[114.40359,7.68462],[114.36425,7.63989],[114.05458,7.53911]]],[[[109.93372,7.53553],[109.94669,7.51471],[109.9355,7.50598],[109.80234,7.52615],[109.70567,7.51228],[109.65051,7.48089],[109.50957,7.32156],[109.47559,7.30752],[109.46042,7.31619],[109.46292,7.35488],[109.53227,7.45015],[109.6494,7.56101],[109.71862,7.5772],[109.81277,7.57406],[109.93372,7.53553]]],[[[116.5202,10.34949],[116.63426,10.36706],[116.64409,10.34488],[116.56282,10.30651],[116.46309,10.31076],[116.45791,10.35102],[116.5226,10.42911],[116.5386,10.42209],[116.51034,10.36054],[116.5202,10.34949]]],[[[113.38084,8.23803],[113.31181,8.13474],[113.28578,8.11488],[113.33307,8.20143],[113.2638,8.12526],[113.28957,8.17794],[113.34702,8.23571],[113.35291,8.30987],[113.38005,8.29725],[113.38084,8.23803]]],[[[109.98458,7.81419],[109.93305,7.82556],[109.9433,7.88315],[110.02918,7.94599],[110.07403,7.95088],[110.07242,7.87942],[109.98458,7.81419]]],[[[117.74422,15.23153],[117.77841,15.1892],[117.83492,15.16111],[117.84045,15.12914],[117.82507,15.15481],[117.77502,15.17388],[117.73559,15.22089],[117.71646,15.19713],[117.72088,15.133],[117.82483,15.11003],[117.72251,15.1072],[117.70838,15.12007],[117.71085,15.2244],[117.74422,15.23153]]],[[[110.55062,8.09547],[110.46731,8.07373],[110.45767,8.12987],[110.59117,8.17492],[110.59211,8.14532],[110.55062,8.09547]]],[[[111.67798,16.26257],[111.59084,16.19229],[111.60925,16.17958],[111.66346,16.20889],[111.6912,16.21304],[111.69587,16.20033],[111.6064,16.15832],[111.56359,16.16478],[111.57319,16.21042],[111.64478,16.25764],[111.67798,16.26257]]],[[[115.8803,9.65049],[115.86353,9.65214],[115.85741,9.6963],[115.83363,9.71156],[115.86076,9.77375],[115.90371,9.79802],[115.9218,9.78354],[115.91953,9.75046],[115.8803,9.65049]]],[[[114.58948,10.85847],[114.56125,10.83848],[114.5344,10.85545],[114.50912,10.85045],[114.47335,10.81437],[114.46511,10.83768],[114.57787,10.91075],[114.59467,10.89767],[114.58948,10.85847]]],[[[112.59302,16.07182],[112.60763,16.0413],[112.57919,16.01692],[112.44136,16.01108],[112.45733,16.04576],[112.59302,16.07182]]],[[[114.78928,11.07802],[114.69314,11.00622],[114.70651,11.04145],[114.76243,11.11183],[114.7955,11.10667],[114.78928,11.07802]]],[[[111.80837,16.26369],[111.8121,16.22609],[111.7477,16.19472],[111.72762,16.20817],[111.78555,16.22244],[111.78488,16.25182],[111.67916,16.26244],[111.7853,16.27647],[111.80837,16.26369]]],[[[113.88946,19.15984],[113.84914,19.15407],[113.80637,19.17282],[113.80189,19.22494],[113.87119,19.23885],[113.91566,19.22539],[113.9185,19.18936],[113.88946,19.15984]]],[[[117.40562,10.67346],[117.27268,10.68702],[117.26352,10.70225],[117.29768,10.74172],[117.36495,10.74416],[117.41417,10.70421],[117.40562,10.67346]]],[[[112.53411,16.29102],[112.47099,16.29066],[112.40629,16.26522],[112.37427,16.27087],[112.39746,16.29524],[112.50455,16.31925],[112.53225,16.3144],[112.53411,16.29102]]],[[[114.047,8.77905],[114.03276,8.78279],[113.97559,8.87982],[114.04723,8.83343],[114.05936,8.80156],[114.047,8.77905]]],[[[111.55468,17.11035],[111.55443,17.08948],[111.48887,17.0603],[111.47711,17.07869],[111.49666,17.07597],[111.53185,17.10646],[111.44441,17.08256],[111.50387,17.11828],[111.55468,17.11035]]],[[[111.69799,7.64677],[111.66616,7.65273],[111.67248,7.69643],[111.70463,7.72656],[111.73977,7.72519],[111.73383,7.68314],[111.69799,7.64677]]],[[[112.61673,5.46386],[112.57904,5.56273],[112.58901,5.57746],[112.61209,5.56998],[112.63544,5.51635],[112.63522,5.48123],[112.61673,5.46386]]],[[[112.50277,16.4679],[112.49481,16.49541],[112.57942,16.53346],[112.57432,16.51506],[112.50277,16.4679]]],[[[114.52622,8.10515],[114.50564,8.11347],[114.50843,8.13138],[114.5922,8.16007],[114.62069,8.15136],[114.59189,8.12262],[114.52622,8.10515]]],[[[111.5511,7.5261],[111.53477,7.54569],[111.55915,7.60408],[111.60263,7.60891],[111.59013,7.56083],[111.5511,7.5261]]],[[[113.96642,7.94645],[113.93147,7.94578],[113.90093,7.96544],[113.89692,8.01954],[113.9358,8.02009],[113.96552,7.97666],[113.96642,7.94645]]],[[[117.7946,10.75516],[117.76747,10.75546],[117.76931,10.80771],[117.80142,10.84425],[117.82277,10.84247],[117.83183,10.80562],[117.7946,10.75516]]],[[[111.57614,7.77102],[111.55082,7.81498],[111.60513,7.86346],[111.61539,7.84225],[111.57614,7.77102]]],[[[112.05664,16.31621],[111.97259,16.32084],[111.97311,16.33546],[112.04231,16.36211],[112.0734,16.34807],[112.05664,16.31621]]],[[[114.54908,10.75882],[114.48956,10.71667],[114.53235,10.79239],[114.55066,10.79741],[114.54908,10.75882]]],[[[111.99057,8.04906],[111.93032,8.05998],[111.92261,8.09068],[111.95023,8.10812],[112.0087,8.09492],[112.01344,8.064],[111.99057,8.04906]]],[[[115.52879,9.93397],[115.58095,9.91218],[115.55032,9.8722],[115.4984,9.89259],[115.50242,9.92615],[115.52879,9.93397]]],[[[114.25648,10.2403],[114.23826,10.24379],[114.26082,10.27726],[114.31885,10.29783],[114.32205,10.28652],[114.25648,10.2403]]],[[[113.72623,9.00577],[113.65005,8.96398],[113.63375,8.97883],[113.72144,9.01934],[113.72623,9.00577]]],[[[114.64173,8.84678],[114.59495,8.84816],[114.61338,8.88325],[114.66145,8.90192],[114.67828,8.88311],[114.64173,8.84678]]],[[[114.81505,16.20953],[114.69898,16.17207],[114.70038,16.20117],[114.81505,16.20953]]],[[[112.6808,5.37289],[112.61708,5.35105],[112.60862,5.38949],[112.64122,5.4107],[112.68664,5.40787],[112.6808,5.37289]]],[[[112.71455,5.06367],[112.65186,5.05681],[112.65053,5.11432],[112.67981,5.11959],[112.71455,5.06367]]],[[[111.78357,16.51457],[111.7345,16.45479],[111.73548,16.47066],[111.7607,16.50362],[111.73962,16.5537],[111.78357,16.51457]]],[[[112.5998,8.85919],[112.6387,8.82222],[112.56647,8.81748],[112.53355,8.84392],[112.53987,8.85644],[112.5998,8.85919]]],[[[115.19602,8.39121],[115.27684,8.35671],[115.25871,8.34526],[115.19793,8.35481],[115.17599,8.38326],[115.19602,8.39121]]],[[[114.66626,9.92724],[114.63492,9.92059],[114.61501,9.97681],[114.68186,9.98105],[114.66626,9.92724]]],[[[114.63947,11.42526],[114.61675,11.42968],[114.61591,11.5174],[114.64129,11.53243],[114.65788,11.52416],[114.63947,11.42526]]],[[[115.97345,9.32409],[115.99189,9.2795],[115.93919,9.27169],[115.91832,9.29426],[115.93052,9.3177],[115.97345,9.32409]]],[[[113.85645,9.99412],[113.83941,9.99643],[113.85729,10.12897],[113.87138,10.11571],[113.85645,9.99412]]],[[[114.20787,8.78945],[114.24471,8.72634],[114.23127,8.72017],[114.21058,8.76247],[114.22204,8.71524],[114.21141,8.71065],[114.19053,8.77444],[114.20787,8.78945]]],[[[111.70298,7.88789],[111.66082,7.88852],[111.6368,7.90531],[111.64746,7.93423],[111.71197,7.92671],[111.72062,7.91031],[111.70298,7.88789]]],[[[113.02247,19.47582],[112.98014,19.48271],[112.9886,19.52783],[113.03602,19.52033],[113.04301,19.49513],[113.02247,19.47582]]],[[[116.71986,16.29916],[116.69387,16.31746],[116.69074,16.34744],[116.72049,16.37652],[116.74355,16.36237],[116.74343,16.32352],[116.71986,16.29916]]],[[[115.43417,13.94496],[115.39315,13.92636],[115.35742,13.95036],[115.37289,13.97031],[115.41898,13.9788],[115.43417,13.94496]]],[[[114.72462,10.32378],[114.69825,10.31474],[114.68687,10.32874],[114.68897,10.3593],[114.7133,10.38211],[114.74314,10.37391],[114.72462,10.32378]]],[[[111.67993,8.62714],[111.64858,8.63525],[111.65774,8.67895],[111.70875,8.67337],[111.7134,8.65185],[111.67993,8.62714]]],[[[115.52864,8.46121],[115.5065,8.48812],[115.50833,8.5198],[115.555,8.52508],[115.55693,8.46804],[115.52864,8.46121]]],[[[116.76128,11.43165],[116.72942,11.47779],[116.72953,11.51581],[116.76821,11.44697],[116.76128,11.43165]]],[[[112.28844,16.96947],[112.21045,16.963],[112.19556,16.98033],[112.25012,16.9987],[112.29114,16.98134],[112.28844,16.96947]]],[[[114.98579,7.47785],[114.95672,7.4865],[114.94692,7.51579],[115.00986,7.52741],[115.01088,7.49047],[114.98579,7.47785]]],[[[112.34724,16.91371],[112.299,16.96196],[112.3001,16.97516],[112.34523,16.946],[112.34724,16.91371]]],[[[116.32819,8.90287],[116.29772,8.88571],[116.29045,8.86001],[116.26968,8.88156],[116.30865,8.92022],[116.32819,8.90287]]],[[[113.7898,7.60133],[113.76436,7.60865],[113.76502,7.63835],[113.82725,7.64621],[113.82966,7.61771],[113.7898,7.60133]]],[[[111.78657,16.03069],[111.7562,16.04356],[111.75304,16.06117],[111.82484,16.07291],[111.82371,16.05124],[111.78657,16.03069]]],[[[114.90053,7.95141],[114.86599,7.97645],[114.87948,8.01366],[114.91046,8.0094],[114.9171,7.99328],[114.90053,7.95141]]],[[[114.92698,10.84369],[114.90732,10.86945],[114.93013,10.90483],[114.94973,10.90912],[114.94635,10.86684],[114.92698,10.84369]]],[[[116.07121,10.06696],[116.04146,10.09727],[116.06929,10.13288],[116.09194,10.09535],[116.07121,10.06696]]],[[[112.5517,5.61961],[112.52049,5.64548],[112.52748,5.6921],[112.55735,5.67823],[112.5517,5.61961]]],[[[112.66966,4.99834],[112.63723,5.00645],[112.61014,5.04379],[112.64376,5.0387],[112.66966,4.99834]]],[[[113.2284,8.06869],[113.21767,8.07789],[113.23369,8.09925],[113.27664,8.11884],[113.2284,8.06869]]],[[[112.61705,4.94397],[112.58188,4.95424],[112.58004,4.97698],[112.59952,4.99523],[112.63728,4.98783],[112.61705,4.94397]]],[[[114.48076,16.0365],[114.44813,16.03253],[114.4444,16.04837],[114.47731,16.07301],[114.51916,16.06624],[114.48076,16.0365]]],[[[112.56438,9.51892],[112.50386,9.52751],[112.5076,9.54669],[112.52425,9.56083],[112.56288,9.55594],[112.56438,9.51892]]],[[[114.8509,7.18782],[114.81563,7.19733],[114.85031,7.24579],[114.86726,7.2325],[114.8509,7.18782]]],[[[112.93945,4.99292],[112.90306,4.99414],[112.90687,5.03949],[112.92485,5.05147],[112.95429,5.03949],[112.93945,4.99292]]],[[[114.67911,7.56424],[114.66161,7.57313],[114.67022,7.60921],[114.71439,7.61354],[114.71759,7.59332],[114.67911,7.56424]]],[[[114.73004,11.43378],[114.6914,11.44863],[114.69254,11.48986],[114.72727,11.48363],[114.73004,11.43378]]],[[[114.00756,8.80051],[113.97092,8.79482],[113.9528,8.84396],[113.9733,8.84337],[114.00756,8.80051]]],[[[115.46588,9.36082],[115.43074,9.35363],[115.42329,9.37672],[115.44906,9.41956],[115.46588,9.36082]]],[[[114.31465,16.04189],[114.30332,16.0359],[114.20849,16.04244],[114.27859,16.06226],[114.31465,16.04189]]],[[[112.55868,5.76032],[112.53265,5.76172],[112.52434,5.77913],[112.52487,5.80223],[112.5484,5.82317],[112.5669,5.798],[112.55868,5.76032]]],[[[112.24937,15.71336],[112.20398,15.69714],[112.19879,15.71588],[112.24704,15.74477],[112.24937,15.71336]]],[[[112.24922,16.75372],[112.19935,16.77588],[112.20597,16.79769],[112.25732,16.7799],[112.24922,16.75372]]],[[[112.58483,5.07432],[112.56223,5.07598],[112.5551,5.11522],[112.60715,5.11159],[112.58483,5.07432]]],[[[114.66614,8.21217],[114.72656,8.21043],[114.73768,8.19131],[114.68731,8.18687],[114.66614,8.21217]]],[[[110.47776,7.78271],[110.4613,7.7846],[110.45818,7.8071],[110.48115,7.82924],[110.50606,7.8216],[110.47776,7.78271]]],[[[114.08621,10.90428],[114.05497,10.91416],[114.09205,10.94922],[114.10797,10.93169],[114.08621,10.90428]]],[[[117.30024,11.02899],[117.26297,11.0429],[117.26015,11.06443],[117.27719,11.0804],[117.29521,11.07923],[117.30024,11.02899]]],[[[117.28045,10.30604],[117.25378,10.32257],[117.27056,10.36016],[117.29559,10.34505],[117.29513,10.316],[117.28045,10.30604]]],[[[113.92119,8.84038],[113.88939,8.86469],[113.90786,8.89118],[113.93612,8.87416],[113.92119,8.84038]]],[[[111.60393,16.44053],[111.57374,16.44941],[111.57903,16.49287],[111.607,16.46586],[111.60393,16.44053]]],[[[114.81242,8.11744],[114.77313,8.11582],[114.78249,8.16105],[114.80644,8.15971],[114.81242,8.11744]]],[[[116.48064,9.13971],[116.4496,9.17028],[116.4825,9.1868],[116.49669,9.16589],[116.48064,9.13971]]],[[[116.64867,10.51993],[116.69538,10.51944],[116.70883,10.50713],[116.70015,10.49197],[116.6493,10.4934],[116.63458,10.50623],[116.64867,10.51993]]],[[[112.24503,3.86074],[112.21768,3.88147],[112.23897,3.9077],[112.2612,3.89536],[112.26231,3.87345],[112.24503,3.86074]]],[[[112.04381,3.83812],[112.01006,3.8395],[112.00916,3.86894],[112.04815,3.87719],[112.05692,3.85816],[112.04381,3.83812]]],[[[115.27767,10.20788],[115.32917,10.20219],[115.28664,10.17326],[115.27767,10.20788]]],[[[117.68621,11.01832],[117.65214,11.02649],[117.64934,11.04802],[117.68668,11.05056],[117.70042,11.03347],[117.68621,11.01832]]],[[[113.60666,6.9229],[113.57221,6.92425],[113.59185,6.96318],[113.61911,6.94377],[113.60666,6.9229]]],[[[116.73674,9.03056],[116.70506,9.02603],[116.69554,9.05083],[116.71338,9.06487],[116.74569,9.05853],[116.73674,9.03056]]],[[[117.38096,10.06533],[117.35004,10.06488],[117.3496,10.10646],[117.38576,10.10044],[117.38096,10.06533]]],[[[110.63696,7.98707],[110.60602,7.99291],[110.61897,8.04297],[110.63684,8.03726],[110.63696,7.98707]]],[[[112.50223,5.00627],[112.46104,5.01349],[112.46701,5.04222],[112.49476,5.03554],[112.50223,5.00627]]],[[[112.36879,8.9101],[112.34146,8.92792],[112.38036,8.94878],[112.38809,8.92128],[112.36879,8.9101]]],[[[114.34772,10.73235],[114.33584,10.70095],[114.31527,10.69532],[114.34772,10.73235]]],[[[114.19156,9.3525],[114.17099,9.34401],[114.1625,9.38624],[114.18987,9.39335],[114.19156,9.3525]]],[[[112.92526,7.82939],[112.89406,7.82916],[112.88896,7.85573],[112.92763,7.86915],[112.92526,7.82939]]],[[[112.19514,8.85332],[112.17749,8.86845],[112.2222,8.88857],[112.22171,8.88032],[112.19514,8.85332]]],[[[112.27315,8.85478],[112.25714,8.85667],[112.24089,8.87824],[112.28103,8.89069],[112.27315,8.85478]]],[[[115.28106,8.48287],[115.25533,8.48807],[115.25806,8.51793],[115.292,8.51287],[115.28106,8.48287]]],[[[114.71639,9.71914],[114.70077,9.70234],[114.67675,9.70942],[114.67398,9.72907],[114.71078,9.7388],[114.71639,9.71914]]],[[[112.67281,16.39031],[112.64168,16.38765],[112.6553,16.42864],[112.67441,16.41537],[112.67281,16.39031]]],[[[114.91614,16.0051],[114.89139,16.03818],[114.90476,16.05716],[114.92319,16.03528],[114.91614,16.0051]]],[[[112.86113,8.89193],[112.83722,8.89591],[112.8204,8.92082],[112.86864,8.9103],[112.86113,8.89193]]],[[[111.545,16.44376],[111.53235,16.43433],[111.48922,16.44492],[111.53401,16.46348],[111.545,16.44376]]],[[[116.48854,9.78363],[116.46602,9.81158],[116.48182,9.82454],[116.50493,9.80356],[116.48854,9.78363]]],[[[115.78292,10.43921],[115.75831,10.44738],[115.75976,10.47222],[115.79801,10.46563],[115.78292,10.43921]]],[[[111.72662,16.56243],[111.69995,16.57571],[111.687,16.59396],[111.71816,16.59155],[111.72662,16.56243]]],[[[116.15168,9.59439],[116.18391,9.59735],[116.18544,9.56708],[116.15072,9.57065],[116.15168,9.59439]]],[[[111.48354,8.52267],[111.45879,8.52675],[111.47335,8.54911],[111.50484,8.55265],[111.48354,8.52267]]],[[[113.67257,9.20473],[113.65588,9.23298],[113.67561,9.24599],[113.69273,9.22768],[113.67257,9.20473]]],[[[115.80086,10.50688],[115.79146,10.5019],[115.76742,10.53322],[115.78618,10.53857],[115.80086,10.50688]]],[[[116.09685,10.78663],[116.07666,10.80657],[116.08355,10.83235],[116.10753,10.81561],[116.09685,10.78663]]],[[[113.61927,10.22462],[113.59257,10.24309],[113.60635,10.25903],[113.63376,10.24536],[113.61927,10.22462]]],[[[112.96527,8.40498],[112.9409,8.41199],[112.95121,8.43894],[112.98114,8.43098],[112.96527,8.40498]]],[[[112.56279,5.95363],[112.53064,5.95243],[112.53462,5.97136],[112.57136,5.97259],[112.56279,5.95363]]],[[[113.83261,7.3854],[113.85368,7.37538],[113.8244,7.36374],[113.78745,7.37301],[113.83261,7.3854]]],[[[113.96869,15.80747],[113.94871,15.8075],[113.9341,15.83722],[113.96613,15.8411],[113.96869,15.80747]]],[[[112.25931,3.93889],[112.24528,3.96533],[112.26528,3.97653],[112.28061,3.94875],[112.25931,3.93889]]],[[[117.20552,10.59675],[117.17097,10.59276],[117.1705,10.62253],[117.20552,10.59675]]],[[[112.38135,5.6165],[112.35792,5.61099],[112.34578,5.62275],[112.35595,5.64134],[112.38084,5.64417],[112.38135,5.6165]]],[[[117.21349,10.71542],[117.19131,10.71304],[117.17685,10.73645],[117.20974,10.73671],[117.21349,10.71542]]],[[[113.23489,6.29025],[113.21519,6.29706],[113.22668,6.32737],[113.24403,6.31911],[113.23489,6.29025]]],[[[114.12803,8.09237],[114.09658,8.08048],[114.09727,8.10265],[114.12908,8.11514],[114.12803,8.09237]]],[[[112.89937,16.76892],[112.86652,16.75756],[112.86935,16.77475],[112.89839,16.78932],[112.89937,16.76892]]],[[[114.60306,15.65223],[114.60686,15.61718],[114.57718,15.62726],[114.60306,15.65223]]],[[[115.00926,11.06473],[114.98535,11.06929],[114.98878,11.09699],[115.0165,11.09007],[115.00926,11.06473]]],[[[115.43563,8.32346],[115.41534,8.33582],[115.43221,8.36398],[115.44547,8.35106],[115.43563,8.32346]]],[[[116.58884,9.72456],[116.56288,9.72069],[116.54765,9.74568],[116.57502,9.74736],[116.58884,9.72456]]],[[[117.63825,10.62425],[117.62925,10.64284],[117.66063,10.65286],[117.66327,10.64554],[117.63825,10.62425]]],[[[114.11997,15.97998],[114.10052,15.98458],[114.109,16.01283],[114.13322,15.99569],[114.11997,15.97998]]],[[[113.88958,15.46582],[113.86925,15.46362],[113.85667,15.48145],[113.88806,15.49205],[113.88958,15.46582]]],[[[116.8512,10.47058],[116.83085,10.48578],[116.86639,10.49671],[116.86592,10.47982],[116.8512,10.47058]]],[[[114.28281,9.69946],[114.26954,9.70558],[114.28395,9.74053],[114.2962,9.72487],[114.28281,9.69946]]],[[[111.22491,15.78868],[111.19101,15.77502],[111.1916,15.7915],[111.22079,15.80256],[111.22491,15.78868]]],[[[112.49088,5.73561],[112.46808,5.74045],[112.4735,5.77218],[112.49179,5.77718],[112.49088,5.73561]]],[[[112.69648,16.33364],[112.66707,16.33349],[112.67298,16.36108],[112.69289,16.35868],[112.69648,16.33364]]],[[[112.22756,8.8277],[112.20328,8.83731],[112.22413,8.85867],[112.23654,8.85475],[112.22756,8.8277]]],[[[114.00727,15.43179],[114.00736,15.41046],[113.9772,15.42295],[114.00727,15.43179]]],[[[113.75488,15.61092],[113.71983,15.59467],[113.71302,15.60995],[113.75488,15.61092]]],[[[116.44734,9.76327],[116.42866,9.7703],[116.43178,9.80564],[116.45008,9.79579],[116.44734,9.76327]]],[[[113.897,15.65259],[113.88941,15.67581],[113.91573,15.68715],[113.91588,15.66128],[113.897,15.65259]]],[[[115.74168,10.51212],[115.71855,10.52178],[115.71672,10.53917],[115.74264,10.53787],[115.74168,10.51212]]],[[[117.48119,11.08908],[117.4464,11.06479],[117.44762,11.07994],[117.48119,11.08908]]],[[[114.48752,15.59514],[114.46238,15.57812],[114.45325,15.60117],[114.48752,15.59514]]],[[[114.78596,15.90074],[114.78328,15.86947],[114.76389,15.87078],[114.75749,15.89082],[114.78596,15.90074]]],[[[112.90358,9.55163],[112.8744,9.54368],[112.90243,9.56246],[112.90358,9.55163]]],[[[114.26015,15.44652],[114.23059,15.43408],[114.24213,15.45936],[114.26015,15.44652]]],[[[114.59183,11.31447],[114.56661,11.31991],[114.57684,11.33861],[114.59117,11.32933],[114.59183,11.31447]]],[[[115.71445,10.48072],[115.69645,10.48707],[115.70524,10.51517],[115.72054,10.50343],[115.71445,10.48072]]],[[[111.54934,9.27693],[111.51626,9.26576],[111.55135,9.28697],[111.54934,9.27693]]],[[[112.74134,16.65496],[112.72327,16.65774],[112.71718,16.67786],[112.74374,16.67141],[112.74134,16.65496]]],[[[112.35544,16.84165],[112.33569,16.82288],[112.3243,16.8363],[112.34607,16.84753],[112.35544,16.84165]]],[[[114.32768,11.07099],[114.34278,11.04994],[114.30841,11.05972],[114.32768,11.07099]]],[[[111.62357,16.5374],[111.59681,16.53788],[111.62908,16.54772],[111.62357,16.5374]]],[[[115.85859,10.82989],[115.84108,10.84094],[115.83788,10.85274],[115.86013,10.8497],[115.85859,10.82989]]],[[[114.27877,15.53936],[114.25339,15.52832],[114.2609,15.55202],[114.27877,15.53936]]],[[[114.55933,9.86934],[114.54288,9.87355],[114.53832,9.88919],[114.55687,9.88981],[114.55933,9.86934]]],[[[115.73909,10.44158],[115.71871,10.44719],[115.72665,10.47358],[115.73913,10.46544],[115.73909,10.44158]]],[[[113.03743,9.65931],[113.02443,9.66041],[113.01318,9.67917],[113.03177,9.67989],[113.03743,9.65931]]],[[[111.66467,16.55855],[111.65089,16.56737],[111.67475,16.57886],[111.67774,16.56989],[111.66467,16.55855]]],[[[114.47701,9.90213],[114.45417,9.8964],[114.45552,9.91342],[114.47701,9.90213]]],[[[114.86778,10.82747],[114.84876,10.81896],[114.85244,10.83925],[114.86778,10.82747]]],[[[116.17153,10.61631],[116.15943,10.61581],[116.16589,10.64948],[116.17153,10.61631]]],[[[114.56919,9.93706],[114.54649,9.94192],[114.5673,9.94751],[114.56919,9.93706]]],[[[114.36231,10.18589],[114.36859,10.17232],[114.343,10.17983],[114.36231,10.18589]]],[[[114.49805,9.90386],[114.48507,9.91077],[114.49695,9.92467],[114.50563,9.92046],[114.49805,9.90386]]],[[[116.59643,9.73596],[116.59942,9.71627],[116.5876,9.73742],[116.59643,9.73596]]],[[[114.26965,9.82367],[114.25188,9.82616],[114.26539,9.83976],[114.26965,9.82367]]],[[[114.40013,11.45238],[114.38549,11.45829],[114.38123,11.46605],[114.39936,11.4686],[114.40013,11.45238]]],[[[114.80298,11.14138],[114.78414,11.14913],[114.7834,11.15367],[114.80459,11.1547],[114.80298,11.14138]]],[[[114.4707,9.83217],[114.45198,9.82388],[114.45451,9.84111],[114.4707,9.83217]]],[[[114.52986,9.9229],[114.51402,9.93394],[114.51756,9.94228],[114.53113,9.93731],[114.52986,9.9229]]],[[[116.92745,9.4482],[116.91746,9.45695],[116.93074,9.46802],[116.93571,9.46325],[116.92745,9.4482]]],[[[114.59673,9.87999],[114.57675,9.87456],[114.57936,9.88604],[114.59673,9.87999]]],[[[112.90302,9.58793],[112.88917,9.57113],[112.89089,9.5925],[112.90302,9.58793]]],[[[114.37256,11.07963],[114.36414,11.09345],[114.37918,11.09704],[114.38295,11.09135],[114.37256,11.07963]]],[[[114.31031,11.38132],[114.29609,11.39096],[114.30726,11.39733],[114.31031,11.38132]]],[[[114.26591,9.76737],[114.25012,9.77043],[114.25404,9.78139],[114.26591,9.76737]]],[[[111.46934,17.07447],[111.46375,17.06036],[111.45403,17.07455],[111.46934,17.07447]]],[[[114.35535,9.75475],[114.34041,9.74495],[114.34853,9.76204],[114.35535,9.75475]]],[[[114.02986,10.01499],[114.04313,10.02966],[114.04704,10.01816],[114.02986,10.01499]]],[[[115.37279,10.24883],[115.36183,10.25709],[115.37681,10.25652],[115.37279,10.24883]]],[[[114.40941,9.79744],[114.39168,9.79703],[114.39444,9.80525],[114.40941,9.79744]]],[[[114.36456,11.45537],[114.34866,11.45575],[114.36552,11.46001],[114.36456,11.45537]]],[[[114.2322,11.06667],[114.22008,11.05521],[114.21423,11.06542],[114.2322,11.06667]]],[[[114.28231,11.04713],[114.28062,11.06099],[114.29154,11.06057],[114.29448,11.0511],[114.28231,11.04713]]],[[[111.71711,16.21397],[111.70068,16.20423],[111.69905,16.21114],[111.71711,16.21397]]],[[[114.37169,11.39975],[114.35466,11.40184],[114.36879,11.40808],[114.37169,11.39975]]],[[[111.69364,16.44804],[111.71172,16.45568],[111.71721,16.44865],[111.69364,16.44804]]],[[[114.58302,10.41962],[114.56706,10.40815],[114.56373,10.41421],[114.58302,10.41962]]],[[[114.37348,10.38331],[114.35999,10.37244],[114.35375,10.37558],[114.37348,10.38331]]],[[[112.96589,9.64151],[112.9503,9.6394],[112.96431,9.64452],[112.96589,9.64151]]],[[[114.40301,9.89708],[114.38848,9.89489],[114.38932,9.90414],[114.40301,9.89708]]],[[[116.53655,9.7415],[116.51496,9.74633],[116.53782,9.74406],[116.53655,9.7415]]],[[[112.98643,9.65653],[112.97497,9.64714],[112.97283,9.65287],[112.98643,9.65653]]],[[[114.58759,9.95404],[114.57412,9.95111],[114.57695,9.96075],[114.58759,9.95404]]],[[[114.51795,9.86871],[114.50451,9.86951],[114.51091,9.87488],[114.51795,9.86871]]],[[[114.48608,10.37784],[114.4739,10.37415],[114.47634,10.38287],[114.48608,10.37784]]],[[[114.33188,9.89112],[114.32663,9.88148],[114.32231,9.8889],[114.33188,9.89112]]],[[[114.54023,10.71306],[114.52801,10.70846],[114.53201,10.71717],[114.54023,10.71306]]],[[[114.31114,9.88223],[114.30135,9.87693],[114.30094,9.88461],[114.31114,9.88223]]],[[[114.22929,10.21209],[114.21575,10.21089],[114.22559,10.21801],[114.22929,10.21209]]],[[[114.33689,11.4344],[114.32544,11.42613],[114.33276,11.43695],[114.33689,11.4344]]],[[[113.00708,9.65997],[112.99702,9.65083],[112.99738,9.66035],[113.00708,9.65997]]],[[[114.37096,11.46361],[114.36883,11.44896],[114.36694,11.46428],[114.37096,11.46361]]],[[[114.40003,11.44045],[114.39143,11.42995],[114.3928,11.44162],[114.40003,11.44045]]],[[[114.42847,10.67182],[114.4183,10.66553],[114.42186,10.6753],[114.42847,10.67182]]],[[[116.17241,10.71821],[116.16053,10.71607],[116.16424,10.72306],[116.17241,10.71821]]],[[[115.82975,10.81905],[115.81729,10.81577],[115.82804,10.82287],[115.82975,10.81905]]],[[[114.19319,11.03298],[114.18334,11.03033],[114.18871,11.03695],[114.19319,11.03298]]],[[[114.26318,11.07405],[114.2532,11.0703],[114.25457,11.07939],[114.26318,11.07405]]],[[[112.87923,9.57877],[112.87155,9.57088],[112.86977,9.57798],[112.87923,9.57877]]],[[[114.56638,10.75438],[114.5578,10.74997],[114.56004,10.75727],[114.56638,10.75438]]],[[[112.94255,9.63793],[112.93135,9.63481],[112.93946,9.63968],[112.94255,9.63793]]],[[[113.01989,9.66555],[113.01566,9.65747],[113.01396,9.66418],[113.01989,9.66555]]],[[[115.80669,10.73696],[115.7987,10.7296],[115.80269,10.73927],[115.80669,10.73696]]],[[[114.21103,11.05602],[114.20309,11.05512],[114.20911,11.06005],[114.21103,11.05602]]],[[[112.93001,9.62855],[112.92649,9.62162],[112.92286,9.6258],[112.93001,9.62855]]],[[[114.4949,9.85201],[114.49056,9.84741],[114.48751,9.85486],[114.4949,9.85201]]],[[[112.64043,16.57108],[112.63233,16.56725],[112.63188,16.57214],[112.64043,16.57108]]],[[[116.65056,9.03722],[116.6426,9.03533],[116.64589,9.03953],[116.65056,9.03722]]],[[[117.82595,15.13991],[117.82664,15.13405],[117.82104,15.13648],[117.82595,15.13991]]],[[[117.80951,15.12438],[117.8102,15.11852],[117.8046,15.12095],[117.80951,15.12438]]],[[[111.58873,16.50766],[111.58233,16.50287],[111.58485,16.50962],[111.58873,16.50766]]],[[[114.56575,10.78221],[114.57223,10.77529],[114.56572,10.7767],[114.56575,10.78221]]],[[[111.92148,8.64392],[111.91867,8.64623],[111.9226,8.64644],[111.92148,8.64392]]],[[[111.71878,16.54598],[111.71805,16.54307],[111.71579,16.54487],[111.71878,16.54598]]],[[[111.68681,16.5673],[111.6857,16.56569],[111.68559,16.56719],[111.68681,16.5673]]]]}}]}