{"type":"FeatureCollection","features":[{"type":"Feature","id":"CTAMAP-2016-COUNTY-0256","properties":{"map_level":"county","source_name":"大武口区","source_code":"640202","county_type":"市辖区","prefecture_name":"石嘴山市","prefecture_code":"640200","prefecture_type":"地级市","parent_entity_id":"CNUR-000322","parent_year_end_name":"石嘴山市","province_name":"宁夏回族自治区","province_code":"640000","snapshot_year":2016,"panel_year":2015,"link_status":"parent_linked","former_name":"","note":""},"geometry":{"type":"Polygon","coordinates":[[[106.50378,39.26943],[106.45936,39.1976],[106.45465,39.17631],[106.47112,39.16287],[106.46337,39.13204],[106.42495,39.09071],[106.43322,39.07484],[106.47586,39.05019],[106.47449,39.02547],[106.46276,39.01592],[106.48151,38.98192],[106.36026,38.85416],[106.35382,38.8659],[106.27156,38.90583],[106.24919,38.93484],[106.24552,38.9534],[106.22789,38.96023],[106.21375,38.97943],[106.19803,38.98237],[106.14814,39.02067],[106.12672,39.02836],[106.11687,39.04418],[106.12086,39.05775],[106.08826,39.07003],[106.10557,39.0968],[106.10804,39.12015],[106.15223,39.15794],[106.21206,39.13177],[106.22497,39.13867],[106.24909,39.13147],[106.28101,39.14032],[106.28898,39.15812],[106.28801,39.18298],[106.2748,39.20641],[106.28526,39.21666],[106.27117,39.26385],[106.27707,39.27346],[106.42845,39.28672],[106.50378,39.26943]]]}},{"type":"Feature","id":"CTAMAP-2016-COUNTY-0628","properties":{"map_level":"county","source_name":"海原县","source_code":"640522","county_type":"县","prefecture_name":"中卫市","prefecture_code":"640500","prefecture_type":"地级市","parent_entity_id":"CNUR-000325","parent_year_end_name":"中卫市","province_name":"宁夏回族自治区","province_code":"640000","snapshot_year":2016,"panel_year":2015,"link_status":"parent_linked","former_name":"","note":""},"geometry":{"type":"Polygon","coordinates":[[[106.44066,36.62481],[106.43893,36.60094],[106.4634,36.58194],[106.45128,36.57293],[106.45156,36.55979],[106.42607,36.55889],[106.39138,36.57719],[106.38711,36.55634],[106.36395,36.5766],[106.35705,36.57329],[106.36716,36.54873],[106.39414,36.5477],[106.41146,36.53194],[106.40805,36.50521],[106.36271,36.5179],[106.34817,36.51262],[106.34072,36.49901],[106.32991,36.5018],[106.32458,36.48797],[106.30218,36.48276],[106.30734,36.45191],[106.32171,36.45613],[106.30933,36.43715],[106.31114,36.4097],[106.27488,36.41328],[106.26499,36.38116],[106.24329,36.38401],[106.20004,36.35777],[106.1966,36.35183],[106.21293,36.34452],[106.20555,36.32723],[106.18689,36.32556],[106.17149,36.33537],[106.09761,36.31478],[106.08473,36.33415],[106.07251,36.33236],[106.06943,36.32392],[106.04902,36.3328],[106.01757,36.32722],[105.99295,36.30679],[105.97602,36.3122],[105.9635,36.29016],[105.97586,36.27432],[106.00403,36.19303],[105.98946,36.19317],[105.98478,36.20305],[105.93593,36.22245],[105.88094,36.21728],[105.87607,36.20218],[105.88153,36.18301],[105.87332,36.1826],[105.85397,36.15243],[105.81493,36.12203],[105.80099,36.14204],[105.75482,36.13395],[105.77476,36.15475],[105.7697,36.17147],[105.75476,36.18077],[105.71485,36.17429],[105.67959,36.14865],[105.62094,36.19521],[105.60042,36.23047],[105.58395,36.23643],[105.56435,36.2301],[105.5544,36.21625],[105.50729,36.2074],[105.49136,36.19003],[105.48318,36.19119],[105.47573,36.21276],[105.45699,36.2228],[105.45435,36.23414],[105.46234,36.25082],[105.45678,36.26715],[105.4704,36.27684],[105.47394,36.29159],[105.44906,36.32332],[105.4221,36.32946],[105.39865,36.36514],[105.41535,36.37761],[105.39783,36.38512],[105.39459,36.43064],[105.37956,36.44125],[105.36552,36.43159],[105.35891,36.43895],[105.36594,36.4598],[105.35764,36.49762],[105.31764,36.53653],[105.27773,36.5225],[105.24537,36.54757],[105.27185,36.56276],[105.26154,36.58922],[105.26717,36.59315],[105.2573,36.60255],[105.24605,36.6017],[105.23823,36.62556],[105.21651,36.63108],[105.22445,36.65997],[105.20461,36.67912],[105.1981,36.70091],[105.21344,36.70437],[105.27897,36.68234],[105.3058,36.71754],[105.31914,36.68071],[105.34125,36.67969],[105.35347,36.66758],[105.37173,36.69355],[105.40239,36.706],[105.39391,36.71084],[105.40269,36.72504],[105.44839,36.71006],[105.45423,36.72869],[105.50286,36.76069],[105.51106,36.76336],[105.51681,36.75283],[105.53373,36.74901],[105.56362,36.76002],[105.55004,36.77705],[105.563,36.79024],[105.58091,36.79087],[105.61827,36.77131],[105.62853,36.78708],[105.67085,36.79431],[105.67596,36.81144],[105.68696,36.81413],[105.67684,36.83005],[105.69311,36.84628],[105.6852,36.85974],[105.6938,36.86605],[105.71049,36.8351],[105.74046,36.81779],[105.75543,36.83561],[105.76911,36.82884],[105.78885,36.8386],[105.8145,36.81809],[105.817,36.80021],[105.82898,36.79758],[105.83668,36.81086],[105.84978,36.81466],[105.85099,36.83305],[105.86269,36.82789],[105.85486,36.83826],[105.87436,36.83711],[105.88041,36.85115],[105.87473,36.85647],[105.9033,36.87776],[105.90165,36.88782],[105.87408,36.90833],[105.90337,36.90931],[105.9015,36.91684],[105.91671,36.92323],[105.91818,36.93301],[105.94237,36.92252],[105.94355,36.91235],[105.95262,36.91822],[105.96011,36.9091],[105.94968,36.904],[105.96835,36.89573],[105.96244,36.8821],[105.9833,36.87817],[105.97626,36.87218],[105.98175,36.84975],[105.96781,36.83881],[105.98726,36.84693],[105.98499,36.83982],[106.02012,36.82366],[106.03208,36.8254],[106.02212,36.81811],[106.03362,36.82038],[106.02343,36.81327],[106.03687,36.80325],[106.0246,36.79872],[106.06064,36.77268],[106.06339,36.73885],[106.07294,36.72078],[106.10305,36.69632],[106.10409,36.6693],[106.11882,36.65611],[106.11149,36.65156],[106.11283,36.63983],[106.12924,36.6444],[106.13413,36.62938],[106.15068,36.6226],[106.15139,36.6126],[106.1389,36.60672],[106.148,36.60003],[106.13862,36.59104],[106.14655,36.57802],[106.16424,36.57783],[106.1877,36.59061],[106.20816,36.58318],[106.21021,36.60935],[106.24612,36.60625],[106.24369,36.61266],[106.26152,36.61785],[106.26145,36.62568],[106.27254,36.6043],[106.28772,36.60989],[106.3058,36.59277],[106.36034,36.60944],[106.37345,36.60706],[106.37562,36.62185],[106.41428,36.62357],[106.4263,36.6362],[106.44066,36.62481]]]}},{"type":"Feature","id":"CTAMAP-2016-COUNTY-0673","properties":{"map_level":"county","source_name":"贺兰县","source_code":"640122","county_type":"县","prefecture_name":"银川市","prefecture_code":"640100","prefecture_type":"地级市","parent_entity_id":"CNUR-000321","parent_year_end_name":"银川市","province_name":"宁夏回族自治区","province_code":"640000","snapshot_year":2016,"panel_year":2015,"link_status":"parent_linked","former_name":"","note":""},"geometry":{"type":"Polygon","coordinates":[[[106.00227,38.87652],[106.04824,38.86639],[106.09112,38.84078],[106.12103,38.83866],[106.13039,38.81764],[106.19184,38.81015],[106.19363,38.80149],[106.22525,38.81409],[106.234,38.79904],[106.25335,38.79942],[106.27692,38.77931],[106.31187,38.78688],[106.30438,38.77572],[106.31623,38.77011],[106.37731,38.77426],[106.37,38.75427],[106.39274,38.75179],[106.39679,38.72143],[106.43313,38.72029],[106.43605,38.7131],[106.42687,38.70395],[106.43659,38.6907],[106.45339,38.69767],[106.45776,38.70968],[106.55533,38.6828],[106.5979,38.68219],[106.5823,38.65097],[106.54062,38.6252],[106.52626,38.57434],[106.5296,38.54821],[106.5433,38.52448],[106.4374,38.5218],[106.44462,38.50709],[106.44148,38.49336],[106.44866,38.48837],[106.43705,38.46662],[106.44625,38.46119],[106.43304,38.46505],[106.428,38.44809],[106.4177,38.45118],[106.4175,38.45885],[106.36645,38.45448],[106.38293,38.47698],[106.35245,38.47959],[106.35696,38.51427],[106.30793,38.52232],[106.28826,38.50527],[106.25716,38.50022],[106.29445,38.53105],[106.29594,38.54534],[106.26349,38.57952],[106.268,38.59678],[106.25347,38.60562],[106.23681,38.59541],[106.2197,38.61375],[106.22949,38.62037],[106.21798,38.64141],[106.23806,38.68686],[106.1831,38.67959],[106.14913,38.68841],[106.1476,38.68114],[106.13683,38.68355],[106.11557,38.64505],[106.08064,38.66181],[105.97367,38.67136],[105.93016,38.70058],[105.88149,38.71363],[105.90493,38.73803],[105.89291,38.78706],[105.93231,38.8015],[105.93913,38.82062],[105.98894,38.85473],[106.00227,38.87652]]]}},{"type":"Feature","id":"CTAMAP-2016-COUNTY-0698","properties":{"map_level":"county","source_name":"红寺堡区","source_code":"640303","county_type":"市辖区","prefecture_name":"吴忠市","prefecture_code":"640300","prefecture_type":"地级市","parent_entity_id":"CNUR-000323","parent_year_end_name":"吴忠市","province_name":"宁夏回族自治区","province_code":"640000","snapshot_year":2016,"panel_year":2015,"link_status":"parent_linked","former_name":"","note":"2009年拆分吴忠市，设立红寺堡区"},"geometry":{"type":"Polygon","coordinates":[[[106.52632,37.6023],[106.58824,37.58376],[106.63191,37.53062],[106.65466,37.49061],[106.63935,37.43809],[106.64296,37.41147],[106.67639,37.40832],[106.70514,37.34327],[106.60006,37.33458],[106.57401,37.32815],[106.57474,37.31878],[106.51479,37.32091],[106.49496,37.32777],[106.49427,37.34203],[106.48101,37.35357],[106.47781,37.38438],[106.46171,37.40065],[106.45663,37.39753],[106.46236,37.387],[106.43741,37.36828],[106.448,37.35958],[106.4184,37.35306],[106.41222,37.36061],[106.33362,37.3285],[106.28737,37.36202],[106.28524,37.35649],[106.25935,37.36578],[106.26638,37.35439],[106.25724,37.35546],[106.25721,37.34851],[106.24767,37.35272],[106.24697,37.34364],[106.25556,37.34145],[106.24446,37.3365],[106.24194,37.32257],[106.25373,37.28282],[106.26612,37.27677],[106.26206,37.24362],[106.28225,37.24337],[106.30794,37.23091],[106.31042,37.20748],[106.34249,37.12715],[106.31473,37.11667],[106.28983,37.11931],[106.26789,37.10234],[106.24751,37.10636],[106.24326,37.09832],[106.25763,37.07386],[106.24687,37.08218],[106.24509,37.07477],[106.2252,37.09711],[106.16734,37.09294],[106.09077,37.11859],[106.06314,37.1442],[106.05982,37.16961],[106.04346,37.17687],[106.00171,37.17672],[105.97985,37.16103],[105.95978,37.16738],[105.91128,37.16358],[105.87423,37.17772],[105.81293,37.18059],[105.79419,37.17488],[105.7878,37.19013],[105.77182,37.20112],[105.77907,37.2124],[105.76718,37.21574],[105.76793,37.233],[105.75246,37.24326],[105.73001,37.289],[105.7678,37.29942],[105.79506,37.31786],[105.92338,37.30764],[105.93709,37.31983],[105.94248,37.32923],[105.92309,37.34689],[105.86624,37.36416],[105.83832,37.38234],[105.84407,37.39621],[105.88025,37.39282],[105.87996,37.43497],[105.88201,37.42443],[105.90962,37.43128],[105.93068,37.42703],[105.93257,37.44578],[105.9794,37.45102],[105.95043,37.4722],[106.00127,37.47658],[106.03046,37.51782],[106.07098,37.52715],[106.0547,37.54581],[106.02596,37.55613],[105.99849,37.59373],[106.00197,37.60963],[106.04868,37.60942],[106.07068,37.62713],[106.12685,37.61518],[106.17038,37.61536],[106.21809,37.5994],[106.2575,37.60138],[106.27087,37.6137],[106.28278,37.6098],[106.29641,37.62029],[106.31928,37.60999],[106.40466,37.60924],[106.42644,37.61784],[106.49591,37.59287],[106.52632,37.6023]]]}},{"type":"Feature","id":"CTAMAP-2016-COUNTY-0796","properties":{"map_level":"county","source_name":"惠农区","source_code":"640205","county_type":"市辖区","prefecture_name":"石嘴山市","prefecture_code":"640200","prefecture_type":"地级市","parent_entity_id":"CNUR-000322","parent_year_end_name":"石嘴山市","province_name":"宁夏回族自治区","province_code":"640000","snapshot_year":2016,"panel_year":2015,"link_status":"parent_linked","former_name":"惠农县和石嘴山区","note":"2003年撤销惠农县和石嘴山区，设立惠农区"},"geometry":{"type":"Polygon","coordinates":[[[106.86,39.09143],[106.86458,39.0576],[106.83742,38.98917],[106.79558,39.00165],[106.79127,39.01009],[106.76165,39.02177],[106.77558,39.0355],[106.77454,39.05126],[106.78409,39.06702],[106.7766,39.07818],[106.76574,39.0757],[106.74493,39.08663],[106.73987,39.07257],[106.70863,39.07811],[106.69451,39.06492],[106.69476,39.05324],[106.67087,39.06946],[106.66839,39.06271],[106.65322,39.0717],[106.64169,39.06526],[106.63192,39.03534],[106.61745,39.03042],[106.58427,39.05769],[106.56826,39.02008],[106.55782,39.01292],[106.54325,39.01634],[106.51333,38.97801],[106.48151,38.98192],[106.46276,39.01592],[106.47449,39.02547],[106.47586,39.05019],[106.43322,39.07484],[106.42495,39.09071],[106.46337,39.13204],[106.47112,39.16287],[106.45465,39.17631],[106.46111,39.20132],[106.52567,39.30004],[106.59829,39.37461],[106.64089,39.35649],[106.6694,39.35374],[106.74579,39.38778],[106.74992,39.37337],[106.77862,39.37038],[106.79445,39.34752],[106.78969,39.33349],[106.80232,39.3167],[106.80185,39.27644],[106.78634,39.24404],[106.82878,39.18666],[106.83442,39.15143],[106.86,39.09143]]]}},{"type":"Feature","id":"CTAMAP-2016-COUNTY-0916","properties":{"map_level":"county","source_name":"金凤区","source_code":"640106","county_type":"市辖区","prefecture_name":"银川市","prefecture_code":"640100","prefecture_type":"地级市","parent_entity_id":"CNUR-000321","parent_year_end_name":"银川市","province_name":"宁夏回族自治区","province_code":"640000","snapshot_year":2016,"panel_year":2015,"link_status":"parent_linked","former_name":"新城区","note":"2002年撤销新城区，设立金凤区"},"geometry":{"type":"Polygon","coordinates":[[[106.268,38.59678],[106.26349,38.57952],[106.29603,38.54208],[106.27985,38.51619],[106.26071,38.50667],[106.2484,38.48142],[106.26986,38.41406],[106.26486,38.40712],[106.21158,38.40622],[106.20602,38.39248],[106.16826,38.38873],[106.16119,38.36451],[106.12707,38.3179],[106.10564,38.32653],[106.07847,38.2826],[106.06388,38.30632],[106.05075,38.31211],[106.16525,38.47781],[106.19215,38.58141],[106.21798,38.64141],[106.22949,38.62037],[106.2197,38.61375],[106.23681,38.59541],[106.25347,38.60562],[106.268,38.59678]]]}},{"type":"Feature","id":"CTAMAP-2016-COUNTY-0952","properties":{"map_level":"county","source_name":"泾源县","source_code":"640424","county_type":"县","prefecture_name":"固原市","prefecture_code":"640400","prefecture_type":"地级市","parent_entity_id":"CNUR-000324","parent_year_end_name":"固原市","province_name":"宁夏回族自治区","province_code":"640000","snapshot_year":2016,"panel_year":2015,"link_status":"parent_linked","former_name":"","note":""},"geometry":{"type":"Polygon","coordinates":[[[106.31197,35.77411],[106.31849,35.75414],[106.30899,35.7504],[106.30833,35.73999],[106.32498,35.7232],[106.34524,35.71665],[106.3472,35.69965],[106.35915,35.70296],[106.37181,35.72579],[106.38782,35.73196],[106.39246,35.72381],[106.4384,35.72748],[106.44386,35.71812],[106.46026,35.71645],[106.42982,35.68888],[106.43031,35.67633],[106.43459,35.66036],[106.45587,35.64418],[106.44885,35.63229],[106.46156,35.62068],[106.47678,35.57744],[106.45418,35.57633],[106.44669,35.53641],[106.43547,35.52469],[106.4592,35.50209],[106.46111,35.48146],[106.48488,35.48443],[106.47799,35.44956],[106.50046,35.41799],[106.48934,35.39209],[106.50142,35.36014],[106.48612,35.34764],[106.48446,35.32784],[106.46947,35.31183],[106.43257,35.29896],[106.41148,35.27921],[106.36302,35.27061],[106.37108,35.25534],[106.35869,35.2385],[106.34074,35.25247],[106.32942,35.25215],[106.31452,35.2677],[106.31641,35.27828],[106.28448,35.29876],[106.27157,35.32883],[106.25139,35.33499],[106.23877,35.35485],[106.24705,35.36904],[106.23438,35.4138],[106.26086,35.42806],[106.2626,35.43851],[106.25694,35.45366],[106.2397,35.46048],[106.238,35.48026],[106.20727,35.48423],[106.20341,35.53504],[106.23756,35.56174],[106.20338,35.61736],[106.20365,35.6249],[106.22059,35.62965],[106.22186,35.64392],[106.1995,35.66922],[106.20397,35.67959],[106.18589,35.72639],[106.19044,35.74486],[106.18357,35.75848],[106.19591,35.7698],[106.24137,35.77988],[106.25953,35.75904],[106.288,35.79288],[106.31197,35.77411]]]}},{"type":"Feature","id":"CTAMAP-2016-COUNTY-1109","properties":{"map_level":"county","source_name":"利通区","source_code":"640302","county_type":"市辖区","prefecture_name":"吴忠市","prefecture_code":"640300","prefecture_type":"地级市","parent_entity_id":"CNUR-000323","parent_year_end_name":"吴忠市","province_name":"宁夏回族自治区","province_code":"640000","snapshot_year":2016,"panel_year":2015,"link_status":"parent_linked","former_name":"","note":""},"geometry":{"type":"Polygon","coordinates":[[[106.54962,37.60005],[106.52632,37.6023],[106.49591,37.59287],[106.42644,37.61784],[106.40466,37.60924],[106.31928,37.60999],[106.29641,37.62029],[106.28278,37.6098],[106.27087,37.6137],[106.2575,37.60138],[106.21809,37.5994],[106.17038,37.61536],[106.07261,37.62233],[106.1014,37.6793],[106.09933,37.70938],[106.12824,37.85547],[106.11689,37.8679],[106.09982,37.87012],[106.10284,37.88354],[106.11905,37.89453],[106.11894,37.911],[106.05547,37.92907],[106.04937,37.94956],[106.07822,37.95522],[106.08696,37.96843],[106.11254,37.98211],[106.13435,37.9844],[106.14697,38.00359],[106.17679,38.0167],[106.19497,38.04402],[106.20173,38.07202],[106.22234,38.05925],[106.23385,38.03597],[106.25142,38.02495],[106.26828,37.98687],[106.28004,37.99385],[106.3087,37.96616],[106.29192,37.95021],[106.3002,37.94188],[106.33094,37.94233],[106.33181,37.92532],[106.35328,37.92361],[106.35426,37.88602],[106.34154,37.87183],[106.27909,37.86895],[106.27944,37.83501],[106.29909,37.81393],[106.35344,37.79686],[106.38743,37.75691],[106.42591,37.7368],[106.44731,37.70831],[106.47176,37.69695],[106.51153,37.66021],[106.52854,37.6227],[106.54962,37.60005]]]}},{"type":"Feature","id":"CTAMAP-2016-COUNTY-1191","properties":{"map_level":"county","source_name":"灵武市","source_code":"640181","county_type":"县级市","prefecture_name":"银川市","prefecture_code":"640100","prefecture_type":"地级市","parent_entity_id":"CNUR-000321","parent_year_end_name":"银川市","province_name":"宁夏回族自治区","province_code":"640000","snapshot_year":2016,"panel_year":2015,"link_status":"parent_linked","former_name":"","note":""},"geometry":{"type":"Polygon","coordinates":[[[106.46503,38.33701],[106.48461,38.30447],[106.51531,38.29517],[106.54985,38.26248],[106.61971,38.23266],[106.72382,38.20293],[106.75522,38.17775],[106.82293,38.15749],[106.80924,38.1446],[106.8081,38.11936],[106.85312,38.04809],[106.82632,38.03368],[106.78153,38.04011],[106.76256,38.0086],[106.75959,37.97881],[106.77813,37.93815],[106.81666,37.94469],[106.81872,37.87274],[106.83025,37.85852],[106.84081,37.86602],[106.88117,37.863],[106.88067,37.84992],[106.85667,37.79599],[106.82648,37.76022],[106.76505,37.73846],[106.76954,37.63608],[106.70935,37.63941],[106.64442,37.65509],[106.63931,37.64197],[106.58718,37.62456],[106.56765,37.59323],[106.54898,37.60029],[106.52854,37.6227],[106.51153,37.66021],[106.47176,37.69695],[106.44731,37.70831],[106.42591,37.7368],[106.38743,37.75691],[106.35344,37.79686],[106.29909,37.81393],[106.27944,37.83501],[106.27909,37.86895],[106.34154,37.87183],[106.3581,37.89391],[106.35328,37.92361],[106.33181,37.92532],[106.33094,37.94233],[106.30002,37.94198],[106.29192,37.95021],[106.3087,37.96616],[106.28004,37.99385],[106.26828,37.98687],[106.25142,38.02495],[106.23385,38.03597],[106.22552,38.05658],[106.20173,38.07202],[106.22548,38.10399],[106.21521,38.12841],[106.24177,38.17253],[106.23654,38.19398],[106.26893,38.22514],[106.27827,38.248],[106.33072,38.28849],[106.33475,38.3182],[106.35869,38.32483],[106.36776,38.33633],[106.38038,38.33689],[106.40799,38.35623],[106.42182,38.3449],[106.4161,38.33923],[106.43416,38.32657],[106.43117,38.30219],[106.46247,38.29398],[106.46503,38.33701]]]}},{"type":"Feature","id":"CTAMAP-2016-COUNTY-1243","properties":{"map_level":"county","source_name":"隆德县","source_code":"640423","county_type":"县","prefecture_name":"固原市","prefecture_code":"640400","prefecture_type":"地级市","parent_entity_id":"CNUR-000324","parent_year_end_name":"固原市","province_name":"宁夏回族自治区","province_code":"640000","snapshot_year":2016,"panel_year":2015,"link_status":"parent_linked","former_name":"","note":""},"geometry":{"type":"MultiPolygon","coordinates":[[[[106.18534,35.7614],[106.19109,35.70347],[106.20397,35.67959],[106.1995,35.66922],[106.22186,35.64392],[106.22059,35.62965],[106.20365,35.6249],[106.20338,35.61736],[106.23756,35.56174],[106.20341,35.53504],[106.20727,35.48423],[106.23836,35.47989],[106.2397,35.46048],[106.25837,35.45091],[106.25761,35.42541],[106.2332,35.4104],[106.19911,35.40949],[106.18744,35.41229],[106.1688,35.43737],[106.16241,35.42061],[106.12542,35.39641],[106.11908,35.37444],[106.10875,35.37311],[106.10932,35.36222],[106.09781,35.38016],[106.10205,35.38788],[106.0935,35.39086],[106.09886,35.40164],[106.08398,35.40291],[106.07349,35.44765],[106.06425,35.45541],[106.06888,35.46972],[106.06261,35.49102],[106.0835,35.48971],[106.09617,35.50107],[106.09101,35.51037],[106.07652,35.51194],[106.06705,35.49242],[106.06189,35.50464],[106.0174,35.49494],[106.00621,35.50143],[106.01261,35.51198],[106.00641,35.52632],[105.99883,35.5228],[105.95423,35.5382],[105.92234,35.53526],[105.8861,35.5486],[105.87535,35.53832],[105.86553,35.54324],[105.84505,35.49228],[105.83164,35.49521],[105.83191,35.53824],[105.81949,35.54345],[105.81192,35.57661],[105.84539,35.59788],[105.84331,35.60616],[105.85897,35.62741],[105.84618,35.64995],[105.86639,35.67602],[105.88052,35.66836],[105.88567,35.67434],[105.92532,35.66769],[105.9394,35.67664],[105.94526,35.69702],[105.96988,35.71467],[106.04487,35.70119],[106.0522,35.7068],[106.07553,35.69506],[106.06783,35.72235],[106.02384,35.73386],[106.01959,35.76495],[106.01191,35.76942],[106.01947,35.78616],[106.03052,35.78124],[106.02755,35.77099],[106.03439,35.76863],[106.04181,35.78304],[106.0857,35.7614],[106.1085,35.76971],[106.1409,35.76289],[106.17724,35.7711],[106.18534,35.7614]]],[[[106.04488,35.46096],[106.04775,35.44884],[106.02717,35.47104],[106.00688,35.45618],[106.00123,35.44035],[105.99266,35.44947],[105.98766,35.43807],[105.96325,35.42689],[105.95568,35.43417],[105.94192,35.42303],[105.9264,35.42719],[105.89346,35.41353],[105.8853,35.43897],[105.8922,35.45279],[105.92275,35.45175],[106.03075,35.48932],[106.0542,35.48971],[106.04488,35.46096]]],[[[106.06218,35.43728],[106.07094,35.43153],[106.06804,35.42064],[106.05912,35.42783],[106.06218,35.43728]]]]}},{"type":"Feature","id":"CTAMAP-2016-COUNTY-1494","properties":{"map_level":"county","source_name":"彭阳县","source_code":"640425","county_type":"县","prefecture_name":"固原市","prefecture_code":"640400","prefecture_type":"地级市","parent_entity_id":"CNUR-000324","parent_year_end_name":"固原市","province_name":"宁夏回族自治区","province_code":"640000","snapshot_year":2016,"panel_year":2015,"link_status":"parent_linked","former_name":"","note":""},"geometry":{"type":"Polygon","coordinates":[[[106.82967,36.22949],[106.84004,36.20285],[106.85357,36.20701],[106.86466,36.1832],[106.88411,36.16673],[106.89467,36.16914],[106.90508,36.13122],[106.92608,36.13873],[106.92486,36.11344],[106.9358,36.12688],[106.94223,36.1223],[106.93108,36.10756],[106.95306,36.09211],[106.95488,36.07577],[106.93474,36.06393],[106.93769,36.03285],[106.92621,36.02924],[106.92369,36.01586],[106.9446,36.0048],[106.94536,35.99155],[106.91423,35.96533],[106.91142,35.94069],[106.89907,35.95193],[106.91014,35.96179],[106.90713,35.96729],[106.89097,35.96422],[106.89423,35.97253],[106.88537,35.97172],[106.90391,35.93813],[106.91426,35.93712],[106.92492,35.95261],[106.94144,35.94102],[106.92465,35.9255],[106.9084,35.93269],[106.90286,35.91082],[106.88856,35.91786],[106.87568,35.91342],[106.8476,35.88724],[106.86844,35.87835],[106.87461,35.88287],[106.87945,35.8667],[106.8677,35.87545],[106.86336,35.86852],[106.87175,35.85559],[106.89573,35.82715],[106.90991,35.83017],[106.92503,35.80768],[106.9174,35.80225],[106.88737,35.81062],[106.91088,35.79506],[106.90736,35.76876],[106.89764,35.7754],[106.8941,35.7631],[106.88416,35.76253],[106.8847,35.77577],[106.87016,35.77937],[106.85994,35.73641],[106.84743,35.74526],[106.81664,35.74496],[106.81702,35.71959],[106.80041,35.70897],[106.76129,35.72959],[106.73532,35.70204],[106.74661,35.69756],[106.74819,35.68859],[106.72633,35.68813],[106.69841,35.71066],[106.69255,35.72445],[106.67668,35.73142],[106.66437,35.71794],[106.66917,35.70066],[106.62607,35.71499],[106.61487,35.74416],[106.60672,35.73853],[106.59839,35.74829],[106.59261,35.74649],[106.59268,35.72799],[106.56015,35.74025],[106.52167,35.74234],[106.5177,35.72548],[106.5132,35.73485],[106.49156,35.73752],[106.48333,35.72295],[106.46026,35.71645],[106.44386,35.71812],[106.4384,35.72748],[106.39246,35.72381],[106.38782,35.73196],[106.37181,35.72579],[106.35915,35.70296],[106.3462,35.70047],[106.34524,35.71665],[106.32498,35.7232],[106.30833,35.73999],[106.30899,35.7504],[106.31849,35.75414],[106.31172,35.76792],[106.31797,35.78488],[106.30468,35.801],[106.30656,35.81645],[106.30235,35.82183],[106.28091,35.80824],[106.26004,35.81761],[106.25909,35.82716],[106.28081,35.85168],[106.29068,35.85046],[106.29548,35.87401],[106.32061,35.8582],[106.34474,35.86208],[106.31626,35.90311],[106.32427,35.92988],[106.37704,35.91528],[106.40894,35.91764],[106.40864,35.93102],[106.45322,35.95703],[106.49205,35.93496],[106.49933,35.94965],[106.52186,35.94879],[106.53488,35.9623],[106.54166,35.98628],[106.50297,36.02545],[106.49089,36.02182],[106.48269,36.05116],[106.45805,36.07832],[106.475,36.12022],[106.47314,36.19659],[106.50957,36.25643],[106.49952,36.26878],[106.5117,36.27187],[106.53663,36.25404],[106.55399,36.26362],[106.55546,36.29233],[106.58025,36.28363],[106.59031,36.27063],[106.60087,36.29609],[106.60743,36.27293],[106.63355,36.26587],[106.63952,36.28518],[106.64931,36.25728],[106.65312,36.26733],[106.65976,36.26299],[106.68033,36.27385],[106.69767,36.2396],[106.71174,36.23203],[106.73161,36.23733],[106.7588,36.21508],[106.76823,36.21275],[106.76984,36.22251],[106.78447,36.22651],[106.80353,36.21105],[106.81362,36.22236],[106.82345,36.21549],[106.82967,36.22949]]]}},{"type":"Feature","id":"CTAMAP-2016-COUNTY-1521","properties":{"map_level":"county","source_name":"平罗县","source_code":"640221","county_type":"县","prefecture_name":"石嘴山市","prefecture_code":"640200","prefecture_type":"地级市","parent_entity_id":"CNUR-000322","parent_year_end_name":"石嘴山市","province_name":"宁夏回族自治区","province_code":"640000","snapshot_year":2016,"panel_year":2015,"link_status":"parent_linked","former_name":"","note":""},"geometry":{"type":"Polygon","coordinates":[[[106.96628,39.05273],[106.95373,38.94434],[106.82272,38.83878],[106.75223,38.74934],[106.69986,38.71408],[106.65922,38.6008],[106.63893,38.61784],[106.63376,38.6433],[106.58513,38.65482],[106.5979,38.68219],[106.55533,38.6828],[106.45776,38.70968],[106.45339,38.69767],[106.43659,38.6907],[106.42687,38.70395],[106.43605,38.7131],[106.43313,38.72029],[106.39679,38.72143],[106.39274,38.75179],[106.37,38.75427],[106.37731,38.77426],[106.31623,38.77011],[106.30438,38.77572],[106.31187,38.78688],[106.27692,38.77931],[106.25335,38.79942],[106.234,38.79904],[106.22525,38.81409],[106.19363,38.80149],[106.19184,38.81015],[106.13039,38.81764],[106.12103,38.83866],[106.09112,38.84078],[106.04048,38.8686],[105.97993,38.8741],[105.96458,38.89419],[105.99868,38.9233],[105.99677,38.93689],[106.02559,38.95817],[106.05494,38.96677],[106.06073,38.98508],[106.08377,39.00477],[106.085,39.01677],[106.07139,39.02869],[106.08707,39.07003],[106.11795,39.06035],[106.12162,39.0326],[106.24552,38.9534],[106.24919,38.93484],[106.27156,38.90583],[106.35382,38.8659],[106.36026,38.85416],[106.48151,38.98192],[106.51333,38.97801],[106.54325,39.01634],[106.55782,39.01292],[106.56826,39.02008],[106.58427,39.05769],[106.61745,39.03042],[106.63192,39.03534],[106.64169,39.06526],[106.65322,39.0717],[106.66839,39.06271],[106.67087,39.06946],[106.69476,39.05324],[106.69451,39.06492],[106.70863,39.07811],[106.7383,39.07229],[106.74226,39.08545],[106.75584,39.08385],[106.76574,39.0757],[106.7766,39.07818],[106.78409,39.06702],[106.77454,39.05126],[106.77558,39.0355],[106.76165,39.02177],[106.79127,39.01009],[106.79558,39.00165],[106.83742,38.98917],[106.86458,39.0576],[106.86,39.09143],[106.92641,39.07632],[106.96628,39.05273]]]}},{"type":"Feature","id":"CTAMAP-2016-COUNTY-1619","properties":{"map_level":"county","source_name":"青铜峡市","source_code":"640381","county_type":"县级市","prefecture_name":"吴忠市","prefecture_code":"640300","prefecture_type":"地级市","parent_entity_id":"CNUR-000323","parent_year_end_name":"吴忠市","province_name":"宁夏回族自治区","province_code":"640000","snapshot_year":2016,"panel_year":2015,"link_status":"parent_linked","former_name":"","note":""},"geometry":{"type":"Polygon","coordinates":[[[106.21614,38.12972],[106.22548,38.10399],[106.19522,38.06451],[106.19497,38.04402],[106.17679,38.0167],[106.14697,38.00359],[106.13435,37.9844],[106.11254,37.98211],[106.08696,37.96843],[106.07822,37.95522],[106.04839,37.94786],[106.05547,37.92907],[106.11894,37.911],[106.11905,37.89453],[106.10284,37.88354],[106.09982,37.87012],[106.11689,37.8679],[106.12824,37.85547],[106.09933,37.70938],[106.10126,37.67875],[106.08457,37.64143],[106.05921,37.61481],[106.01684,37.60885],[106.0204,37.64548],[105.9759,37.65892],[105.94973,37.65672],[105.92735,37.66961],[105.92596,37.65123],[105.90168,37.61327],[105.87823,37.61495],[105.88984,37.62834],[105.87693,37.6591],[105.88498,37.67884],[105.88474,37.71382],[105.89801,37.72453],[105.89695,37.73893],[105.84858,37.73917],[105.83986,37.72802],[105.78085,37.73834],[105.7555,37.72684],[105.71239,37.73142],[105.66404,37.72159],[105.64472,37.70958],[105.59692,37.70655],[105.61231,37.71846],[105.61862,37.77807],[105.63791,37.78053],[105.66021,37.76891],[105.73874,37.79878],[105.76822,37.79439],[105.76923,37.81978],[105.80242,37.86084],[105.79211,37.90941],[105.79984,37.93804],[105.79526,37.95372],[105.84063,38.00431],[105.7778,38.07861],[105.76105,38.12136],[105.77704,38.21047],[105.82222,38.22109],[105.84876,38.26427],[105.88916,38.25959],[105.90717,38.24225],[105.96645,38.22215],[105.93527,38.16022],[105.95666,38.14697],[105.9618,38.14564],[105.97646,38.17971],[106.00123,38.17225],[106.00584,38.18612],[106.03654,38.17531],[106.07398,38.21126],[106.07917,38.20053],[106.07193,38.18352],[106.10328,38.18362],[106.1046,38.17491],[106.121,38.17059],[106.12257,38.14453],[106.14925,38.15997],[106.21614,38.12972]]]}},{"type":"Feature","id":"CTAMAP-2016-COUNTY-1728","properties":{"map_level":"county","source_name":"沙坡头区","source_code":"640502","county_type":"市辖区","prefecture_name":"中卫市","prefecture_code":"640500","prefecture_type":"地级市","parent_entity_id":"CNUR-000325","parent_year_end_name":"中卫市","province_name":"宁夏回族自治区","province_code":"640000","snapshot_year":2016,"panel_year":2015,"link_status":"parent_linked","former_name":"","note":""},"geometry":{"type":"Polygon","coordinates":[[[105.44547,37.69983],[105.43711,37.68572],[105.46185,37.6723],[105.46402,37.65679],[105.45516,37.63844],[105.46596,37.62003],[105.45963,37.60935],[105.46695,37.57926],[105.45008,37.57325],[105.45696,37.56544],[105.44211,37.55005],[105.45571,37.52527],[105.45336,37.50046],[105.46965,37.49474],[105.50439,37.50155],[105.54354,37.49288],[105.53214,37.48052],[105.5422,37.46611],[105.52981,37.45155],[105.51913,37.45323],[105.52051,37.43688],[105.49357,37.43705],[105.49561,37.39788],[105.52805,37.38754],[105.58404,37.34404],[105.58487,37.32973],[105.57002,37.31462],[105.5776,37.29011],[105.54557,37.23671],[105.52444,37.22439],[105.48545,37.14952],[105.46919,37.14141],[105.45682,37.12063],[105.42385,37.11051],[105.39536,37.12202],[105.36709,37.11488],[105.3485,37.09892],[105.31879,37.10384],[105.28055,37.06003],[105.26886,37.05882],[105.28469,37.02176],[105.30505,37.02575],[105.3215,36.98663],[105.35497,36.97226],[105.36411,36.9588],[105.37894,36.95852],[105.36818,36.92474],[105.35213,36.9068],[105.3617,36.89226],[105.38719,36.88393],[105.41668,36.90528],[105.4656,36.88011],[105.49669,36.87822],[105.50047,36.89595],[105.51624,36.89687],[105.51099,36.90308],[105.53262,36.90013],[105.55074,36.87048],[105.58687,36.8593],[105.59791,36.83756],[105.61993,36.83519],[105.65068,36.845],[105.66505,36.82903],[105.67978,36.8294],[105.68696,36.81413],[105.67596,36.81144],[105.67085,36.79431],[105.62853,36.78708],[105.61827,36.77131],[105.58091,36.79087],[105.563,36.79024],[105.55004,36.77705],[105.56362,36.76002],[105.53373,36.74901],[105.51681,36.75283],[105.51106,36.76336],[105.50286,36.76069],[105.45423,36.72869],[105.44839,36.71006],[105.40269,36.72504],[105.39391,36.71084],[105.40239,36.706],[105.37173,36.69355],[105.35074,36.6669],[105.34125,36.67969],[105.31886,36.681],[105.3058,36.71754],[105.27897,36.68234],[105.19961,36.70586],[105.21271,36.72922],[105.23542,36.73245],[105.23655,36.74135],[105.2679,36.73901],[105.27373,36.75286],[105.31079,36.74161],[105.33756,36.76449],[105.32903,36.80564],[105.29728,36.82241],[105.28852,36.8356],[105.29382,36.84336],[105.27333,36.8528],[105.27551,36.86943],[105.23661,36.89662],[105.22291,36.88606],[105.22068,36.89389],[105.20278,36.8976],[105.18754,36.88608],[105.17511,36.89213],[105.18027,36.90306],[105.17377,36.92892],[105.18303,36.92558],[105.18227,36.94145],[105.16529,36.96696],[105.16156,36.99463],[105.1072,36.99975],[105.05434,37.02253],[105.02777,37.00653],[105.00762,37.01663],[105.01019,37.03158],[105.00471,37.03378],[104.98501,37.03839],[104.96249,37.03119],[104.95131,37.03969],[104.95115,37.07822],[104.9131,37.09452],[104.91703,37.11124],[104.89517,37.12744],[104.88655,37.15451],[104.85532,37.18264],[104.85516,37.21198],[104.82414,37.22757],[104.80251,37.23455],[104.79036,37.22803],[104.77174,37.24632],[104.76434,37.23713],[104.74934,37.23695],[104.7158,37.20727],[104.67977,37.20256],[104.65971,37.20839],[104.63551,37.20144],[104.60703,37.22228],[104.59824,37.25799],[104.60884,37.27752],[104.62222,37.27884],[104.61807,37.29611],[104.65013,37.29056],[104.66751,37.3154],[104.71076,37.32895],[104.71492,37.33727],[104.71456,37.34915],[104.69815,37.3445],[104.66466,37.35592],[104.65747,37.37425],[104.67575,37.40843],[104.6347,37.41972],[104.54175,37.42292],[104.51706,37.43456],[104.49829,37.42117],[104.45713,37.41937],[104.44599,37.42334],[104.43357,37.44587],[104.36189,37.41756],[104.29474,37.41356],[104.28429,37.42095],[104.30505,37.44323],[104.33768,37.44383],[104.36796,37.46112],[104.40463,37.46432],[104.41657,37.5111],[104.43011,37.51464],[104.80192,37.5386],[104.86395,37.56636],[105.02144,37.57926],[105.17023,37.66343],[105.23329,37.67194],[105.35853,37.7139],[105.44547,37.69983]]]}},{"type":"Feature","id":"CTAMAP-2016-COUNTY-1976","properties":{"map_level":"county","source_name":"同心县","source_code":"640324","county_type":"县","prefecture_name":"吴忠市","prefecture_code":"640300","prefecture_type":"地级市","parent_entity_id":"CNUR-000323","parent_year_end_name":"吴忠市","province_name":"宁夏回族自治区","province_code":"640000","snapshot_year":2016,"panel_year":2015,"link_status":"parent_linked","former_name":"","note":""},"geometry":{"type":"Polygon","coordinates":[[[106.62442,37.33767],[106.62305,37.32086],[106.64725,37.29577],[106.69249,37.29056],[106.69795,37.2774],[106.69094,37.2698],[106.69042,37.24381],[106.66693,37.23619],[106.65967,37.2183],[106.64718,37.21098],[106.64365,37.18963],[106.60925,37.16772],[106.61452,37.13425],[106.6011,37.12716],[106.61623,37.09564],[106.63654,37.07494],[106.64544,37.0366],[106.66244,37.01716],[106.65356,37.00756],[106.63726,37.01178],[106.63895,36.96255],[106.61855,36.95922],[106.59083,36.96898],[106.5871,36.94034],[106.57932,36.9355],[106.56816,36.94051],[106.56997,36.95276],[106.54228,36.98209],[106.53461,36.97857],[106.54783,36.95535],[106.54674,36.93922],[106.57551,36.93056],[106.60463,36.90975],[106.59612,36.89507],[106.60496,36.88107],[106.62193,36.89245],[106.63583,36.88223],[106.6348,36.86777],[106.62257,36.86194],[106.6382,36.85301],[106.63626,36.83379],[106.6539,36.8115],[106.6376,36.8027],[106.63309,36.7605],[106.62298,36.75279],[106.62765,36.73533],[106.64144,36.72347],[106.62808,36.72332],[106.61172,36.73786],[106.60714,36.73034],[106.59147,36.74636],[106.57268,36.74619],[106.5647,36.73248],[106.55024,36.738],[106.51033,36.71592],[106.52637,36.68973],[106.50649,36.69308],[106.48656,36.68548],[106.48619,36.62813],[106.46334,36.62012],[106.4359,36.62549],[106.4263,36.6362],[106.41428,36.62357],[106.37562,36.62185],[106.37371,36.60716],[106.35852,36.609],[106.31894,36.59302],[106.30514,36.5931],[106.28772,36.60989],[106.27277,36.60414],[106.26145,36.62568],[106.26152,36.61785],[106.24369,36.61266],[106.24612,36.60625],[106.21021,36.60935],[106.20816,36.58318],[106.1877,36.59061],[106.16424,36.57783],[106.14655,36.57802],[106.13862,36.59104],[106.148,36.60003],[106.1389,36.60672],[106.15139,36.6126],[106.15068,36.6226],[106.13413,36.62938],[106.12924,36.6444],[106.11283,36.63983],[106.11149,36.65156],[106.11882,36.65611],[106.10409,36.6693],[106.10305,36.69632],[106.07294,36.72078],[106.06339,36.73885],[106.06064,36.77268],[106.0246,36.79872],[106.03687,36.80325],[106.02343,36.81327],[106.03362,36.82038],[106.02212,36.81811],[106.03208,36.8254],[106.02012,36.82366],[105.98499,36.83982],[105.98726,36.84693],[105.96755,36.83906],[105.98175,36.84975],[105.97626,36.87218],[105.9833,36.87817],[105.96269,36.88183],[105.96835,36.89573],[105.94949,36.90445],[105.95986,36.90995],[105.95262,36.91822],[105.94112,36.91388],[105.94441,36.92006],[105.93498,36.92798],[105.91503,36.93206],[105.91671,36.92323],[105.9015,36.91684],[105.90337,36.90931],[105.87408,36.90833],[105.90165,36.88782],[105.9033,36.87776],[105.87473,36.85647],[105.88041,36.85115],[105.87436,36.83711],[105.85486,36.83826],[105.86269,36.82789],[105.85099,36.83305],[105.84978,36.81466],[105.83668,36.81086],[105.82926,36.7977],[105.817,36.80021],[105.8145,36.81809],[105.78885,36.8386],[105.76911,36.82884],[105.75543,36.83561],[105.74046,36.81779],[105.73407,36.82435],[105.73382,36.85677],[105.74343,36.8581],[105.74396,36.86514],[105.73418,36.87334],[105.75687,36.8964],[105.73249,36.90935],[105.73195,36.91687],[105.76457,36.90806],[105.78315,36.92954],[105.82022,36.94912],[105.82828,36.9732],[105.84275,36.98042],[105.77753,37.08389],[105.73916,37.08791],[105.70751,37.11616],[105.67975,37.12496],[105.66363,37.15988],[105.6706,37.16678],[105.66098,37.19213],[105.58112,37.198],[105.56471,37.21204],[105.57613,37.22162],[105.60411,37.22416],[105.67145,37.27665],[105.69021,37.23843],[105.67957,37.21651],[105.70868,37.18707],[105.76263,37.19126],[105.77392,37.20028],[105.79419,37.17488],[105.81293,37.18059],[105.87423,37.17772],[105.91122,37.16359],[105.94451,37.16191],[105.9589,37.16742],[105.97999,37.16104],[106.00171,37.17672],[106.04346,37.17687],[106.05982,37.16961],[106.06314,37.1442],[106.09077,37.11859],[106.16734,37.09294],[106.2252,37.09711],[106.24509,37.07477],[106.24687,37.08218],[106.25741,37.07378],[106.24326,37.09832],[106.24751,37.10636],[106.26789,37.10234],[106.28983,37.11931],[106.31473,37.11667],[106.34249,37.12715],[106.31042,37.20748],[106.30794,37.23091],[106.28225,37.24337],[106.26206,37.24362],[106.26612,37.27677],[106.25373,37.28282],[106.24194,37.32257],[106.24446,37.3365],[106.25556,37.34145],[106.24697,37.34364],[106.24767,37.35272],[106.25721,37.34851],[106.25724,37.35546],[106.26312,37.35349],[106.26638,37.35439],[106.25935,37.36578],[106.28524,37.35649],[106.28737,37.36202],[106.33362,37.3285],[106.41222,37.36061],[106.4184,37.35306],[106.448,37.35958],[106.43741,37.36828],[106.46236,37.387],[106.45663,37.39753],[106.46171,37.40065],[106.47781,37.38438],[106.48101,37.35357],[106.49427,37.34203],[106.49496,37.32777],[106.56423,37.31781],[106.57474,37.31878],[106.57401,37.32815],[106.62442,37.33767]]]}},{"type":"Feature","id":"CTAMAP-2016-COUNTY-2149","properties":{"map_level":"county","source_name":"西吉县","source_code":"640422","county_type":"县","prefecture_name":"固原市","prefecture_code":"640400","prefecture_type":"地级市","parent_entity_id":"CNUR-000324","parent_year_end_name":"固原市","province_name":"宁夏回族自治区","province_code":"640000","snapshot_year":2016,"panel_year":2015,"link_status":"parent_linked","former_name":"","note":""},"geometry":{"type":"Polygon","coordinates":[[[106.00371,36.19268],[106.00798,36.16392],[106.0332,36.12501],[106.03787,36.10318],[106.02217,36.05299],[106.03546,36.03465],[106.0228,36.0246],[106.02627,36.00266],[106.00834,35.99189],[106.0076,35.96699],[106.04544,35.92907],[106.05471,35.88712],[106.04654,35.87503],[106.00597,35.86303],[106.01415,35.84873],[105.98406,35.81944],[105.97785,35.79642],[106.00365,35.78678],[106.01907,35.78935],[106.01191,35.76942],[106.01959,35.76495],[106.02384,35.73386],[106.06783,35.72235],[106.07553,35.69506],[106.0522,35.7068],[106.04487,35.70119],[105.96988,35.71467],[105.94526,35.69702],[105.9394,35.67664],[105.92532,35.66769],[105.88567,35.67434],[105.88052,35.66836],[105.86639,35.67602],[105.84618,35.64995],[105.85897,35.62741],[105.84331,35.60616],[105.84312,35.59405],[105.79601,35.56568],[105.77289,35.58705],[105.78175,35.59163],[105.77646,35.5996],[105.74111,35.61498],[105.75583,35.61886],[105.76106,35.63165],[105.74505,35.62452],[105.73674,35.63623],[105.70951,35.64715],[105.71996,35.67272],[105.71634,35.68041],[105.68737,35.68531],[105.68679,35.69934],[105.70179,35.70375],[105.71731,35.72819],[105.72451,35.70199],[105.7343,35.69891],[105.75579,35.72268],[105.75252,35.73109],[105.74087,35.73334],[105.73349,35.72342],[105.71061,35.7411],[105.69953,35.73407],[105.67497,35.73805],[105.66599,35.75147],[105.57572,35.71621],[105.57029,35.7125],[105.5747,35.70244],[105.56249,35.68858],[105.55575,35.69988],[105.56659,35.71544],[105.55182,35.72666],[105.54203,35.73005],[105.53465,35.7221],[105.52668,35.72831],[105.50173,35.71852],[105.47698,35.72777],[105.4694,35.74899],[105.45012,35.74761],[105.45274,35.7698],[105.42752,35.7898],[105.42544,35.82028],[105.41487,35.81381],[105.41086,35.82489],[105.38129,35.79422],[105.37438,35.79687],[105.36957,35.84696],[105.38182,35.85369],[105.3922,35.84747],[105.3956,35.85771],[105.37871,35.87182],[105.34081,35.87878],[105.32085,35.90647],[105.33331,35.91346],[105.32139,35.94187],[105.33763,36.0281],[105.36187,36.03466],[105.35921,36.04863],[105.38609,36.06367],[105.38838,36.07693],[105.40354,36.07514],[105.42702,36.10397],[105.48747,36.10127],[105.51092,36.14789],[105.49726,36.15894],[105.48318,36.19119],[105.49136,36.19003],[105.50729,36.2074],[105.5544,36.21625],[105.56435,36.2301],[105.58395,36.23643],[105.60042,36.23047],[105.62094,36.19521],[105.67959,36.14865],[105.71485,36.17429],[105.75476,36.18077],[105.7697,36.17147],[105.77476,36.15475],[105.75482,36.13395],[105.80099,36.14204],[105.81493,36.12203],[105.85397,36.15243],[105.87332,36.1826],[105.88153,36.18301],[105.87607,36.20218],[105.88094,36.21728],[105.93593,36.22245],[105.98478,36.20305],[105.98946,36.19317],[106.00371,36.19268]]]}},{"type":"Feature","id":"CTAMAP-2016-COUNTY-2161","properties":{"map_level":"county","source_name":"西夏区","source_code":"640105","county_type":"市辖区","prefecture_name":"银川市","prefecture_code":"640100","prefecture_type":"地级市","parent_entity_id":"CNUR-000321","parent_year_end_name":"银川市","province_name":"宁夏回族自治区","province_code":"640000","snapshot_year":2016,"panel_year":2015,"link_status":"parent_linked","former_name":"城区","note":"2002年撤销城区，设立西夏区"},"geometry":{"type":"Polygon","coordinates":[[[106.23806,38.68686],[106.19215,38.58141],[106.16525,38.47781],[106.05075,38.31211],[106.04339,38.32006],[106.04303,38.34455],[106.00515,38.37718],[106.00493,38.39048],[105.87714,38.4398],[105.88062,38.45312],[105.8608,38.46898],[105.84363,38.47118],[105.83536,38.48423],[105.84509,38.5146],[105.85886,38.52537],[105.85237,38.57506],[105.86923,38.58204],[105.87112,38.59027],[105.85548,38.60972],[105.84866,38.64008],[105.87056,38.6592],[105.86774,38.67089],[105.89053,38.69338],[105.88149,38.71363],[105.93016,38.70058],[105.97367,38.67136],[106.08064,38.66181],[106.11557,38.64505],[106.13683,38.68355],[106.1476,38.68114],[106.14913,38.68841],[106.1831,38.67959],[106.23806,38.68686]]]}},{"type":"Feature","id":"CTAMAP-2016-COUNTY-2294","properties":{"map_level":"county","source_name":"兴庆区","source_code":"640104","county_type":"市辖区","prefecture_name":"银川市","prefecture_code":"640100","prefecture_type":"地级市","parent_entity_id":"CNUR-000321","parent_year_end_name":"银川市","province_name":"宁夏回族自治区","province_code":"640000","snapshot_year":2016,"panel_year":2015,"link_status":"parent_linked","former_name":"郊区","note":"2002年撤销郊区，设立兴庆区"},"geometry":{"type":"Polygon","coordinates":[[[106.65922,38.6008],[106.64514,38.47287],[106.59618,38.3904],[106.47833,38.31917],[106.46503,38.33701],[106.46247,38.29398],[106.43117,38.30219],[106.43416,38.32657],[106.4161,38.33923],[106.42182,38.3449],[106.40799,38.35623],[106.37857,38.3364],[106.35098,38.34778],[106.3778,38.3805],[106.34049,38.39413],[106.34542,38.39898],[106.32577,38.40897],[106.32351,38.42018],[106.29464,38.39945],[106.26663,38.39989],[106.27155,38.42083],[106.24853,38.47031],[106.25716,38.50022],[106.28826,38.50527],[106.30793,38.52232],[106.35696,38.51427],[106.35245,38.47959],[106.38293,38.47698],[106.3643,38.45636],[106.4175,38.45885],[106.4177,38.45118],[106.428,38.44809],[106.43304,38.46505],[106.44724,38.46236],[106.43705,38.46662],[106.44866,38.48837],[106.44148,38.49336],[106.44462,38.50709],[106.4374,38.5218],[106.5433,38.52448],[106.5296,38.54821],[106.52654,38.57727],[106.54062,38.6252],[106.56271,38.64246],[106.58513,38.65482],[106.63376,38.6433],[106.63893,38.61784],[106.65922,38.6008]]]}},{"type":"Feature","id":"CTAMAP-2016-COUNTY-2349","properties":{"map_level":"county","source_name":"盐池县","source_code":"640323","county_type":"县","prefecture_name":"吴忠市","prefecture_code":"640300","prefecture_type":"地级市","parent_entity_id":"CNUR-000323","parent_year_end_name":"吴忠市","province_name":"宁夏回族自治区","province_code":"640000","snapshot_year":2016,"panel_year":2015,"link_status":"parent_linked","former_name":"","note":""},"geometry":{"type":"Polygon","coordinates":[[[107.64506,37.8642],[107.66136,37.85195],[107.66171,37.83681],[107.64793,37.83171],[107.64398,37.8074],[107.65124,37.80305],[107.63843,37.80467],[107.62369,37.77225],[107.61153,37.76858],[107.57944,37.79811],[107.57095,37.79092],[107.58786,37.78634],[107.58418,37.77811],[107.54374,37.77034],[107.53448,37.78142],[107.49225,37.76427],[107.49837,37.73457],[107.46632,37.70277],[107.46601,37.68659],[107.43699,37.68823],[107.41529,37.6776],[107.39938,37.69111],[107.38072,37.69185],[107.38214,37.67075],[107.41694,37.66478],[107.41598,37.65057],[107.39372,37.65314],[107.34296,37.60673],[107.30755,37.60853],[107.32572,37.58321],[107.36302,37.58737],[107.3667,37.57821],[107.34917,37.53048],[107.32491,37.51076],[107.32524,37.49504],[107.31699,37.49279],[107.31391,37.50471],[107.2806,37.48187],[107.28253,37.4519],[107.27158,37.41865],[107.27901,37.41604],[107.27351,37.39829],[107.25888,37.39149],[107.25487,37.31826],[107.26365,37.29673],[107.29765,37.26488],[107.30465,37.23564],[107.2763,37.2392],[107.25439,37.22834],[107.31375,37.19916],[107.33368,37.15873],[107.32602,37.12971],[107.30196,37.10025],[107.27384,37.12823],[107.26909,37.10943],[107.27619,37.09853],[107.24993,37.10384],[107.23201,37.097],[107.17758,37.14084],[107.13366,37.13498],[107.0895,37.11669],[107.08176,37.12556],[107.0571,37.12357],[107.02586,37.14019],[107.02046,37.13033],[107.02468,37.10664],[106.98915,37.12165],[106.9845,37.11742],[106.99554,37.10803],[106.97971,37.10715],[106.95927,37.11253],[106.94368,37.13196],[106.90194,37.1511],[106.88654,37.13952],[106.90918,37.132],[106.91266,37.12313],[106.8915,37.09998],[106.86674,37.11549],[106.85038,37.11348],[106.81202,37.14283],[106.77633,37.1583],[106.76182,37.1352],[106.7687,37.12139],[106.75191,37.10109],[106.75571,37.08049],[106.74371,37.09994],[106.72287,37.10897],[106.72435,37.12088],[106.69502,37.11749],[106.68313,37.12971],[106.66689,37.11068],[106.65843,37.1256],[106.63655,37.11863],[106.61452,37.13425],[106.60925,37.16772],[106.64365,37.18963],[106.64718,37.21098],[106.65967,37.2183],[106.66693,37.23619],[106.69042,37.24381],[106.69094,37.2698],[106.69795,37.2774],[106.69249,37.29056],[106.64725,37.29577],[106.62305,37.32086],[106.62442,37.33767],[106.70514,37.34327],[106.67639,37.40832],[106.64296,37.41147],[106.63935,37.43809],[106.65466,37.49061],[106.58824,37.58376],[106.56765,37.59323],[106.58718,37.62456],[106.63931,37.64197],[106.64442,37.65509],[106.70935,37.63941],[106.76954,37.63608],[106.76505,37.73846],[106.82648,37.76022],[106.85667,37.79599],[106.87551,37.83347],[106.88117,37.863],[106.84081,37.86602],[106.83025,37.85852],[106.81872,37.87274],[106.81666,37.94469],[106.77813,37.93815],[106.75959,37.97881],[106.76256,38.0086],[106.78153,38.04011],[106.82632,38.03368],[106.85312,38.04809],[106.8081,38.11936],[106.80747,38.1396],[106.81982,38.16207],[107.02778,38.11615],[107.03518,38.12551],[107.11904,38.14156],[107.13426,38.1591],[107.18504,38.15425],[107.23975,38.11043],[107.32978,38.08737],[107.35348,38.05051],[107.43546,37.99528],[107.40621,37.94796],[107.41519,37.93955],[107.44512,37.93227],[107.45319,37.94123],[107.48925,37.94402],[107.55494,37.89307],[107.64506,37.8642]]]}},{"type":"Feature","id":"CTAMAP-2016-COUNTY-2466","properties":{"map_level":"county","source_name":"永宁县","source_code":"640121","county_type":"县","prefecture_name":"银川市","prefecture_code":"640100","prefecture_type":"地级市","parent_entity_id":"CNUR-000321","parent_year_end_name":"银川市","province_name":"宁夏回族自治区","province_code":"640000","snapshot_year":2016,"panel_year":2015,"link_status":"parent_linked","former_name":"","note":""},"geometry":{"type":"Polygon","coordinates":[[[106.04339,38.32006],[106.06388,38.30632],[106.07847,38.2826],[106.10564,38.32653],[106.12707,38.3179],[106.16119,38.36451],[106.16826,38.38873],[106.20602,38.39248],[106.21158,38.40622],[106.24079,38.40917],[106.29464,38.39945],[106.31849,38.42189],[106.32738,38.41718],[106.32577,38.40897],[106.34542,38.39898],[106.34049,38.39413],[106.3778,38.3805],[106.35098,38.34778],[106.37003,38.33707],[106.35869,38.32483],[106.33475,38.3182],[106.33072,38.28849],[106.27827,38.248],[106.26893,38.22514],[106.23727,38.19527],[106.24177,38.17253],[106.21614,38.12972],[106.14925,38.15997],[106.12257,38.14453],[106.121,38.17059],[106.1046,38.17491],[106.10328,38.18362],[106.07193,38.18352],[106.07917,38.20053],[106.07398,38.21126],[106.03654,38.17531],[106.00584,38.18612],[106.00123,38.17225],[105.97646,38.17971],[105.9618,38.14564],[105.93527,38.16022],[105.96645,38.22215],[105.90717,38.24225],[105.88916,38.25959],[105.84876,38.26427],[105.86226,38.29674],[105.81727,38.36059],[105.83112,38.38453],[105.82224,38.43224],[105.84604,38.44454],[105.83129,38.47022],[105.83536,38.48423],[105.84363,38.47118],[105.8608,38.46898],[105.88062,38.45312],[105.87714,38.4398],[106.00493,38.39048],[106.00515,38.37718],[106.04303,38.34455],[106.04339,38.32006]]]}},{"type":"Feature","id":"CTAMAP-2016-COUNTY-2538","properties":{"map_level":"county","source_name":"原州区","source_code":"640402","county_type":"市辖区","prefecture_name":"固原市","prefecture_code":"640400","prefecture_type":"地级市","parent_entity_id":"CNUR-000324","parent_year_end_name":"固原市","province_name":"宁夏回族自治区","province_code":"640000","snapshot_year":2016,"panel_year":2015,"link_status":"parent_linked","former_name":"","note":""},"geometry":{"type":"Polygon","coordinates":[[[106.47997,36.28537],[106.50957,36.25643],[106.47314,36.19659],[106.475,36.12022],[106.45805,36.07832],[106.48269,36.05116],[106.49089,36.02182],[106.50297,36.02545],[106.54166,35.98628],[106.5244,35.94979],[106.50035,35.95013],[106.49205,35.93496],[106.45322,35.95703],[106.40864,35.93102],[106.40894,35.91764],[106.37704,35.91528],[106.32427,35.92988],[106.31626,35.90311],[106.34474,35.86208],[106.32061,35.8582],[106.29548,35.87401],[106.29068,35.85046],[106.28081,35.85168],[106.25909,35.82716],[106.26004,35.81761],[106.28091,35.80824],[106.30235,35.82183],[106.30468,35.801],[106.31797,35.78488],[106.31197,35.77411],[106.28614,35.79274],[106.25953,35.75904],[106.24137,35.77988],[106.19816,35.77059],[106.18825,35.76131],[106.17724,35.7711],[106.1409,35.76289],[106.1085,35.76971],[106.09234,35.76052],[106.06611,35.76673],[106.04181,35.78304],[106.03439,35.76863],[106.01907,35.78935],[106.00365,35.78678],[105.97785,35.79642],[105.98406,35.81944],[106.01415,35.84873],[106.00597,35.86303],[106.04654,35.87503],[106.05471,35.88712],[106.04544,35.92907],[106.0076,35.96699],[106.00834,35.99189],[106.02627,36.00266],[106.0228,36.0246],[106.03546,36.03465],[106.02217,36.05299],[106.03787,36.10318],[106.0332,36.12501],[106.00798,36.16392],[106.00447,36.19873],[105.97586,36.27432],[105.96365,36.2895],[105.97585,36.31206],[105.99295,36.30679],[106.01757,36.32722],[106.04902,36.3328],[106.06943,36.32392],[106.07251,36.33236],[106.08473,36.33415],[106.09761,36.31478],[106.17149,36.33537],[106.18689,36.32556],[106.20555,36.32723],[106.21293,36.34452],[106.1966,36.35183],[106.20004,36.35777],[106.24329,36.38401],[106.26499,36.38116],[106.27488,36.41328],[106.31114,36.4097],[106.30933,36.43715],[106.32171,36.45613],[106.30734,36.45191],[106.30218,36.48276],[106.32458,36.48797],[106.32991,36.5018],[106.34072,36.49901],[106.34817,36.51262],[106.36271,36.5179],[106.40805,36.50521],[106.40783,36.51394],[106.40626,36.5191],[106.40635,36.51995],[106.42851,36.51781],[106.45091,36.49681],[106.47218,36.49551],[106.47988,36.48067],[106.4898,36.49452],[106.51847,36.47776],[106.51552,36.45608],[106.49605,36.43422],[106.50767,36.42298],[106.50058,36.41466],[106.48808,36.42287],[106.48309,36.40209],[106.52218,36.39108],[106.52791,36.37537],[106.50311,36.37003],[106.50079,36.36336],[106.49497,36.31204],[106.50741,36.29199],[106.50254,36.28942],[106.47858,36.3153],[106.46574,36.31192],[106.47997,36.28537]]]}},{"type":"Feature","id":"CTAMAP-2016-COUNTY-2670","properties":{"map_level":"county","source_name":"中宁县","source_code":"640521","county_type":"县","prefecture_name":"中卫市","prefecture_code":"640500","prefecture_type":"地级市","parent_entity_id":"CNUR-000325","parent_year_end_name":"中卫市","province_name":"宁夏回族自治区","province_code":"640000","snapshot_year":2016,"panel_year":2015,"link_status":"parent_linked","former_name":"","note":""},"geometry":{"type":"Polygon","coordinates":[[[106.01684,37.60885],[105.99863,37.60645],[106.00287,37.58593],[106.02849,37.55314],[106.0547,37.54581],[106.07098,37.52715],[106.03046,37.51782],[106.00127,37.47658],[105.95043,37.4722],[105.9794,37.45102],[105.93257,37.44578],[105.93068,37.42703],[105.90962,37.43128],[105.88201,37.42443],[105.87996,37.43497],[105.88025,37.39282],[105.84407,37.39621],[105.83832,37.38234],[105.93509,37.33712],[105.94248,37.32923],[105.92338,37.30764],[105.79506,37.31786],[105.7678,37.29942],[105.73001,37.289],[105.75246,37.24326],[105.76793,37.233],[105.76718,37.21574],[105.77907,37.2124],[105.77085,37.20612],[105.77418,37.1976],[105.76263,37.19126],[105.70868,37.18707],[105.67957,37.21651],[105.69021,37.23843],[105.67145,37.27665],[105.60411,37.22416],[105.57613,37.22162],[105.56471,37.21204],[105.58112,37.198],[105.66098,37.19213],[105.6706,37.16678],[105.66363,37.15988],[105.67975,37.12496],[105.70751,37.11616],[105.73916,37.08791],[105.77753,37.08389],[105.84275,36.98042],[105.82828,36.9732],[105.82022,36.94912],[105.78315,36.92954],[105.76457,36.90806],[105.73195,36.91687],[105.73249,36.90935],[105.75687,36.8964],[105.73418,36.87334],[105.74414,36.86352],[105.73382,36.85677],[105.73652,36.82596],[105.71049,36.8351],[105.6938,36.86605],[105.6852,36.85974],[105.69311,36.84628],[105.67589,36.82806],[105.66505,36.82903],[105.65068,36.845],[105.61993,36.83519],[105.59791,36.83756],[105.58687,36.8593],[105.55074,36.87048],[105.53262,36.90013],[105.51819,36.90335],[105.51099,36.90308],[105.51624,36.89687],[105.50839,36.89299],[105.50047,36.89595],[105.49669,36.87822],[105.4656,36.88011],[105.41668,36.90528],[105.38199,36.8832],[105.35205,36.89948],[105.37894,36.95852],[105.36411,36.9588],[105.35497,36.97226],[105.3215,36.98663],[105.30505,37.02575],[105.28469,37.02176],[105.26867,37.05974],[105.28055,37.06003],[105.31879,37.10384],[105.3485,37.09892],[105.38241,37.1203],[105.42385,37.11051],[105.45912,37.12237],[105.46919,37.14141],[105.48545,37.14952],[105.52444,37.22439],[105.54557,37.23671],[105.5776,37.29011],[105.57002,37.31462],[105.58564,37.33225],[105.58404,37.34404],[105.55901,37.36545],[105.52805,37.38754],[105.49569,37.39747],[105.49357,37.43705],[105.52051,37.43688],[105.51913,37.45323],[105.52981,37.45155],[105.5422,37.46611],[105.53214,37.48052],[105.54354,37.49288],[105.50439,37.50155],[105.46965,37.49474],[105.45336,37.50046],[105.45571,37.52527],[105.44211,37.55005],[105.45696,37.56544],[105.45008,37.57325],[105.46695,37.57926],[105.45963,37.60935],[105.46596,37.62003],[105.45516,37.63844],[105.46402,37.65679],[105.46185,37.6723],[105.43711,37.68572],[105.44547,37.69983],[105.56985,37.70077],[105.64472,37.70958],[105.66404,37.72159],[105.71239,37.73142],[105.7555,37.72684],[105.78085,37.73834],[105.83986,37.72802],[105.84858,37.73917],[105.89695,37.73893],[105.89801,37.72453],[105.88474,37.71382],[105.88498,37.67884],[105.87693,37.6591],[105.88984,37.62834],[105.87823,37.61495],[105.90168,37.61327],[105.92596,37.65123],[105.92735,37.66961],[105.94973,37.65672],[105.9759,37.65892],[106.0204,37.64548],[106.01684,37.60885]]]}}]}