{"type":"FeatureCollection","features":[{"type":"Feature","id":"CTAMAP-2015-COUNTY-2192","properties":{"map_level":"county","source_name":"香港特别行政区","source_code":"810000","county_type":"不统计","prefecture_name":"不统计","prefecture_code":"0","prefecture_type":"不统计","parent_entity_id":"","parent_year_end_name":"","province_name":"香港特别行政区","province_code":"810000","snapshot_year":2015,"panel_year":2014,"link_status":"province_direct_or_out_of_scope","former_name":"","note":""},"geometry":{"type":"MultiPolygon","coordinates":[[[[114.16114,22.56193],[114.22641,22.54818],[114.20947,22.52435],[114.25641,22.54947],[114.26217,22.52535],[114.27928,22.52852],[114.27442,22.50972],[114.30439,22.49929],[114.33663,22.50824],[114.25498,22.45302],[114.21432,22.47357],[114.17711,22.44945],[114.21329,22.42704],[114.21884,22.40698],[114.23804,22.43687],[114.28267,22.42224],[114.28105,22.44906],[114.32149,22.48048],[114.32699,22.46071],[114.34139,22.47885],[114.34716,22.46372],[114.33321,22.42831],[114.34647,22.43919],[114.3561,22.42228],[114.36106,22.46086],[114.36954,22.43788],[114.39771,22.43609],[114.4056,22.41267],[114.38684,22.4209],[114.37479,22.40614],[114.39147,22.36767],[114.37587,22.37366],[114.35899,22.33633],[114.31997,22.39369],[114.27867,22.39462],[114.27533,22.3508],[114.26511,22.37114],[114.25074,22.35413],[114.31083,22.30189],[114.28763,22.28785],[114.30529,22.26429],[114.2739,22.26245],[114.26313,22.30067],[114.23975,22.28619],[114.19661,22.32022],[114.17707,22.29368],[114.15532,22.29861],[114.15359,22.32279],[114.12161,22.32151],[114.1267,22.32837],[114.1057,22.36898],[114.02607,22.35513],[113.97654,22.38162],[113.94272,22.35851],[113.91498,22.37525],[113.92035,22.38837],[113.90156,22.4066],[113.99893,22.4893],[114.01296,22.47267],[114.03056,22.47824],[114.03428,22.49849],[114.08176,22.51786],[114.08856,22.53639],[114.14759,22.54151],[114.16114,22.56193]]],[[[114.04783,22.34635],[114.05523,22.31073],[114.0177,22.3104],[114.02152,22.26688],[114.00263,22.27269],[113.99502,22.26599],[114.01222,22.25266],[113.99393,22.24068],[114.02041,22.23019],[114.00429,22.21505],[113.98087,22.21694],[113.97317,22.2407],[113.91689,22.2189],[113.93079,22.21034],[113.89143,22.2229],[113.84608,22.19742],[113.84158,22.2339],[113.86134,22.24704],[113.85166,22.25594],[113.88766,22.26876],[113.89717,22.2912],[113.92984,22.28025],[114.04783,22.34635]]],[[[114.22819,22.28327],[114.25741,22.26175],[114.24633,22.24602],[114.26132,22.20787],[114.24266,22.20808],[114.23373,22.24134],[114.22349,22.24652],[114.21402,22.19417],[114.18764,22.24471],[114.17107,22.23002],[114.16409,22.24547],[114.1361,22.24895],[114.11637,22.27472],[114.13876,22.29033],[114.22819,22.28327]]],[[[114.10579,22.23413],[114.13684,22.21852],[114.12684,22.2095],[114.13,22.2019],[114.16029,22.20861],[114.13937,22.1972],[114.14923,22.18121],[114.11415,22.1834],[114.12013,22.21858],[114.10314,22.21815],[114.10579,22.23413]]],[[[113.89319,22.31089],[113.96162,22.31729],[113.93394,22.29056],[113.89422,22.29449],[113.89319,22.31089]]],[[[114.10747,22.3631],[114.11766,22.33098],[114.09192,22.32606],[114.079,22.3586],[114.10747,22.3631]]],[[[114.3039,22.3508],[114.3178,22.37771],[114.32312,22.34222],[114.3039,22.3508]]],[[[114.28869,22.55359],[114.3155,22.54994],[114.28671,22.53312],[114.28869,22.55359]]],[[[114.02684,22.22163],[114.04125,22.20569],[114.01824,22.19791],[114.02684,22.22163]]],[[[114.2739,22.16499],[114.25481,22.15513],[114.24982,22.16587],[114.26593,22.18077],[114.2739,22.16499]]],[[[114.31389,22.51121],[114.29909,22.50432],[114.29567,22.50715],[114.30925,22.52623],[114.31389,22.51121]]],[[[114.03271,22.25868],[114.04362,22.24121],[114.02646,22.25658],[114.03271,22.25868]]],[[[114.2958,22.25876],[114.29608,22.24203],[114.28715,22.24],[114.28042,22.24944],[114.2958,22.25876]]],[[[114.16252,22.22892],[114.15184,22.23872],[114.14394,22.24374],[114.15922,22.24527],[114.16252,22.22892]]],[[[114.35332,22.48072],[114.36675,22.47648],[114.36093,22.46514],[114.35332,22.48072]]],[[[113.91148,22.17013],[113.90408,22.15638],[113.89881,22.15978],[113.91148,22.17013]]],[[[114.42712,22.54069],[114.44092,22.5415],[114.43992,22.5384],[114.42712,22.54069]]],[[[114.31565,22.33851],[114.33076,22.32865],[114.3208,22.32617],[114.31565,22.33851]]],[[[114.28802,22.367],[114.29334,22.37335],[114.29631,22.35286],[114.28802,22.367]]],[[[114.30784,22.53276],[114.32161,22.53387],[114.319,22.523],[114.30784,22.53276]]],[[[113.9949,22.19426],[113.9824,22.19387],[113.98742,22.20223],[113.9949,22.19426]]],[[[114.06631,22.34566],[114.05454,22.34946],[114.06479,22.35588],[114.06631,22.34566]]],[[[114.24367,22.18802],[114.25612,22.18272],[114.24449,22.17856],[114.24367,22.18802]]],[[[114.34945,22.32414],[114.35368,22.31726],[114.34752,22.31295],[114.34945,22.32414]]],[[[114.03519,22.28929],[114.04578,22.28106],[114.03782,22.28124],[114.03519,22.28929]]],[[[113.90538,22.17923],[113.91573,22.18377],[113.92092,22.17966],[113.90538,22.17923]]],[[[114.36095,22.31655],[114.3694,22.31497],[114.36745,22.3067],[114.36095,22.31655]]],[[[114.32055,22.37274],[114.32938,22.37358],[114.3286,22.3658],[114.32055,22.37274]]],[[[113.87734,22.38137],[113.88524,22.37926],[113.88193,22.37024],[113.87734,22.38137]]],[[[114.30215,22.32531],[114.29506,22.32368],[114.29362,22.33169],[114.30215,22.32531]]],[[[114.36106,22.33872],[114.3667,22.33003],[114.36141,22.33073],[114.36106,22.33872]]],[[[114.04757,22.26233],[114.05371,22.25902],[114.04716,22.25836],[114.04757,22.26233]]],[[[114.3558,22.50071],[114.36399,22.50375],[114.35796,22.49587],[114.3558,22.50071]]],[[[114.28959,22.18816],[114.28288,22.18559],[114.28707,22.18995],[114.28959,22.18816]]]]}}]}